[{"district":"Zona Central","districtType":"Colonia","municipality":"La Paz","municipalityId":"003","city":"La Paz","cityId":"02","state":"Baja California Sur","stateId":"03","stateCode":"BCS","zip":"23000"},{"district":"Zona Comercial","districtType":"Zona comercial","municipality":"La Paz","municipalityId":"003","city":"La Paz","cityId":"02","state":"Baja California Sur","stateId":"03","stateCode":"BCS","zip":"23006"},{"district":"Palacio de Gobierno del Estado de Baja California Sur","districtType":"Gran usuario","municipality":"La Paz","municipalityId":"003","city":"La Paz","cityId":"02","state":"Baja California Sur","stateId":"03","stateCode":"BCS","zip":"23007"},{"district":"Delegación de La Secretaria de Educación Publica","districtType":"Gran usuario","municipality":"La Paz","municipalityId":"003","city":"La Paz","cityId":"02","state":"Baja California Sur","stateId":"03","stateCode":"BCS","zip":"23008"},{"district":"Oficina Federal de Hacienda","districtType":"Gran usuario","municipality":"La Paz","municipalityId":"003","city":"La Paz","cityId":"02","state":"Baja California Sur","stateId":"03","stateCode":"BCS","zip":"23009"},{"district":"Colina del Sol","districtType":"Colonia","municipality":"La Paz","municipalityId":"003","city":"La Paz","cityId":"02","state":"Baja California Sur","stateId":"03","stateCode":"BCS","zip":"23010"},{"district":"Lomas de Palmira","districtType":"Colonia","municipality":"La Paz","municipalityId":"003","city":"La Paz","cityId":"02","state":"Baja California Sur","stateId":"03","stateCode":"BCS","zip":"23010"},{"district":"Ciudad del Cielo","districtType":"Colonia","municipality":"La Paz","municipalityId":"003","city":"La Paz","cityId":"02","state":"Baja California Sur","stateId":"03","stateCode":"BCS","zip":"23010"},{"district":"Agustín Olachea","districtType":"Colonia","municipality":"La Paz","municipalityId":"003","city":"La Paz","cityId":"02","state":"Baja California Sur","stateId":"03","stateCode":"BCS","zip":"23010"},{"district":"Paseos del Cortes","districtType":"Colonia","municipality":"La Paz","municipalityId":"003","city":"La Paz","cityId":"02","state":"Baja California Sur","stateId":"03","stateCode":"BCS","zip":"23017"},{"district":"Reforma II","districtType":"Colonia","municipality":"La Paz","municipalityId":"003","city":"La Paz","cityId":"02","state":"Baja California Sur","stateId":"03","stateCode":"BCS","zip":"23018"},{"district":"Alfonso Sanchez Madariaga INFONAVIT","districtType":"Unidad habitacional","municipality":"La Paz","municipalityId":"003","city":"La Paz","cityId":"02","state":"Baja California Sur","stateId":"03","stateCode":"BCS","zip":"23018"},{"district":"Pedregal del Cortes","districtType":"Unidad habitacional","municipality":"La Paz","municipalityId":"003","city":"La Paz","cityId":"02","state":"Baja California Sur","stateId":"03","stateCode":"BCS","zip":"23018"},{"district":"Reforma I","districtType":"Colonia","municipality":"La Paz","municipalityId":"003","city":"La Paz","cityId":"02","state":"Baja California Sur","stateId":"03","stateCode":"BCS","zip":"23018"},{"district":"Policentro Palmira","districtType":"Colonia","municipality":"La Paz","municipalityId":"003","city":"La Paz","cityId":"02","state":"Baja California Sur","stateId":"03","stateCode":"BCS","zip":"23019"},{"district":"Pedregal de la Paz","districtType":"Fraccionamiento","municipality":"La Paz","municipalityId":"003","city":"La Paz","cityId":"02","state":"Baja California Sur","stateId":"03","stateCode":"BCS","zip":"23019"},{"district":"Esterito","districtType":"Colonia","municipality":"La Paz","municipalityId":"003","city":"La Paz","cityId":"02","state":"Baja California Sur","stateId":"03","stateCode":"BCS","zip":"23020"},{"district":"Ladrillera","districtType":"Colonia","municipality":"La Paz","municipalityId":"003","city":"La Paz","cityId":"02","state":"Baja California Sur","stateId":"03","stateCode":"BCS","zip":"23020"},{"district":"Guerrero","districtType":"Colonia","municipality":"La Paz","municipalityId":"003","city":"La Paz","cityId":"02","state":"Baja California Sur","stateId":"03","stateCode":"BCS","zip":"23020"},{"district":"Colina de La Cruz","districtType":"Colonia","municipality":"La Paz","municipalityId":"003","city":"La Paz","cityId":"02","state":"Baja California Sur","stateId":"03","stateCode":"BCS","zip":"23020"},{"district":"Manuel Rivera Anaya","districtType":"Unidad habitacional","municipality":"La Paz","municipalityId":"003","city":"La Paz","cityId":"02","state":"Baja California Sur","stateId":"03","stateCode":"BCS","zip":"23020"},{"district":"Olachea","districtType":"Colonia","municipality":"La Paz","municipalityId":"003","city":"La Paz","cityId":"02","state":"Baja California Sur","stateId":"03","stateCode":"BCS","zip":"23026"},{"district":"Antonio Navarro Rubio","districtType":"Colonia","municipality":"La Paz","municipalityId":"003","city":"La Paz","cityId":"02","state":"Baja California Sur","stateId":"03","stateCode":"BCS","zip":"23026"},{"district":"Zona Militar","districtType":"Colonia","municipality":"La Paz","municipalityId":"003","city":"La Paz","cityId":"02","state":"Baja California Sur","stateId":"03","stateCode":"BCS","zip":"23029"},{"district":"Lienzo Charro","districtType":"Colonia","municipality":"La Paz","municipalityId":"003","city":"La Paz","cityId":"02","state":"Baja California Sur","stateId":"03","stateCode":"BCS","zip":"23030"},{"district":"Magisterial","districtType":"Colonia","municipality":"La Paz","municipalityId":"003","city":"La Paz","cityId":"02","state":"Baja California Sur","stateId":"03","stateCode":"BCS","zip":"23030"},{"district":"Guadalupe Victoria","districtType":"Colonia","municipality":"La Paz","municipalityId":"003","city":"La Paz","cityId":"02","state":"Baja California Sur","stateId":"03","stateCode":"BCS","zip":"23030"},{"district":"Independencia","districtType":"Colonia","municipality":"La Paz","municipalityId":"003","city":"La Paz","cityId":"02","state":"Baja California Sur","stateId":"03","stateCode":"BCS","zip":"23030"},{"district":"San Pablo Guelatao","districtType":"Colonia","municipality":"La Paz","municipalityId":"003","city":"La Paz","cityId":"02","state":"Baja California Sur","stateId":"03","stateCode":"BCS","zip":"23030"},{"district":"Francisco Villa","districtType":"Colonia","municipality":"La Paz","municipalityId":"003","city":"La Paz","cityId":"02","state":"Baja California Sur","stateId":"03","stateCode":"BCS","zip":"23030"},{"district":"Loma Linda","districtType":"Colonia","municipality":"La Paz","municipalityId":"003","city":"La Paz","cityId":"02","state":"Baja California Sur","stateId":"03","stateCode":"BCS","zip":"23030"},{"district":"Lázaro Cárdenas","districtType":"Colonia","municipality":"La Paz","municipalityId":"003","city":"La Paz","cityId":"02","state":"Baja California Sur","stateId":"03","stateCode":"BCS","zip":"23034"},{"district":"Jacinto Lopez","districtType":"Colonia","municipality":"La Paz","municipalityId":"003","city":"La Paz","cityId":"02","state":"Baja California Sur","stateId":"03","stateCode":"BCS","zip":"23037"},{"district":"Lázaro Cárdenas","districtType":"Ampliación","municipality":"La Paz","municipalityId":"003","city":"La Paz","cityId":"02","state":"Baja California Sur","stateId":"03","stateCode":"BCS","zip":"23038"},{"district":"Vista Hermosa","districtType":"Colonia","municipality":"La Paz","municipalityId":"003","city":"La Paz","cityId":"02","state":"Baja California Sur","stateId":"03","stateCode":"BCS","zip":"23038"},{"district":"Ampliación Marquez de Leon","districtType":"Colonia","municipality":"La Paz","municipalityId":"003","city":"La Paz","cityId":"02","state":"Baja California Sur","stateId":"03","stateCode":"BCS","zip":"23038"},{"district":"Marquez de Leon","districtType":"Colonia","municipality":"La Paz","municipalityId":"003","city":"La Paz","cityId":"02","state":"Baja California Sur","stateId":"03","stateCode":"BCS","zip":"23038"},{"district":"Loma Obrera","districtType":"Colonia","municipality":"La Paz","municipalityId":"003","city":"La Paz","cityId":"02","state":"Baja California Sur","stateId":"03","stateCode":"BCS","zip":"23038"},{"district":"Villas de Guadalupe","districtType":"Colonia","municipality":"La Paz","municipalityId":"003","city":"La Paz","cityId":"02","state":"Baja California Sur","stateId":"03","stateCode":"BCS","zip":"23038"},{"district":"Laguna Azul","districtType":"Colonia","municipality":"La Paz","municipalityId":"003","city":"La Paz","cityId":"02","state":"Baja California Sur","stateId":"03","stateCode":"BCS","zip":"23038"},{"district":"La Escondida","districtType":"Colonia","municipality":"La Paz","municipalityId":"003","city":"La Paz","cityId":"02","state":"Baja California Sur","stateId":"03","stateCode":"BCS","zip":"23039"},{"district":"La Rinconada","districtType":"Colonia","municipality":"La Paz","municipalityId":"003","city":"La Paz","cityId":"02","state":"Baja California Sur","stateId":"03","stateCode":"BCS","zip":"23040"},{"district":"Adolfo Ruiz Cortines","districtType":"Colonia","municipality":"La Paz","municipalityId":"003","city":"La Paz","cityId":"02","state":"Baja California Sur","stateId":"03","stateCode":"BCS","zip":"23040"},{"district":"Petrolera","districtType":"Colonia","municipality":"La Paz","municipalityId":"003","city":"La Paz","cityId":"02","state":"Baja California Sur","stateId":"03","stateCode":"BCS","zip":"23040"},{"district":"Los Olivos","districtType":"Colonia","municipality":"La Paz","municipalityId":"003","city":"La Paz","cityId":"02","state":"Baja California Sur","stateId":"03","stateCode":"BCS","zip":"23040"},{"district":"Perla","districtType":"Fraccionamiento","municipality":"La Paz","municipalityId":"003","city":"La Paz","cityId":"02","state":"Baja California Sur","stateId":"03","stateCode":"BCS","zip":"23040"},{"district":"ISSSTE","districtType":"Colonia","municipality":"La Paz","municipalityId":"003","city":"La Paz","cityId":"02","state":"Baja California Sur","stateId":"03","stateCode":"BCS","zip":"23040"},{"district":"Benito Juárez Oriente","districtType":"Colonia","municipality":"La Paz","municipalityId":"003","city":"La Paz","cityId":"02","state":"Baja California Sur","stateId":"03","stateCode":"BCS","zip":"23050"},{"district":"30 de Septiembre","districtType":"Colonia","municipality":"La Paz","municipalityId":"003","city":"La Paz","cityId":"02","state":"Baja California Sur","stateId":"03","stateCode":"BCS","zip":"23050"},{"district":"Bella Vista Plus","districtType":"Colonia","municipality":"La Paz","municipalityId":"003","city":"La Paz","cityId":"02","state":"Baja California Sur","stateId":"03","stateCode":"BCS","zip":"23050"},{"district":"Tecnológico","districtType":"Colonia","municipality":"La Paz","municipalityId":"003","city":"La Paz","cityId":"02","state":"Baja California Sur","stateId":"03","stateCode":"BCS","zip":"23050"},{"district":"Bella Vista","districtType":"Colonia","municipality":"La Paz","municipalityId":"003","city":"La Paz","cityId":"02","state":"Baja California Sur","stateId":"03","stateCode":"BCS","zip":"23050"},{"district":"Rosaura Zapata","districtType":"Colonia","municipality":"La Paz","municipalityId":"003","city":"La Paz","cityId":"02","state":"Baja California Sur","stateId":"03","stateCode":"BCS","zip":"23050"},{"district":"Zona Industrial","districtType":"Zona industrial","municipality":"La Paz","municipalityId":"003","city":"La Paz","cityId":"02","state":"Baja California Sur","stateId":"03","stateCode":"BCS","zip":"23050"},{"district":"El Campanario","districtType":"Fraccionamiento","municipality":"La Paz","municipalityId":"003","city":"La Paz","cityId":"02","state":"Baja California Sur","stateId":"03","stateCode":"BCS","zip":"23050"},{"district":"Roma","districtType":"Colonia","municipality":"La Paz","municipalityId":"003","city":"La Paz","cityId":"02","state":"Baja California Sur","stateId":"03","stateCode":"BCS","zip":"23050"},{"district":"20 de Noviembre","districtType":"Colonia","municipality":"La Paz","municipalityId":"003","city":"La Paz","cityId":"02","state":"Baja California Sur","stateId":"03","stateCode":"BCS","zip":"23052"},{"district":"José María Morelos","districtType":"Unidad habitacional","municipality":"La Paz","municipalityId":"003","city":"La Paz","cityId":"02","state":"Baja California Sur","stateId":"03","stateCode":"BCS","zip":"23054"},{"district":"Cihuatán (Costa Azul)","districtType":"Unidad habitacional","municipality":"La Paz","municipalityId":"003","city":"La Paz","cityId":"02","state":"Baja California Sur","stateId":"03","stateCode":"BCS","zip":"23054"},{"district":"Calafia","districtType":"Fraccionamiento","municipality":"La Paz","municipalityId":"003","city":"La Paz","cityId":"02","state":"Baja California Sur","stateId":"03","stateCode":"BCS","zip":"23054"},{"district":"Jardines del Sur","districtType":"Colonia","municipality":"La Paz","municipalityId":"003","city":"La Paz","cityId":"02","state":"Baja California Sur","stateId":"03","stateCode":"BCS","zip":"23055"},{"district":"Jardines del Sur","districtType":"Ampliación","municipality":"La Paz","municipalityId":"003","city":"La Paz","cityId":"02","state":"Baja California Sur","stateId":"03","stateCode":"BCS","zip":"23055"},{"district":"Flores Magón","districtType":"Colonia","municipality":"La Paz","municipalityId":"003","city":"La Paz","cityId":"02","state":"Baja California Sur","stateId":"03","stateCode":"BCS","zip":"23056"},{"district":"Popular Indeco","districtType":"Colonia","municipality":"La Paz","municipalityId":"003","city":"La Paz","cityId":"02","state":"Baja California Sur","stateId":"03","stateCode":"BCS","zip":"23056"},{"district":"Albergue Deportivo Indeco","districtType":"Campamento","municipality":"La Paz","municipalityId":"003","city":"La Paz","cityId":"02","state":"Baja California Sur","stateId":"03","stateCode":"BCS","zip":"23057"},{"district":"Inalámbrica","districtType":"Colonia","municipality":"La Paz","municipalityId":"003","city":"La Paz","cityId":"02","state":"Baja California Sur","stateId":"03","stateCode":"BCS","zip":"23060"},{"district":"Pueblo Nuevo","districtType":"Colonia","municipality":"La Paz","municipalityId":"003","city":"La Paz","cityId":"02","state":"Baja California Sur","stateId":"03","stateCode":"BCS","zip":"23060"},{"district":"California","districtType":"Colonia","municipality":"La Paz","municipalityId":"003","city":"La Paz","cityId":"02","state":"Baja California Sur","stateId":"03","stateCode":"BCS","zip":"23060"},{"district":"Lomas de Cataviña","districtType":"Fraccionamiento","municipality":"La Paz","municipalityId":"003","city":"La Paz","cityId":"02","state":"Baja California Sur","stateId":"03","stateCode":"BCS","zip":"23060"},{"district":"Barrio El Manglito","districtType":"Colonia","municipality":"La Paz","municipalityId":"003","city":"La Paz","cityId":"02","state":"Baja California Sur","stateId":"03","stateCode":"BCS","zip":"23060"},{"district":"Primero de Mayo","districtType":"Unidad habitacional","municipality":"La Paz","municipalityId":"003","city":"La Paz","cityId":"02","state":"Baja California Sur","stateId":"03","stateCode":"BCS","zip":"23060"},{"district":"Su Casa","districtType":"Colonia","municipality":"La Paz","municipalityId":"003","city":"La Paz","cityId":"02","state":"Baja California Sur","stateId":"03","stateCode":"BCS","zip":"23060"},{"district":"Quinta Esmeralda","districtType":"Fraccionamiento","municipality":"La Paz","municipalityId":"003","city":"La Paz","cityId":"02","state":"Baja California Sur","stateId":"03","stateCode":"BCS","zip":"23060"},{"district":"Electricista","districtType":"Colonia","municipality":"La Paz","municipalityId":"003","city":"La Paz","cityId":"02","state":"Baja California Sur","stateId":"03","stateCode":"BCS","zip":"23068"},{"district":"Unidad Alta","districtType":"Colonia","municipality":"La Paz","municipalityId":"003","city":"La Paz","cityId":"02","state":"Baja California Sur","stateId":"03","stateCode":"BCS","zip":"23069"},{"district":"Las Palmas","districtType":"Fraccionamiento","municipality":"La Paz","municipalityId":"003","city":"La Paz","cityId":"02","state":"Baja California Sur","stateId":"03","stateCode":"BCS","zip":"23070"},{"district":"Las Grullas","districtType":"Conjunto habitacional","municipality":"La Paz","municipalityId":"003","city":"La Paz","cityId":"02","state":"Baja California Sur","stateId":"03","stateCode":"BCS","zip":"23070"},{"district":"INFONAVIT","districtType":"Unidad habitacional","municipality":"La Paz","municipalityId":"003","city":"La Paz","cityId":"02","state":"Baja California Sur","stateId":"03","stateCode":"BCS","zip":"23070"},{"district":"Indeco","districtType":"Colonia","municipality":"La Paz","municipalityId":"003","city":"La Paz","cityId":"02","state":"Baja California Sur","stateId":"03","stateCode":"BCS","zip":"23070"},{"district":"Oro Blanco","districtType":"Colonia","municipality":"La Paz","municipalityId":"003","city":"La Paz","cityId":"02","state":"Baja California Sur","stateId":"03","stateCode":"BCS","zip":"23070"},{"district":"Residencial las Garzas","districtType":"Colonia","municipality":"La Paz","municipalityId":"003","city":"La Paz","cityId":"02","state":"Baja California Sur","stateId":"03","stateCode":"BCS","zip":"23070"},{"district":"Unidad Indeco","districtType":"Unidad habitacional","municipality":"La Paz","municipalityId":"003","city":"La Paz","cityId":"02","state":"Baja California Sur","stateId":"03","stateCode":"BCS","zip":"23070"},{"district":"Pescadores","districtType":"Unidad habitacional","municipality":"La Paz","municipalityId":"003","city":"La Paz","cityId":"02","state":"Baja California Sur","stateId":"03","stateCode":"BCS","zip":"23070"},{"district":"Emiliano Zapata","districtType":"Colonia","municipality":"La Paz","municipalityId":"003","city":"La Paz","cityId":"02","state":"Baja California Sur","stateId":"03","stateCode":"BCS","zip":"23070"},{"district":"Revolución II","districtType":"Colonia","municipality":"La Paz","municipalityId":"003","city":"La Paz","cityId":"02","state":"Baja California Sur","stateId":"03","stateCode":"BCS","zip":"23075"},{"district":"Revolución","districtType":"Colonia","municipality":"La Paz","municipalityId":"003","city":"La Paz","cityId":"02","state":"Baja California Sur","stateId":"03","stateCode":"BCS","zip":"23075"},{"district":"Molino Harinero","districtType":"Conjunto habitacional","municipality":"La Paz","municipalityId":"003","city":"La Paz","cityId":"02","state":"Baja California Sur","stateId":"03","stateCode":"BCS","zip":"23075"},{"district":"Borrego Cimarrón","districtType":"Unidad habitacional","municipality":"La Paz","municipalityId":"003","city":"La Paz","cityId":"02","state":"Baja California Sur","stateId":"03","stateCode":"BCS","zip":"23075"},{"district":"3 de Mayo","districtType":"Colonia","municipality":"La Paz","municipalityId":"003","city":"La Paz","cityId":"02","state":"Baja California Sur","stateId":"03","stateCode":"BCS","zip":"23075"},{"district":"Agustín Arriola","districtType":"Colonia","municipality":"La Paz","municipalityId":"003","city":"La Paz","cityId":"02","state":"Baja California Sur","stateId":"03","stateCode":"BCS","zip":"23075"},{"district":"Miguel Canseco","districtType":"Unidad habitacional","municipality":"La Paz","municipalityId":"003","city":"La Paz","cityId":"02","state":"Baja California Sur","stateId":"03","stateCode":"BCS","zip":"23075"},{"district":"Santa Mónica","districtType":"Fraccionamiento","municipality":"La Paz","municipalityId":"003","city":"La Paz","cityId":"02","state":"Baja California Sur","stateId":"03","stateCode":"BCS","zip":"23075"},{"district":"Balandra","districtType":"Colonia","municipality":"La Paz","municipalityId":"003","city":"La Paz","cityId":"02","state":"Baja California Sur","stateId":"03","stateCode":"BCS","zip":"23075"},{"district":"Privada Las Garzas","districtType":"Fraccionamiento","municipality":"La Paz","municipalityId":"003","city":"La Paz","cityId":"02","state":"Baja California Sur","stateId":"03","stateCode":"BCS","zip":"23075"},{"district":"3 de Mayo II","districtType":"Colonia","municipality":"La Paz","municipalityId":"003","city":"La Paz","cityId":"02","state":"Baja California Sur","stateId":"03","stateCode":"BCS","zip":"23075"},{"district":"Civilizadores I","districtType":"Colonia","municipality":"La Paz","municipalityId":"003","city":"La Paz","cityId":"02","state":"Baja California Sur","stateId":"03","stateCode":"BCS","zip":"23076"},{"district":"Los Cactus","districtType":"Colonia","municipality":"La Paz","municipalityId":"003","city":"La Paz","cityId":"02","state":"Baja California Sur","stateId":"03","stateCode":"BCS","zip":"23076"},{"district":"Reforma","districtType":"Colonia","municipality":"La Paz","municipalityId":"003","city":"La Paz","cityId":"02","state":"Baja California Sur","stateId":"03","stateCode":"BCS","zip":"23076"},{"district":"Las Islas","districtType":"Residencial","municipality":"La Paz","municipalityId":"003","city":"La Paz","cityId":"02","state":"Baja California Sur","stateId":"03","stateCode":"BCS","zip":"23076"},{"district":"Del Sol","districtType":"Fraccionamiento","municipality":"La Paz","municipalityId":"003","city":"La Paz","cityId":"02","state":"Baja California Sur","stateId":"03","stateCode":"BCS","zip":"23076"},{"district":"Civilizadores II","districtType":"Colonia","municipality":"La Paz","municipalityId":"003","city":"La Paz","cityId":"02","state":"Baja California Sur","stateId":"03","stateCode":"BCS","zip":"23076"},{"district":"Villa Santa María","districtType":"Fraccionamiento","municipality":"La Paz","municipalityId":"003","city":"La Paz","cityId":"02","state":"Baja California Sur","stateId":"03","stateCode":"BCS","zip":"23076"},{"district":"Cactus Harinera","districtType":"Colonia","municipality":"La Paz","municipalityId":"003","city":"La Paz","cityId":"02","state":"Baja California Sur","stateId":"03","stateCode":"BCS","zip":"23076"},{"district":"Burocrática las Garzas","districtType":"Colonia","municipality":"La Paz","municipalityId":"003","city":"La Paz","cityId":"02","state":"Baja California Sur","stateId":"03","stateCode":"BCS","zip":"23076"},{"district":"Residencial Santa Rita","districtType":"Fraccionamiento","municipality":"La Paz","municipalityId":"003","city":"La Paz","cityId":"02","state":"Baja California Sur","stateId":"03","stateCode":"BCS","zip":"23076"},{"district":"Popular Garza V","districtType":"Fraccionamiento","municipality":"La Paz","municipalityId":"003","city":"La Paz","cityId":"02","state":"Baja California Sur","stateId":"03","stateCode":"BCS","zip":"23076"},{"district":"Las Águilas","districtType":"Fraccionamiento","municipality":"La Paz","municipalityId":"003","city":"La Paz","cityId":"02","state":"Baja California Sur","stateId":"03","stateCode":"BCS","zip":"23076"},{"district":"Las Tunas","districtType":"Fraccionamiento","municipality":"La Paz","municipalityId":"003","city":"La Paz","cityId":"02","state":"Baja California Sur","stateId":"03","stateCode":"BCS","zip":"23076"},{"district":"17 de Octubre","districtType":"Colonia","municipality":"La Paz","municipalityId":"003","city":"La Paz","cityId":"02","state":"Baja California Sur","stateId":"03","stateCode":"BCS","zip":"23077"},{"district":"Libertad","districtType":"Colonia","municipality":"La Paz","municipalityId":"003","city":"La Paz","cityId":"02","state":"Baja California Sur","stateId":"03","stateCode":"BCS","zip":"23078"},{"district":"Embotelladores 83","districtType":"Colonia","municipality":"La Paz","municipalityId":"003","city":"La Paz","cityId":"02","state":"Baja California Sur","stateId":"03","stateCode":"BCS","zip":"23078"},{"district":"Unidad Donceles 28","districtType":"Colonia","municipality":"La Paz","municipalityId":"003","city":"La Paz","cityId":"02","state":"Baja California Sur","stateId":"03","stateCode":"BCS","zip":"23078"},{"district":"Clemente Guillen","districtType":"Unidad habitacional","municipality":"La Paz","municipalityId":"003","city":"La Paz","cityId":"02","state":"Baja California Sur","stateId":"03","stateCode":"BCS","zip":"23078"},{"district":"Las Garzas","districtType":"Colonia","municipality":"La Paz","municipalityId":"003","city":"La Paz","cityId":"02","state":"Baja California Sur","stateId":"03","stateCode":"BCS","zip":"23079"},{"district":"Prensa Radio y TV","districtType":"Fraccionamiento","municipality":"La Paz","municipalityId":"003","city":"La Paz","cityId":"02","state":"Baja California Sur","stateId":"03","stateCode":"BCS","zip":"23079"},{"district":"Rio Blanco","districtType":"Colonia","municipality":"La Paz","municipalityId":"003","city":"La Paz","cityId":"02","state":"Baja California Sur","stateId":"03","stateCode":"BCS","zip":"23079"},{"district":"Unidad Domingo Carballo Félix","districtType":"Unidad habitacional","municipality":"La Paz","municipalityId":"003","city":"La Paz","cityId":"02","state":"Baja California Sur","stateId":"03","stateCode":"BCS","zip":"23079"},{"district":"Fuerza Aérea","districtType":"Unidad habitacional","municipality":"La Paz","municipalityId":"003","city":"La Paz","cityId":"02","state":"Baja California Sur","stateId":"03","stateCode":"BCS","zip":"23080"},{"district":"BANOBRAS","districtType":"Unidad habitacional","municipality":"La Paz","municipalityId":"003","city":"La Paz","cityId":"02","state":"Baja California Sur","stateId":"03","stateCode":"BCS","zip":"23080"},{"district":"Agua Escondida","districtType":"Colonia","municipality":"La Paz","municipalityId":"003","city":"La Paz","cityId":"02","state":"Baja California Sur","stateId":"03","stateCode":"BCS","zip":"23080"},{"district":"Agropecuaria","districtType":"Colonia","municipality":"La Paz","municipalityId":"003","city":"La Paz","cityId":"02","state":"Baja California Sur","stateId":"03","stateCode":"BCS","zip":"23080"},{"district":"Sudcalifornia","districtType":"Fraccionamiento","municipality":"La Paz","municipalityId":"003","city":"La Paz","cityId":"02","state":"Baja California Sur","stateId":"03","stateCode":"BCS","zip":"23080"},{"district":"Mezquitito","districtType":"Ampliación","municipality":"La Paz","municipalityId":"003","city":"La Paz","cityId":"02","state":"Baja California Sur","stateId":"03","stateCode":"BCS","zip":"23080"},{"district":"Mezquitito","districtType":"Fraccionamiento","municipality":"La Paz","municipalityId":"003","city":"La Paz","cityId":"02","state":"Baja California Sur","stateId":"03","stateCode":"BCS","zip":"23080"},{"district":"Santa María","districtType":"Colonia","municipality":"La Paz","municipalityId":"003","city":"La Paz","cityId":"02","state":"Baja California Sur","stateId":"03","stateCode":"BCS","zip":"23080"},{"district":"El Calandrio I, II, III","districtType":"Colonia","municipality":"La Paz","municipalityId":"003","city":"La Paz","cityId":"02","state":"Baja California Sur","stateId":"03","stateCode":"BCS","zip":"23080"},{"district":"8 de Octubre 1a Sección","districtType":"Colonia","municipality":"La Paz","municipalityId":"003","city":"La Paz","cityId":"02","state":"Baja California Sur","stateId":"03","stateCode":"BCS","zip":"23080"},{"district":"Universitario","districtType":"Fraccionamiento","municipality":"La Paz","municipalityId":"003","city":"La Paz","cityId":"02","state":"Baja California Sur","stateId":"03","stateCode":"BCS","zip":"23080"},{"district":"Solidaridad Mezquitito I, II","districtType":"Colonia","municipality":"La Paz","municipalityId":"003","city":"La Paz","cityId":"02","state":"Baja California Sur","stateId":"03","stateCode":"BCS","zip":"23083"},{"district":"Misiones","districtType":"Fraccionamiento","municipality":"La Paz","municipalityId":"003","city":"La Paz","cityId":"02","state":"Baja California Sur","stateId":"03","stateCode":"BCS","zip":"23083"},{"district":"El Mezquitito INVI","districtType":"Colonia","municipality":"La Paz","municipalityId":"003","city":"La Paz","cityId":"02","state":"Baja California Sur","stateId":"03","stateCode":"BCS","zip":"23083"},{"district":"San Fernando","districtType":"Colonia","municipality":"La Paz","municipalityId":"003","city":"La Paz","cityId":"02","state":"Baja California Sur","stateId":"03","stateCode":"BCS","zip":"23083"},{"district":"Península Sur","districtType":"Fraccionamiento","municipality":"La Paz","municipalityId":"003","city":"La Paz","cityId":"02","state":"Baja California Sur","stateId":"03","stateCode":"BCS","zip":"23084"},{"district":"La Estancia","districtType":"Fraccionamiento","municipality":"La Paz","municipalityId":"003","city":"La Paz","cityId":"02","state":"Baja California Sur","stateId":"03","stateCode":"BCS","zip":"23084"},{"district":"Diana Laura","districtType":"Colonia","municipality":"La Paz","municipalityId":"003","city":"La Paz","cityId":"02","state":"Baja California Sur","stateId":"03","stateCode":"BCS","zip":"23084"},{"district":"El Palmar II","districtType":"Colonia","municipality":"La Paz","municipalityId":"003","city":"La Paz","cityId":"02","state":"Baja California Sur","stateId":"03","stateCode":"BCS","zip":"23084"},{"district":"Las Californias","districtType":"Fraccionamiento","municipality":"La Paz","municipalityId":"003","city":"La Paz","cityId":"02","state":"Baja California Sur","stateId":"03","stateCode":"BCS","zip":"23084"},{"district":"Valle del Mezquite","districtType":"Fraccionamiento","municipality":"La Paz","municipalityId":"003","city":"La Paz","cityId":"02","state":"Baja California Sur","stateId":"03","stateCode":"BCS","zip":"23084"},{"district":"La Cañada","districtType":"Colonia","municipality":"La Paz","municipalityId":"003","city":"La Paz","cityId":"02","state":"Baja California Sur","stateId":"03","stateCode":"BCS","zip":"23084"},{"district":"El Dorado","districtType":"Fraccionamiento","municipality":"La Paz","municipalityId":"003","city":"La Paz","cityId":"02","state":"Baja California Sur","stateId":"03","stateCode":"BCS","zip":"23084"},{"district":"Las Palmas","districtType":"Fraccionamiento","municipality":"La Paz","municipalityId":"003","city":"La Paz","cityId":"02","state":"Baja California Sur","stateId":"03","stateCode":"BCS","zip":"23084"},{"district":"Terranova","districtType":"Fraccionamiento","municipality":"La Paz","municipalityId":"003","city":"La Paz","cityId":"02","state":"Baja California Sur","stateId":"03","stateCode":"BCS","zip":"23084"},{"district":"Los Tabachines","districtType":"Fraccionamiento","municipality":"La Paz","municipalityId":"003","city":"La Paz","cityId":"02","state":"Baja California Sur","stateId":"03","stateCode":"BCS","zip":"23084"},{"district":"El Progreso","districtType":"Colonia","municipality":"La Paz","municipalityId":"003","city":"La Paz","cityId":"02","state":"Baja California Sur","stateId":"03","stateCode":"BCS","zip":"23084"},{"district":"VIVAH El Progreso","districtType":"Colonia","municipality":"La Paz","municipalityId":"003","city":"La Paz","cityId":"02","state":"Baja California Sur","stateId":"03","stateCode":"BCS","zip":"23084"},{"district":"Progreso","districtType":"Colonia","municipality":"La Paz","municipalityId":"003","city":"La Paz","cityId":"02","state":"Baja California Sur","stateId":"03","stateCode":"BCS","zip":"23084"},{"district":"Los Bledales","districtType":"Conjunto habitacional","municipality":"La Paz","municipalityId":"003","city":"La Paz","cityId":"02","state":"Baja California Sur","stateId":"03","stateCode":"BCS","zip":"23085"},{"district":"San Miguel","districtType":"Fraccionamiento","municipality":"La Paz","municipalityId":"003","city":"La Paz","cityId":"02","state":"Baja California Sur","stateId":"03","stateCode":"BCS","zip":"23085"},{"district":"Leonardo Rodriguez","districtType":"Fraccionamiento","municipality":"La Paz","municipalityId":"003","city":"La Paz","cityId":"02","state":"Baja California Sur","stateId":"03","stateCode":"BCS","zip":"23085"},{"district":"Calandrio","districtType":"Colonia","municipality":"La Paz","municipalityId":"003","city":"La Paz","cityId":"02","state":"Baja California Sur","stateId":"03","stateCode":"BCS","zip":"23085"},{"district":"San Carlos III","districtType":"Fraccionamiento","municipality":"La Paz","municipalityId":"003","city":"La Paz","cityId":"02","state":"Baja California Sur","stateId":"03","stateCode":"BCS","zip":"23085"},{"district":"Paseos del Sol","districtType":"Fraccionamiento","municipality":"La Paz","municipalityId":"003","city":"La Paz","cityId":"02","state":"Baja California Sur","stateId":"03","stateCode":"BCS","zip":"23085"},{"district":"Sector U.A.B.C.S.","districtType":"Zona federal","municipality":"La Paz","municipalityId":"003","city":"La Paz","cityId":"02","state":"Baja California Sur","stateId":"03","stateCode":"BCS","zip":"23085"},{"district":"Rinconada las Californias","districtType":"Fraccionamiento","municipality":"La Paz","municipalityId":"003","city":"La Paz","cityId":"02","state":"Baja California Sur","stateId":"03","stateCode":"BCS","zip":"23085"},{"district":"8 de Octubre 2a Sección","districtType":"Colonia","municipality":"La Paz","municipalityId":"003","city":"La Paz","cityId":"02","state":"Baja California Sur","stateId":"03","stateCode":"BCS","zip":"23085"},{"district":"Miramar","districtType":"Conjunto habitacional","municipality":"La Paz","municipalityId":"003","city":"La Paz","cityId":"02","state":"Baja California Sur","stateId":"03","stateCode":"BCS","zip":"23085"},{"district":"Virreyes","districtType":"Fraccionamiento","municipality":"La Paz","municipalityId":"003","city":"La Paz","cityId":"02","state":"Baja California Sur","stateId":"03","stateCode":"BCS","zip":"23085"},{"district":"Villas de San Lorenzo","districtType":"Fraccionamiento","municipality":"La Paz","municipalityId":"003","city":"La Paz","cityId":"02","state":"Baja California Sur","stateId":"03","stateCode":"BCS","zip":"23085"},{"district":"San Miguel II","districtType":"Fraccionamiento","municipality":"La Paz","municipalityId":"003","city":"La Paz","cityId":"02","state":"Baja California Sur","stateId":"03","stateCode":"BCS","zip":"23085"},{"district":"Brisas de las Olas","districtType":"Fraccionamiento","municipality":"La Paz","municipalityId":"003","city":"La Paz","cityId":"02","state":"Baja California Sur","stateId":"03","stateCode":"BCS","zip":"23085"},{"district":"La Cima Residencial","districtType":"Fraccionamiento","municipality":"La Paz","municipalityId":"003","city":"La Paz","cityId":"02","state":"Baja California Sur","stateId":"03","stateCode":"BCS","zip":"23085"},{"district":"Azul Marino","districtType":"Fraccionamiento","municipality":"La Paz","municipalityId":"003","city":"La Paz","cityId":"02","state":"Baja California Sur","stateId":"03","stateCode":"BCS","zip":"23085"},{"district":"Privadas del Sol","districtType":"Colonia","municipality":"La Paz","municipalityId":"003","city":"La Paz","cityId":"02","state":"Baja California Sur","stateId":"03","stateCode":"BCS","zip":"23085"},{"district":"San Rafael","districtType":"Fraccionamiento","municipality":"La Paz","municipalityId":"003","city":"La Paz","cityId":"02","state":"Baja California Sur","stateId":"03","stateCode":"BCS","zip":"23085"},{"district":"El Pescador","districtType":"Fraccionamiento","municipality":"La Paz","municipalityId":"003","city":"La Paz","cityId":"02","state":"Baja California Sur","stateId":"03","stateCode":"BCS","zip":"23085"},{"district":"Las Américas","districtType":"Fraccionamiento","municipality":"La Paz","municipalityId":"003","city":"La Paz","cityId":"02","state":"Baja California Sur","stateId":"03","stateCode":"BCS","zip":"23085"},{"district":"Paraíso del Sol","districtType":"Fraccionamiento","municipality":"La Paz","municipalityId":"003","city":"La Paz","cityId":"02","state":"Baja California Sur","stateId":"03","stateCode":"BCS","zip":"23085"},{"district":"Villas del Encanto","districtType":"Fraccionamiento","municipality":"La Paz","municipalityId":"003","city":"La Paz","cityId":"02","state":"Baja California Sur","stateId":"03","stateCode":"BCS","zip":"23085"},{"district":"Arbolares","districtType":"Fraccionamiento","municipality":"La Paz","municipalityId":"003","city":"La Paz","cityId":"02","state":"Baja California Sur","stateId":"03","stateCode":"BCS","zip":"23085"},{"district":"Santa Fe","districtType":"Fraccionamiento","municipality":"La Paz","municipalityId":"003","city":"La Paz","cityId":"02","state":"Baja California Sur","stateId":"03","stateCode":"BCS","zip":"23085"},{"district":"Ángel Cesar Mendoza Aramburo","districtType":"Colonia","municipality":"La Paz","municipalityId":"003","city":"La Paz","cityId":"02","state":"Baja California Sur","stateId":"03","stateCode":"BCS","zip":"23086"},{"district":"I.T.R.","districtType":"Gran usuario","municipality":"La Paz","municipalityId":"003","city":"La Paz","cityId":"02","state":"Baja California Sur","stateId":"03","stateCode":"BCS","zip":"23088"},{"district":"El Zacatal","districtType":"Colonia","municipality":"La Paz","municipalityId":"003","city":"La Paz","cityId":"02","state":"Baja California Sur","stateId":"03","stateCode":"BCS","zip":"23088"},{"district":"La Fuente","districtType":"Fraccionamiento","municipality":"La Paz","municipalityId":"003","city":"La Paz","cityId":"02","state":"Baja California Sur","stateId":"03","stateCode":"BCS","zip":"23088"},{"district":"Arcoiris","districtType":"Fraccionamiento","municipality":"La Paz","municipalityId":"003","city":"La Paz","cityId":"02","state":"Baja California Sur","stateId":"03","stateCode":"BCS","zip":"23088"},{"district":"Calafia","districtType":"Fraccionamiento","municipality":"La Paz","municipalityId":"003","city":"La Paz","cityId":"02","state":"Baja California Sur","stateId":"03","stateCode":"BCS","zip":"23088"},{"district":"Ampliación Ayuntamiento","districtType":"Colonia","municipality":"La Paz","municipalityId":"003","city":"La Paz","cityId":"02","state":"Baja California Sur","stateId":"03","stateCode":"BCS","zip":"23088"},{"district":"Del Mar Residencial","districtType":"Fraccionamiento","municipality":"La Paz","municipalityId":"003","city":"La Paz","cityId":"02","state":"Baja California Sur","stateId":"03","stateCode":"BCS","zip":"23088"},{"district":"Perla del Golfo","districtType":"Conjunto habitacional","municipality":"La Paz","municipalityId":"003","city":"La Paz","cityId":"02","state":"Baja California Sur","stateId":"03","stateCode":"BCS","zip":"23088"},{"district":"Ayuntamiento","districtType":"Fraccionamiento","municipality":"La Paz","municipalityId":"003","city":"La Paz","cityId":"02","state":"Baja California Sur","stateId":"03","stateCode":"BCS","zip":"23088"},{"district":"Agua Clara","districtType":"Colonia","municipality":"La Paz","municipalityId":"003","city":"La Paz","cityId":"02","state":"Baja California Sur","stateId":"03","stateCode":"BCS","zip":"23088"},{"district":"El Camino Real","districtType":"Fraccionamiento","municipality":"La Paz","municipalityId":"003","city":"La Paz","cityId":"02","state":"Baja California Sur","stateId":"03","stateCode":"BCS","zip":"23088"},{"district":"El Palmar IV","districtType":"Fraccionamiento","municipality":"La Paz","municipalityId":"003","city":"La Paz","cityId":"02","state":"Baja California Sur","stateId":"03","stateCode":"BCS","zip":"23089"},{"district":"Fuerza Aérea","districtType":"Unidad habitacional","municipality":"La Paz","municipalityId":"003","city":"La Paz","cityId":"02","state":"Baja California Sur","stateId":"03","stateCode":"BCS","zip":"23089"},{"district":"Zona Antiguo Aeropuerto","districtType":"Colonia","municipality":"La Paz","municipalityId":"003","city":"La Paz","cityId":"02","state":"Baja California Sur","stateId":"03","stateCode":"BCS","zip":"23089"},{"district":"Villas de La Paz","districtType":"Colonia","municipality":"La Paz","municipalityId":"003","city":"La Paz","cityId":"02","state":"Baja California Sur","stateId":"03","stateCode":"BCS","zip":"23089"},{"district":"El Palmar I","districtType":"Fraccionamiento","municipality":"La Paz","municipalityId":"003","city":"La Paz","cityId":"02","state":"Baja California Sur","stateId":"03","stateCode":"BCS","zip":"23089"},{"district":"La Pitahaya","districtType":"Fraccionamiento","municipality":"La Paz","municipalityId":"003","city":"La Paz","cityId":"02","state":"Baja California Sur","stateId":"03","stateCode":"BCS","zip":"23089"},{"district":"Villas del Cortes","districtType":"Colonia","municipality":"La Paz","municipalityId":"003","city":"La Paz","cityId":"02","state":"Baja California Sur","stateId":"03","stateCode":"BCS","zip":"23089"},{"district":"Parque Industrial","districtType":"Colonia","municipality":"La Paz","municipalityId":"003","city":"La Paz","cityId":"02","state":"Baja California Sur","stateId":"03","stateCode":"BCS","zip":"23089"},{"district":"Olas Altas","districtType":"Fraccionamiento","municipality":"La Paz","municipalityId":"003","city":"La Paz","cityId":"02","state":"Baja California Sur","stateId":"03","stateCode":"BCS","zip":"23089"},{"district":"El Cardoncito","districtType":"Fraccionamiento","municipality":"La Paz","municipalityId":"003","city":"La Paz","cityId":"02","state":"Baja California Sur","stateId":"03","stateCode":"BCS","zip":"23089"},{"district":"Paseos del Sol","districtType":"Conjunto habitacional","municipality":"La Paz","municipalityId":"003","city":"La Paz","cityId":"02","state":"Baja California Sur","stateId":"03","stateCode":"BCS","zip":"23089"},{"district":"Los Cardones","districtType":"Fraccionamiento","municipality":"La Paz","municipalityId":"003","city":"La Paz","cityId":"02","state":"Baja California Sur","stateId":"03","stateCode":"BCS","zip":"23089"},{"district":"Benito Juárez","districtType":"Fraccionamiento","municipality":"La Paz","municipalityId":"003","city":"La Paz","cityId":"02","state":"Baja California Sur","stateId":"03","stateCode":"BCS","zip":"23090"},{"district":"La Esperanza 2","districtType":"Colonia","municipality":"La Paz","municipalityId":"003","city":"La Paz","cityId":"02","state":"Baja California Sur","stateId":"03","stateCode":"BCS","zip":"23090"},{"district":"Puesta del Sol","districtType":"Fraccionamiento","municipality":"La Paz","municipalityId":"003","city":"La Paz","cityId":"02","state":"Baja California Sur","stateId":"03","stateCode":"BCS","zip":"23090"},{"district":"Tulipanes","districtType":"Conjunto habitacional","municipality":"La Paz","municipalityId":"003","city":"La Paz","cityId":"02","state":"Baja California Sur","stateId":"03","stateCode":"BCS","zip":"23090"},{"district":"San Antonio El Zacatal","districtType":"Fraccionamiento","municipality":"La Paz","municipalityId":"003","city":"La Paz","cityId":"02","state":"Baja California Sur","stateId":"03","stateCode":"BCS","zip":"23090"},{"district":"Marina Sol","districtType":"Fraccionamiento","municipality":"La Paz","municipalityId":"003","city":"La Paz","cityId":"02","state":"Baja California Sur","stateId":"03","stateCode":"BCS","zip":"23090"},{"district":"Arcos del Sol I","districtType":"Conjunto habitacional","municipality":"La Paz","municipalityId":"003","city":"La Paz","cityId":"02","state":"Baja California Sur","stateId":"03","stateCode":"BCS","zip":"23090"},{"district":"Capullo","districtType":"Fraccionamiento","municipality":"La Paz","municipalityId":"003","city":"La Paz","cityId":"02","state":"Baja California Sur","stateId":"03","stateCode":"BCS","zip":"23090"},{"district":"Atardeceres","districtType":"Conjunto habitacional","municipality":"La Paz","municipalityId":"003","city":"La Paz","cityId":"02","state":"Baja California Sur","stateId":"03","stateCode":"BCS","zip":"23090"},{"district":"La Esperanza","districtType":"Conjunto habitacional","municipality":"La Paz","municipalityId":"003","city":"La Paz","cityId":"02","state":"Baja California Sur","stateId":"03","stateCode":"BCS","zip":"23090"},{"district":"La Esperanza 3","districtType":"Colonia","municipality":"La Paz","municipalityId":"003","city":"La Paz","cityId":"02","state":"Baja California Sur","stateId":"03","stateCode":"BCS","zip":"23090"},{"district":"Campestre","districtType":"Fraccionamiento","municipality":"La Paz","municipalityId":"003","city":"La Paz","cityId":"02","state":"Baja California Sur","stateId":"03","stateCode":"BCS","zip":"23090"},{"district":"Misión las Palmas","districtType":"Colonia","municipality":"La Paz","municipalityId":"003","city":"La Paz","cityId":"02","state":"Baja California Sur","stateId":"03","stateCode":"BCS","zip":"23090"},{"district":"Los Girasoles","districtType":"Conjunto habitacional","municipality":"La Paz","municipalityId":"003","city":"La Paz","cityId":"02","state":"Baja California Sur","stateId":"03","stateCode":"BCS","zip":"23090"},{"district":"San Marino","districtType":"Fraccionamiento","municipality":"La Paz","municipalityId":"003","city":"La Paz","cityId":"02","state":"Baja California Sur","stateId":"03","stateCode":"BCS","zip":"23090"},{"district":"Bugambilias","districtType":"Fraccionamiento","municipality":"La Paz","municipalityId":"003","city":"La Paz","cityId":"02","state":"Baja California Sur","stateId":"03","stateCode":"BCS","zip":"23090"},{"district":"El Conchalito","districtType":"Colonia","municipality":"La Paz","municipalityId":"003","city":"La Paz","cityId":"02","state":"Baja California Sur","stateId":"03","stateCode":"BCS","zip":"23090"},{"district":"Jardines de La Paz","districtType":"Colonia","municipality":"La Paz","municipalityId":"003","city":"La Paz","cityId":"02","state":"Baja California Sur","stateId":"03","stateCode":"BCS","zip":"23090"},{"district":"Solidaridad","districtType":"Conjunto habitacional","municipality":"La Paz","municipalityId":"003","city":"La Paz","cityId":"02","state":"Baja California Sur","stateId":"03","stateCode":"BCS","zip":"23090"},{"district":"Arcos del Sol","districtType":"Conjunto habitacional","municipality":"La Paz","municipalityId":"003","city":"La Paz","cityId":"02","state":"Baja California Sur","stateId":"03","stateCode":"BCS","zip":"23090"},{"district":"Solidaridad INFONAVIT","districtType":"Unidad habitacional","municipality":"La Paz","municipalityId":"003","city":"La Paz","cityId":"02","state":"Baja California Sur","stateId":"03","stateCode":"BCS","zip":"23090"},{"district":"Centro SCT Baja California Sur","districtType":"Gran usuario","municipality":"La Paz","municipalityId":"003","city":"La Paz","cityId":"02","state":"Baja California Sur","stateId":"03","stateCode":"BCS","zip":"23091"},{"district":"Sector La Selva Fidepaz","districtType":"Colonia","municipality":"La Paz","municipalityId":"003","city":"La Paz","cityId":"02","state":"Baja California Sur","stateId":"03","stateCode":"BCS","zip":"23094"},{"district":"Balandra Puesta del Sol","districtType":"Conjunto habitacional","municipality":"La Paz","municipalityId":"003","city":"La Paz","cityId":"02","state":"Baja California Sur","stateId":"03","stateCode":"BCS","zip":"23095"},{"district":"Nueva Puesta del Sol","districtType":"Fraccionamiento","municipality":"La Paz","municipalityId":"003","city":"La Paz","cityId":"02","state":"Baja California Sur","stateId":"03","stateCode":"BCS","zip":"23095"},{"district":"Sector Santa Rita","districtType":"Colonia","municipality":"La Paz","municipalityId":"003","city":"La Paz","cityId":"02","state":"Baja California Sur","stateId":"03","stateCode":"BCS","zip":"23095"},{"district":"La Sirena","districtType":"Colonia","municipality":"La Paz","municipalityId":"003","city":"La Paz","cityId":"02","state":"Baja California Sur","stateId":"03","stateCode":"BCS","zip":"23095"},{"district":"Guaycura","districtType":"Colonia","municipality":"La Paz","municipalityId":"003","city":"La Paz","cityId":"02","state":"Baja California Sur","stateId":"03","stateCode":"BCS","zip":"23096"},{"district":"Playa de Santa Rita","districtType":"Colonia","municipality":"La Paz","municipalityId":"003","city":"La Paz","cityId":"02","state":"Baja California Sur","stateId":"03","stateCode":"BCS","zip":"23096"},{"district":"Villas del Mar","districtType":"Fraccionamiento","municipality":"La Paz","municipalityId":"003","city":"La Paz","cityId":"02","state":"Baja California Sur","stateId":"03","stateCode":"BCS","zip":"23097"},{"district":"Plan Hidráulico","districtType":"Fraccionamiento","municipality":"La Paz","municipalityId":"003","city":"La Paz","cityId":"02","state":"Baja California Sur","stateId":"03","stateCode":"BCS","zip":"23097"},{"district":"Residencial Marina Sur","districtType":"Fraccionamiento","municipality":"La Paz","municipalityId":"003","city":"La Paz","cityId":"02","state":"Baja California Sur","stateId":"03","stateCode":"BCS","zip":"23097"},{"district":"Los Pericues","districtType":"Colonia","municipality":"La Paz","municipalityId":"003","city":"La Paz","cityId":"02","state":"Baja California Sur","stateId":"03","stateCode":"BCS","zip":"23097"},{"district":"Pueblo Nuevo 1, 2","districtType":"Colonia","municipality":"La Paz","municipalityId":"003","city":"La Paz","cityId":"02","state":"Baja California Sur","stateId":"03","stateCode":"BCS","zip":"23097"},{"district":"Mineros (Perla ROFOMEX)","districtType":"Colonia","municipality":"La Paz","municipalityId":"003","city":"La Paz","cityId":"02","state":"Baja California Sur","stateId":"03","stateCode":"BCS","zip":"23097"},{"district":"Misioneros","districtType":"Conjunto habitacional","municipality":"La Paz","municipalityId":"003","city":"La Paz","cityId":"02","state":"Baja California Sur","stateId":"03","stateCode":"BCS","zip":"23097"},{"district":"Ciudad del Recreo","districtType":"Fraccionamiento","municipality":"La Paz","municipalityId":"003","city":"La Paz","cityId":"02","state":"Baja California Sur","stateId":"03","stateCode":"BCS","zip":"23097"},{"district":"CCC y Perla de La Paz","districtType":"Colonia","municipality":"La Paz","municipalityId":"003","city":"La Paz","cityId":"02","state":"Baja California Sur","stateId":"03","stateCode":"BCS","zip":"23098"},{"district":"Garzas Agrícolas","districtType":"Colonia","municipality":"La Paz","municipalityId":"003","city":"La Paz","cityId":"02","state":"Baja California Sur","stateId":"03","stateCode":"BCS","zip":"23098"},{"district":"Sector Inalapa","districtType":"Colonia","municipality":"La Paz","municipalityId":"003","city":"La Paz","cityId":"02","state":"Baja California Sur","stateId":"03","stateCode":"BCS","zip":"23098"},{"district":"Azaleas","districtType":"Conjunto habitacional","municipality":"La Paz","municipalityId":"003","city":"La Paz","cityId":"02","state":"Baja California Sur","stateId":"03","stateCode":"BCS","zip":"23098"},{"district":"María Conchita","districtType":"Fraccionamiento","municipality":"La Paz","municipalityId":"003","city":"La Paz","cityId":"02","state":"Baja California Sur","stateId":"03","stateCode":"BCS","zip":"23098"},{"district":"Las Garzas INFONAVIT","districtType":"Unidad habitacional","municipality":"La Paz","municipalityId":"003","city":"La Paz","cityId":"02","state":"Baja California Sur","stateId":"03","stateCode":"BCS","zip":"23098"},{"district":"Las Margaritas","districtType":"Conjunto habitacional","municipality":"La Paz","municipalityId":"003","city":"La Paz","cityId":"02","state":"Baja California Sur","stateId":"03","stateCode":"BCS","zip":"23098"},{"district":"Independencia","districtType":"Unidad habitacional","municipality":"La Paz","municipalityId":"003","city":"La Paz","cityId":"02","state":"Baja California Sur","stateId":"03","stateCode":"BCS","zip":"23099"},{"district":"Santa María","districtType":"Conjunto habitacional","municipality":"La Paz","municipalityId":"003","city":"La Paz","cityId":"02","state":"Baja California Sur","stateId":"03","stateCode":"BCS","zip":"23099"},{"district":"Las Arboledas","districtType":"Colonia","municipality":"La Paz","municipalityId":"003","city":"La Paz","cityId":"02","state":"Baja California Sur","stateId":"03","stateCode":"BCS","zip":"23099"},{"district":"Residencial Loreto","districtType":"Fraccionamiento","municipality":"La Paz","municipalityId":"003","city":"La Paz","cityId":"02","state":"Baja California Sur","stateId":"03","stateCode":"BCS","zip":"23099"},{"district":"Estrella","districtType":"Unidad habitacional","municipality":"La Paz","municipalityId":"003","city":"La Paz","cityId":"02","state":"Baja California Sur","stateId":"03","stateCode":"BCS","zip":"23099"},{"district":"San Bartolo","districtType":"Pueblo","municipality":"La Paz","municipalityId":"003","city":"","cityId":"","state":"Baja California Sur","stateId":"03","stateCode":"BCS","zip":"23100"},{"district":"Las Golondrinas","districtType":"Poblado comunal","municipality":"La Paz","municipalityId":"003","city":"","cityId":"","state":"Baja California Sur","stateId":"03","stateCode":"BCS","zip":"23100"},{"district":"El Palo Verde","districtType":"Poblado comunal","municipality":"La Paz","municipalityId":"003","city":"","cityId":"","state":"Baja California Sur","stateId":"03","stateCode":"BCS","zip":"23106"},{"district":"Santa Rita","districtType":"Ranchería","municipality":"La Paz","municipalityId":"003","city":"","cityId":"","state":"Baja California Sur","stateId":"03","stateCode":"BCS","zip":"23130"},{"district":"Agua de los Coyotes","districtType":"Poblado comunal","municipality":"La Paz","municipalityId":"003","city":"","cityId":"","state":"Baja California Sur","stateId":"03","stateCode":"BCS","zip":"23133"},{"district":"Las Ánimas","districtType":"Poblado comunal","municipality":"La Paz","municipalityId":"003","city":"","cityId":"","state":"Baja California Sur","stateId":"03","stateCode":"BCS","zip":"23140"},{"district":"San Evaristo","districtType":"Poblado comunal","municipality":"La Paz","municipalityId":"003","city":"","cityId":"","state":"Baja California Sur","stateId":"03","stateCode":"BCS","zip":"23143"},{"district":"Las Pocitas","districtType":"Ranchería","municipality":"La Paz","municipalityId":"003","city":"","cityId":"","state":"Baja California Sur","stateId":"03","stateCode":"BCS","zip":"23150"},{"district":"La Cieneguita","districtType":"Poblado comunal","municipality":"La Paz","municipalityId":"003","city":"","cityId":"","state":"Baja California Sur","stateId":"03","stateCode":"BCS","zip":"23154"},{"district":"San Hilario","districtType":"Ranchería","municipality":"La Paz","municipalityId":"003","city":"","cityId":"","state":"Baja California Sur","stateId":"03","stateCode":"BCS","zip":"23170"},{"district":"San Antonio","districtType":"Ranchería","municipality":"La Paz","municipalityId":"003","city":"","cityId":"","state":"Baja California Sur","stateId":"03","stateCode":"BCS","zip":"23200"},{"district":"Alfredo V Bonfil","districtType":"Ranchería","municipality":"La Paz","municipalityId":"003","city":"","cityId":"","state":"Baja California Sur","stateId":"03","stateCode":"BCS","zip":"23203"},{"district":"Centenario","districtType":"Ampliación","municipality":"La Paz","municipalityId":"003","city":"","cityId":"","state":"Baja California Sur","stateId":"03","stateCode":"BCS","zip":"23205"},{"district":"Chametla","districtType":"Ejido","municipality":"La Paz","municipalityId":"003","city":"","cityId":"","state":"Baja California Sur","stateId":"03","stateCode":"BCS","zip":"23205"},{"district":"El Centenario","districtType":"Ranchería","municipality":"La Paz","municipalityId":"003","city":"","cityId":"","state":"Baja California Sur","stateId":"03","stateCode":"BCS","zip":"23205"},{"district":"Comitán","districtType":"Fraccionamiento","municipality":"La Paz","municipalityId":"003","city":"","cityId":"","state":"Baja California Sur","stateId":"03","stateCode":"BCS","zip":"23205"},{"district":"Paraíso del Mar","districtType":"Fraccionamiento","municipality":"La Paz","municipalityId":"003","city":"","cityId":"","state":"Baja California Sur","stateId":"03","stateCode":"BCS","zip":"23205"},{"district":"Agroexportadora del Noroeste","districtType":"Parque industrial","municipality":"La Paz","municipalityId":"003","city":"","cityId":"","state":"Baja California Sur","stateId":"03","stateCode":"BCS","zip":"23206"},{"district":"La Paz (Gral. Manuel Márquez de León)","districtType":"Aeropuerto","municipality":"La Paz","municipalityId":"003","city":"","cityId":"","state":"Baja California Sur","stateId":"03","stateCode":"BCS","zip":"23206"},{"district":"El Mezquitito","districtType":"Ranchería","municipality":"La Paz","municipalityId":"003","city":"","cityId":"","state":"Baja California Sur","stateId":"03","stateCode":"BCS","zip":"23207"},{"district":"San Ramon","districtType":"Ranchería","municipality":"La Paz","municipalityId":"003","city":"","cityId":"","state":"Baja California Sur","stateId":"03","stateCode":"BCS","zip":"23207"},{"district":"La Lagunita","districtType":"Poblado comunal","municipality":"La Paz","municipalityId":"003","city":"","cityId":"","state":"Baja California Sur","stateId":"03","stateCode":"BCS","zip":"23208"},{"district":"Puerto de Pichilingue","districtType":"Puerto","municipality":"La Paz","municipalityId":"003","city":"","cityId":"","state":"Baja California Sur","stateId":"03","stateCode":"BCS","zip":"23208"},{"district":"Rosarito","districtType":"Ranchería","municipality":"La Paz","municipalityId":"003","city":"","cityId":"","state":"Baja California Sur","stateId":"03","stateCode":"BCS","zip":"23208"},{"district":"La Fortuna","districtType":"Ranchería","municipality":"La Paz","municipalityId":"003","city":"","cityId":"","state":"Baja California Sur","stateId":"03","stateCode":"BCS","zip":"23208"},{"district":"Las Vinoramas","districtType":"Ranchería","municipality":"La Paz","municipalityId":"003","city":"","cityId":"","state":"Baja California Sur","stateId":"03","stateCode":"BCS","zip":"23209"},{"district":"El Triunfo","districtType":"Ranchería","municipality":"La Paz","municipalityId":"003","city":"","cityId":"","state":"Baja California Sur","stateId":"03","stateCode":"BCS","zip":"23210"},{"district":"San Blas","districtType":"Ranchería","municipality":"La Paz","municipalityId":"003","city":"","cityId":"","state":"Baja California Sur","stateId":"03","stateCode":"BCS","zip":"23211"},{"district":"El Encino","districtType":"Ranchería","municipality":"La Paz","municipalityId":"003","city":"","cityId":"","state":"Baja California Sur","stateId":"03","stateCode":"BCS","zip":"23213"},{"district":"Agua Blanca","districtType":"Ranchería","municipality":"La Paz","municipalityId":"003","city":"","cityId":"","state":"Baja California Sur","stateId":"03","stateCode":"BCS","zip":"23215"},{"district":"Las 3 Pachitas","districtType":"Ranchería","municipality":"La Paz","municipalityId":"003","city":"","cityId":"","state":"Baja California Sur","stateId":"03","stateCode":"BCS","zip":"23216"},{"district":"El Rosario 1","districtType":"Ranchería","municipality":"La Paz","municipalityId":"003","city":"","cityId":"","state":"Baja California Sur","stateId":"03","stateCode":"BCS","zip":"23217"},{"district":"Los Planes","districtType":"Pueblo","municipality":"La Paz","municipalityId":"003","city":"","cityId":"","state":"Baja California Sur","stateId":"03","stateCode":"BCS","zip":"23230"},{"district":"Gral. Juan Dominguez Cota","districtType":"Ejido","municipality":"La Paz","municipalityId":"003","city":"","cityId":"","state":"Baja California Sur","stateId":"03","stateCode":"BCS","zip":"23230"},{"district":"El Sargento","districtType":"Ranchería","municipality":"La Paz","municipalityId":"003","city":"","cityId":"","state":"Baja California Sur","stateId":"03","stateCode":"BCS","zip":"23232"},{"district":"La Ventana","districtType":"Ranchería","municipality":"La Paz","municipalityId":"003","city":"","cityId":"","state":"Baja California Sur","stateId":"03","stateCode":"BCS","zip":"23232"},{"district":"La Cuesta","districtType":"Ranchería","municipality":"La Paz","municipalityId":"003","city":"","cityId":"","state":"Baja California Sur","stateId":"03","stateCode":"BCS","zip":"23232"},{"district":"Los Divisaderos","districtType":"Ranchería","municipality":"La Paz","municipalityId":"003","city":"","cityId":"","state":"Baja California Sur","stateId":"03","stateCode":"BCS","zip":"23233"},{"district":"San Pedro México","districtType":"Ranchería","municipality":"La Paz","municipalityId":"003","city":"","cityId":"","state":"Baja California Sur","stateId":"03","stateCode":"BCS","zip":"23234"},{"district":"Agua Amarga","districtType":"Ranchería","municipality":"La Paz","municipalityId":"003","city":"","cityId":"","state":"Baja California Sur","stateId":"03","stateCode":"BCS","zip":"23234"},{"district":"Ensenada de Muertos","districtType":"Ranchería","municipality":"La Paz","municipalityId":"003","city":"","cityId":"","state":"Baja California Sur","stateId":"03","stateCode":"BCS","zip":"23236"},{"district":"San Pedro","districtType":"Ranchería","municipality":"La Paz","municipalityId":"003","city":"","cityId":"","state":"Baja California Sur","stateId":"03","stateCode":"BCS","zip":"23240"},{"district":"Álvaro Obregón","districtType":"Ejido","municipality":"La Paz","municipalityId":"003","city":"","cityId":"","state":"Baja California Sur","stateId":"03","stateCode":"BCS","zip":"23241"},{"district":"El Ancón","districtType":"Poblado comunal","municipality":"La Paz","municipalityId":"003","city":"","cityId":"","state":"Baja California Sur","stateId":"03","stateCode":"BCS","zip":"23243"},{"district":"Los Tamales","districtType":"Poblado comunal","municipality":"La Paz","municipalityId":"003","city":"","cityId":"","state":"Baja California Sur","stateId":"03","stateCode":"BCS","zip":"23244"},{"district":"La Trinchera","districtType":"Ranchería","municipality":"La Paz","municipalityId":"003","city":"","cityId":"","state":"Baja California Sur","stateId":"03","stateCode":"BCS","zip":"23248"},{"district":"Los Algodones","districtType":"Ranchería","municipality":"La Paz","municipalityId":"003","city":"","cityId":"","state":"Baja California Sur","stateId":"03","stateCode":"BCS","zip":"23249"},{"district":"La Trinidad","districtType":"Poblado comunal","municipality":"La Paz","municipalityId":"003","city":"","cityId":"","state":"Baja California Sur","stateId":"03","stateCode":"BCS","zip":"23250"},{"district":"El Carrizal","districtType":"Ejido","municipality":"La Paz","municipalityId":"003","city":"","cityId":"","state":"Baja California Sur","stateId":"03","stateCode":"BCS","zip":"23250"},{"district":"Agrícola Santa Lidia","districtType":"Poblado comunal","municipality":"La Paz","municipalityId":"003","city":"","cityId":"","state":"Baja California Sur","stateId":"03","stateCode":"BCS","zip":"23250"},{"district":"Santa Rita","districtType":"Ranchería","municipality":"La Paz","municipalityId":"003","city":"","cityId":"","state":"Baja California Sur","stateId":"03","stateCode":"BCS","zip":"23251"},{"district":"San Martin","districtType":"Ranchería","municipality":"La Paz","municipalityId":"003","city":"","cityId":"","state":"Baja California Sur","stateId":"03","stateCode":"BCS","zip":"23252"},{"district":"El Palmarito 2","districtType":"Ranchería","municipality":"La Paz","municipalityId":"003","city":"","cityId":"","state":"Baja California Sur","stateId":"03","stateCode":"BCS","zip":"23253"},{"district":"Cardonal","districtType":"Congregación","municipality":"La Paz","municipalityId":"003","city":"","cityId":"","state":"Baja California Sur","stateId":"03","stateCode":"BCS","zip":"23254"},{"district":"San Quintín","districtType":"Ranchería","municipality":"La Paz","municipalityId":"003","city":"","cityId":"","state":"Baja California Sur","stateId":"03","stateCode":"BCS","zip":"23254"},{"district":"Santa Martha","districtType":"Ranchería","municipality":"La Paz","municipalityId":"003","city":"","cityId":"","state":"Baja California Sur","stateId":"03","stateCode":"BCS","zip":"23257"},{"district":"Melitón Albañez","districtType":"Ranchería","municipality":"La Paz","municipalityId":"003","city":"","cityId":"","state":"Baja California Sur","stateId":"03","stateCode":"BCS","zip":"23258"},{"district":"Santa Rosa","districtType":"Ranchería","municipality":"La Paz","municipalityId":"003","city":"","cityId":"","state":"Baja California Sur","stateId":"03","stateCode":"BCS","zip":"23280"},{"district":"El Pozo","districtType":"Ranchería","municipality":"La Paz","municipalityId":"003","city":"","cityId":"","state":"Baja California Sur","stateId":"03","stateCode":"BCS","zip":"23284"},{"district":"El Refugio","districtType":"Ranchería","municipality":"La Paz","municipalityId":"003","city":"","cityId":"","state":"Baja California Sur","stateId":"03","stateCode":"BCS","zip":"23285"},{"district":"Buenavista","districtType":"Ranchería","municipality":"La Paz","municipalityId":"003","city":"","cityId":"","state":"Baja California Sur","stateId":"03","stateCode":"BCS","zip":"23289"},{"district":"El Pescadero","districtType":"Pueblo","municipality":"La Paz","municipalityId":"003","city":"Todos Santos","cityId":"07","state":"Baja California Sur","stateId":"03","stateCode":"BCS","zip":"23300"},{"district":"Centro","districtType":"Colonia","municipality":"La Paz","municipalityId":"003","city":"Todos Santos","cityId":"07","state":"Baja California Sur","stateId":"03","stateCode":"BCS","zip":"23300"},{"district":"San Vicente","districtType":"Colonia","municipality":"La Paz","municipalityId":"003","city":"Todos Santos","cityId":"07","state":"Baja California Sur","stateId":"03","stateCode":"BCS","zip":"23300"},{"district":"Las Flores","districtType":"Colonia","municipality":"La Paz","municipalityId":"003","city":"Todos Santos","cityId":"07","state":"Baja California Sur","stateId":"03","stateCode":"BCS","zip":"23300"},{"district":"Brisas del Pacifico","districtType":"Colonia","municipality":"La Paz","municipalityId":"003","city":"Todos Santos","cityId":"07","state":"Baja California Sur","stateId":"03","stateCode":"BCS","zip":"23300"},{"district":"El Rio","districtType":"Colonia","municipality":"La Paz","municipalityId":"003","city":"Todos Santos","cityId":"07","state":"Baja California Sur","stateId":"03","stateCode":"BCS","zip":"23300"},{"district":"San Juan","districtType":"Colonia","municipality":"La Paz","municipalityId":"003","city":"Todos Santos","cityId":"07","state":"Baja California Sur","stateId":"03","stateCode":"BCS","zip":"23300"},{"district":"San Ignacio","districtType":"Colonia","municipality":"La Paz","municipalityId":"003","city":"Todos Santos","cityId":"07","state":"Baja California Sur","stateId":"03","stateCode":"BCS","zip":"23300"},{"district":"Las Quintas","districtType":"Fraccionamiento","municipality":"La Paz","municipalityId":"003","city":"Todos Santos","cityId":"07","state":"Baja California Sur","stateId":"03","stateCode":"BCS","zip":"23300"},{"district":"La Esperanza","districtType":"Colonia","municipality":"La Paz","municipalityId":"003","city":"Todos Santos","cityId":"07","state":"Baja California Sur","stateId":"03","stateCode":"BCS","zip":"23300"},{"district":"La Matanza","districtType":"Ranchería","municipality":"La Paz","municipalityId":"003","city":"","cityId":"","state":"Baja California Sur","stateId":"03","stateCode":"BCS","zip":"23302"},{"district":"El Cañón","districtType":"Ranchería","municipality":"La Paz","municipalityId":"003","city":"","cityId":"","state":"Baja California Sur","stateId":"03","stateCode":"BCS","zip":"23303"},{"district":"La Vinatería","districtType":"Ranchería","municipality":"La Paz","municipalityId":"003","city":"","cityId":"","state":"Baja California Sur","stateId":"03","stateCode":"BCS","zip":"23303"},{"district":"El Salto","districtType":"Ranchería","municipality":"La Paz","municipalityId":"003","city":"","cityId":"","state":"Baja California Sur","stateId":"03","stateCode":"BCS","zip":"23304"},{"district":"Boca del Palmarito","districtType":"Ranchería","municipality":"La Paz","municipalityId":"003","city":"","cityId":"","state":"Baja California Sur","stateId":"03","stateCode":"BCS","zip":"23306"},{"district":"Baturi","districtType":"Ranchería","municipality":"La Paz","municipalityId":"003","city":"","cityId":"","state":"Baja California Sur","stateId":"03","stateCode":"BCS","zip":"23307"},{"district":"El Batequito","districtType":"Ranchería","municipality":"La Paz","municipalityId":"003","city":"","cityId":"","state":"Baja California Sur","stateId":"03","stateCode":"BCS","zip":"23308"},{"district":"Pescadero","districtType":"Ranchería","municipality":"La Paz","municipalityId":"003","city":"","cityId":"","state":"Baja California Sur","stateId":"03","stateCode":"BCS","zip":"23310"},{"district":"El Valle Perdido","districtType":"Ranchería","municipality":"La Paz","municipalityId":"003","city":"","cityId":"","state":"Baja California Sur","stateId":"03","stateCode":"BCS","zip":"23311"},{"district":"El Pintado","districtType":"Ranchería","municipality":"La Paz","municipalityId":"003","city":"","cityId":"","state":"Baja California Sur","stateId":"03","stateCode":"BCS","zip":"23312"},{"district":"San Simón","districtType":"Ranchería","municipality":"La Paz","municipalityId":"003","city":"","cityId":"","state":"Baja California Sur","stateId":"03","stateCode":"BCS","zip":"23317"},{"district":"Punta Lobos","districtType":"Ranchería","municipality":"La Paz","municipalityId":"003","city":"","cityId":"","state":"Baja California Sur","stateId":"03","stateCode":"BCS","zip":"23318"},{"district":"Boca del Álamo","districtType":"Ranchería","municipality":"La Paz","municipalityId":"003","city":"","cityId":"","state":"Baja California Sur","stateId":"03","stateCode":"BCS","zip":"23320"},{"district":"San Angel","districtType":"Ranchería","municipality":"La Paz","municipalityId":"003","city":"","cityId":"","state":"Baja California Sur","stateId":"03","stateCode":"BCS","zip":"23321"},{"district":"Santa Martha","districtType":"Ranchería","municipality":"La Paz","municipalityId":"003","city":"","cityId":"","state":"Baja California Sur","stateId":"03","stateCode":"BCS","zip":"23322"},{"district":"San Bartolo Sur","districtType":"Ranchería","municipality":"La Paz","municipalityId":"003","city":"","cityId":"","state":"Baja California Sur","stateId":"03","stateCode":"BCS","zip":"23328"},{"district":"Rincón de Leon","districtType":"Ranchería","municipality":"La Paz","municipalityId":"003","city":"","cityId":"","state":"Baja California Sur","stateId":"03","stateCode":"BCS","zip":"23329"},{"district":"Los Barriles","districtType":"Pueblo","municipality":"La Paz","municipalityId":"003","city":"","cityId":"","state":"Baja California Sur","stateId":"03","stateCode":"BCS","zip":"23330"},{"district":"Buenos Aires","districtType":"Poblado comunal","municipality":"La Paz","municipalityId":"003","city":"","cityId":"","state":"Baja California Sur","stateId":"03","stateCode":"BCS","zip":"23330"},{"district":"El Coro","districtType":"Ranchería","municipality":"La Paz","municipalityId":"003","city":"","cityId":"","state":"Baja California Sur","stateId":"03","stateCode":"BCS","zip":"23333"},{"district":"El Corral Falso","districtType":"Poblado comunal","municipality":"La Paz","municipalityId":"003","city":"","cityId":"","state":"Baja California Sur","stateId":"03","stateCode":"BCS","zip":"23333"},{"district":"Agua de La Costa","districtType":"Ranchería","municipality":"La Paz","municipalityId":"003","city":"","cityId":"","state":"Baja California Sur","stateId":"03","stateCode":"BCS","zip":"23334"},{"district":"Fraccionamiento Residencial Agua de la Costa","districtType":"Poblado comunal","municipality":"La Paz","municipalityId":"003","city":"","cityId":"","state":"Baja California Sur","stateId":"03","stateCode":"BCS","zip":"23334"},{"district":"El Sacrificio","districtType":"Ranchería","municipality":"La Paz","municipalityId":"003","city":"","cityId":"","state":"Baja California Sur","stateId":"03","stateCode":"BCS","zip":"23350"},{"district":"El Barranco","districtType":"Ranchería","municipality":"La Paz","municipalityId":"003","city":"","cityId":"","state":"Baja California Sur","stateId":"03","stateCode":"BCS","zip":"23351"},{"district":"Las Tinas","districtType":"Poblado comunal","municipality":"La Paz","municipalityId":"003","city":"","cityId":"","state":"Baja California Sur","stateId":"03","stateCode":"BCS","zip":"23354"},{"district":"Punta Pescadero","districtType":"Poblado comunal","municipality":"La Paz","municipalityId":"003","city":"","cityId":"","state":"Baja California Sur","stateId":"03","stateCode":"BCS","zip":"23354"},{"district":"La Línea","districtType":"Poblado comunal","municipality":"La Paz","municipalityId":"003","city":"","cityId":"","state":"Baja California Sur","stateId":"03","stateCode":"BCS","zip":"23354"},{"district":"El Refugio Sur","districtType":"Ranchería","municipality":"La Paz","municipalityId":"003","city":"","cityId":"","state":"Baja California Sur","stateId":"03","stateCode":"BCS","zip":"23360"},{"district":"San Carlos","districtType":"Ranchería","municipality":"La Paz","municipalityId":"003","city":"","cityId":"","state":"Baja California Sur","stateId":"03","stateCode":"BCS","zip":"23361"},{"district":"El Salado","districtType":"Ranchería","municipality":"La Paz","municipalityId":"003","city":"","cityId":"","state":"Baja California Sur","stateId":"03","stateCode":"BCS","zip":"23362"},{"district":"El Palmar","districtType":"Ranchería","municipality":"La Paz","municipalityId":"003","city":"","cityId":"","state":"Baja California Sur","stateId":"03","stateCode":"BCS","zip":"23363"},{"district":"San Jacinto","districtType":"Ranchería","municipality":"La Paz","municipalityId":"003","city":"","cityId":"","state":"Baja California Sur","stateId":"03","stateCode":"BCS","zip":"23364"},{"district":"San Pedro de La Soledad","districtType":"Ranchería","municipality":"La Paz","municipalityId":"003","city":"","cityId":"","state":"Baja California Sur","stateId":"03","stateCode":"BCS","zip":"23365"},{"district":"Plutarco Elias Calles","districtType":"Colonia","municipality":"La Paz","municipalityId":"003","city":"","cityId":"","state":"Baja California Sur","stateId":"03","stateCode":"BCS","zip":"23390"},{"district":"El Palmarito","districtType":"Rancho","municipality":"La Paz","municipalityId":"003","city":"","cityId":"","state":"Baja California Sur","stateId":"03","stateCode":"BCS","zip":"23395"},{"district":"San José del Cabo Centro","districtType":"Colonia","municipality":"Los Cabos","municipalityId":"008","city":"San José del Cabo","cityId":"04","state":"Baja California Sur","stateId":"03","stateCode":"BCS","zip":"23400"},{"district":"La Playa","districtType":"Ranchería","municipality":"Los Cabos","municipalityId":"008","city":"San José del Cabo","cityId":"04","state":"Baja California Sur","stateId":"03","stateCode":"BCS","zip":"23403"},{"district":"La Choya INFONAVIT","districtType":"Colonia","municipality":"Los Cabos","municipalityId":"008","city":"San José del Cabo","cityId":"04","state":"Baja California Sur","stateId":"03","stateCode":"BCS","zip":"23403"},{"district":"La Playita","districtType":"Colonia","municipality":"Los Cabos","municipalityId":"008","city":"San José del Cabo","cityId":"04","state":"Baja California Sur","stateId":"03","stateCode":"BCS","zip":"23403"},{"district":"San Vicente","districtType":"Barrio","municipality":"Los Cabos","municipalityId":"008","city":"San José del Cabo","cityId":"04","state":"Baja California Sur","stateId":"03","stateCode":"BCS","zip":"23403"},{"district":"Miconos","districtType":"Conjunto habitacional","municipality":"Los Cabos","municipalityId":"008","city":"San José del Cabo","cityId":"04","state":"Baja California Sur","stateId":"03","stateCode":"BCS","zip":"23405"},{"district":"Trailers Park","districtType":"Campamento","municipality":"Los Cabos","municipalityId":"008","city":"San José del Cabo","cityId":"04","state":"Baja California Sur","stateId":"03","stateCode":"BCS","zip":"23405"},{"district":"Magisterial","districtType":"Colonia","municipality":"Los Cabos","municipalityId":"008","city":"San José del Cabo","cityId":"04","state":"Baja California Sur","stateId":"03","stateCode":"BCS","zip":"23405"},{"district":"Zona Hotelera San José del Cabo","districtType":"Zona comercial","municipality":"Los Cabos","municipalityId":"008","city":"San José del Cabo","cityId":"04","state":"Baja California Sur","stateId":"03","stateCode":"BCS","zip":"23405"},{"district":"El Chamizal","districtType":"Colonia","municipality":"Los Cabos","municipalityId":"008","city":"San José del Cabo","cityId":"04","state":"Baja California Sur","stateId":"03","stateCode":"BCS","zip":"23405"},{"district":"La Joya de los Cabos","districtType":"Conjunto habitacional","municipality":"Los Cabos","municipalityId":"008","city":"San José del Cabo","cityId":"04","state":"Baja California Sur","stateId":"03","stateCode":"BCS","zip":"23405"},{"district":"El Tule","districtType":"Residencial","municipality":"Los Cabos","municipalityId":"008","city":"San José del Cabo","cityId":"04","state":"Baja California Sur","stateId":"03","stateCode":"BCS","zip":"23405"},{"district":"Lomas del Tule","districtType":"Fraccionamiento","municipality":"Los Cabos","municipalityId":"008","city":"San José del Cabo","cityId":"04","state":"Baja California Sur","stateId":"03","stateCode":"BCS","zip":"23405"},{"district":"Coral Baja","districtType":"Conjunto habitacional","municipality":"Los Cabos","municipalityId":"008","city":"San José del Cabo","cityId":"04","state":"Baja California Sur","stateId":"03","stateCode":"BCS","zip":"23405"},{"district":"Cabo Real","districtType":"Conjunto habitacional","municipality":"Los Cabos","municipalityId":"008","city":"San José del Cabo","cityId":"04","state":"Baja California Sur","stateId":"03","stateCode":"BCS","zip":"23405"},{"district":"Mañanitas","districtType":"Conjunto habitacional","municipality":"Los Cabos","municipalityId":"008","city":"San José del Cabo","cityId":"04","state":"Baja California Sur","stateId":"03","stateCode":"BCS","zip":"23405"},{"district":"Costa Brava","districtType":"Fraccionamiento","municipality":"Los Cabos","municipalityId":"008","city":"San José del Cabo","cityId":"04","state":"Baja California Sur","stateId":"03","stateCode":"BCS","zip":"23405"},{"district":"5 de Febrero","districtType":"Colonia","municipality":"Los Cabos","municipalityId":"008","city":"San José del Cabo","cityId":"04","state":"Baja California Sur","stateId":"03","stateCode":"BCS","zip":"23406"},{"district":"Palmillas","districtType":"Colonia","municipality":"Los Cabos","municipalityId":"008","city":"San José del Cabo","cityId":"04","state":"Baja California Sur","stateId":"03","stateCode":"BCS","zip":"23406"},{"district":"Villas de La Joya","districtType":"Colonia","municipality":"Los Cabos","municipalityId":"008","city":"San José del Cabo","cityId":"04","state":"Baja California Sur","stateId":"03","stateCode":"BCS","zip":"23406"},{"district":"Cerro del Vigía","districtType":"Colonia","municipality":"Los Cabos","municipalityId":"008","city":"San José del Cabo","cityId":"04","state":"Baja California Sur","stateId":"03","stateCode":"BCS","zip":"23406"},{"district":"8 de Octubre","districtType":"Colonia","municipality":"Los Cabos","municipalityId":"008","city":"San José del Cabo","cityId":"04","state":"Baja California Sur","stateId":"03","stateCode":"BCS","zip":"23406"},{"district":"Club de Golf Residencial","districtType":"Club de golf","municipality":"Los Cabos","municipalityId":"008","city":"San José del Cabo","cityId":"04","state":"Baja California Sur","stateId":"03","stateCode":"BCS","zip":"23406"},{"district":"Primero de Mayo","districtType":"Colonia","municipality":"Los Cabos","municipalityId":"008","city":"San José del Cabo","cityId":"04","state":"Baja California Sur","stateId":"03","stateCode":"BCS","zip":"23406"},{"district":"Terrazas Costa Azul","districtType":"Colonia","municipality":"Los Cabos","municipalityId":"008","city":"San José del Cabo","cityId":"04","state":"Baja California Sur","stateId":"03","stateCode":"BCS","zip":"23406"},{"district":"Costa Azul","districtType":"Colonia","municipality":"Los Cabos","municipalityId":"008","city":"San José del Cabo","cityId":"04","state":"Baja California Sur","stateId":"03","stateCode":"BCS","zip":"23406"},{"district":"Gringos Hill","districtType":"Condominio","municipality":"Los Cabos","municipalityId":"008","city":"San José del Cabo","cityId":"04","state":"Baja California Sur","stateId":"03","stateCode":"BCS","zip":"23406"},{"district":"Lomas de La Joya","districtType":"Colonia","municipality":"Los Cabos","municipalityId":"008","city":"San José del Cabo","cityId":"04","state":"Baja California Sur","stateId":"03","stateCode":"BCS","zip":"23406"},{"district":"INFONAVIT Colosio","districtType":"Colonia","municipality":"Los Cabos","municipalityId":"008","city":"San José del Cabo","cityId":"04","state":"Baja California Sur","stateId":"03","stateCode":"BCS","zip":"23407"},{"district":"Guaymitas","districtType":"Colonia","municipality":"Los Cabos","municipalityId":"008","city":"San José del Cabo","cityId":"04","state":"Baja California Sur","stateId":"03","stateCode":"BCS","zip":"23407"},{"district":"Rinconada La Huerta","districtType":"Colonia","municipality":"Los Cabos","municipalityId":"008","city":"San José del Cabo","cityId":"04","state":"Baja California Sur","stateId":"03","stateCode":"BCS","zip":"23407"},{"district":"El Rosarito","districtType":"Residencial","municipality":"Los Cabos","municipalityId":"008","city":"San José del Cabo","cityId":"04","state":"Baja California Sur","stateId":"03","stateCode":"BCS","zip":"23407"},{"district":"Rosarito","districtType":"Colonia","municipality":"Los Cabos","municipalityId":"008","city":"San José del Cabo","cityId":"04","state":"Baja California Sur","stateId":"03","stateCode":"BCS","zip":"23407"},{"district":"Animas Bajas","districtType":"Ranchería","municipality":"Los Cabos","municipalityId":"008","city":"San José del Cabo","cityId":"04","state":"Baja California Sur","stateId":"03","stateCode":"BCS","zip":"23407"},{"district":"Animas Altas","districtType":"Pueblo","municipality":"Los Cabos","municipalityId":"008","city":"San José del Cabo","cityId":"04","state":"Baja California Sur","stateId":"03","stateCode":"BCS","zip":"23407"},{"district":"Aeropuerto","districtType":"Colonia","municipality":"Los Cabos","municipalityId":"008","city":"San José del Cabo","cityId":"04","state":"Baja California Sur","stateId":"03","stateCode":"BCS","zip":"23420"},{"district":"Santa Anita","districtType":"Colonia","municipality":"Los Cabos","municipalityId":"008","city":"San José del Cabo","cityId":"04","state":"Baja California Sur","stateId":"03","stateCode":"BCS","zip":"23420"},{"district":"Santa Catarina","districtType":"Colonia","municipality":"Los Cabos","municipalityId":"008","city":"San José del Cabo","cityId":"04","state":"Baja California Sur","stateId":"03","stateCode":"BCS","zip":"23425"},{"district":"Invi San José Viejo","districtType":"Colonia","municipality":"Los Cabos","municipalityId":"008","city":"San José del Cabo","cityId":"04","state":"Baja California Sur","stateId":"03","stateCode":"BCS","zip":"23426"},{"district":"Loma Cruz","districtType":"Colonia","municipality":"Los Cabos","municipalityId":"008","city":"San José del Cabo","cityId":"04","state":"Baja California Sur","stateId":"03","stateCode":"BCS","zip":"23426"},{"district":"Vista Hermosa","districtType":"Colonia","municipality":"Los Cabos","municipalityId":"008","city":"San José del Cabo","cityId":"04","state":"Baja California Sur","stateId":"03","stateCode":"BCS","zip":"23427"},{"district":"Colinas San José","districtType":"Fraccionamiento","municipality":"Los Cabos","municipalityId":"008","city":"San José del Cabo","cityId":"04","state":"Baja California Sur","stateId":"03","stateCode":"BCS","zip":"23427"},{"district":"El Zacatal","districtType":"Colonia","municipality":"Los Cabos","municipalityId":"008","city":"San José del Cabo","cityId":"04","state":"Baja California Sur","stateId":"03","stateCode":"BCS","zip":"23427"},{"district":"Villas de Cortez","districtType":"Fraccionamiento","municipality":"Los Cabos","municipalityId":"008","city":"San José del Cabo","cityId":"04","state":"Baja California Sur","stateId":"03","stateCode":"BCS","zip":"23427"},{"district":"Zacatal Zona Norte","districtType":"Colonia","municipality":"Los Cabos","municipalityId":"008","city":"San José del Cabo","cityId":"04","state":"Baja California Sur","stateId":"03","stateCode":"BCS","zip":"23427"},{"district":"Invi Santa Rosa","districtType":"Colonia","municipality":"Los Cabos","municipalityId":"008","city":"San José del Cabo","cityId":"04","state":"Baja California Sur","stateId":"03","stateCode":"BCS","zip":"23428"},{"district":"Santa Rosa","districtType":"Colonia","municipality":"Los Cabos","municipalityId":"008","city":"San José del Cabo","cityId":"04","state":"Baja California Sur","stateId":"03","stateCode":"BCS","zip":"23428"},{"district":"Santa Rosa","districtType":"Ampliación","municipality":"Los Cabos","municipalityId":"008","city":"San José del Cabo","cityId":"04","state":"Baja California Sur","stateId":"03","stateCode":"BCS","zip":"23428"},{"district":"San José del Cabo (Los Cabos)","districtType":"Aeropuerto","municipality":"Los Cabos","municipalityId":"008","city":"San José del Cabo","cityId":"04","state":"Baja California Sur","stateId":"03","stateCode":"BCS","zip":"23429"},{"district":"Zacatal","districtType":"Ampliación","municipality":"Los Cabos","municipalityId":"008","city":"San José del Cabo","cityId":"04","state":"Baja California Sur","stateId":"03","stateCode":"BCS","zip":"23430"},{"district":"Costa Dorada","districtType":"Fraccionamiento","municipality":"Los Cabos","municipalityId":"008","city":"San José del Cabo","cityId":"04","state":"Baja California Sur","stateId":"03","stateCode":"BCS","zip":"23434"},{"district":"Villa Bonita","districtType":"Fraccionamiento","municipality":"Los Cabos","municipalityId":"008","city":"San José del Cabo","cityId":"04","state":"Baja California Sur","stateId":"03","stateCode":"BCS","zip":"23434"},{"district":"Pénjamo","districtType":"Colonia","municipality":"Los Cabos","municipalityId":"008","city":"San José del Cabo","cityId":"04","state":"Baja California Sur","stateId":"03","stateCode":"BCS","zip":"23434"},{"district":"Loma Bonita","districtType":"Fraccionamiento","municipality":"Los Cabos","municipalityId":"008","city":"San José del Cabo","cityId":"04","state":"Baja California Sur","stateId":"03","stateCode":"BCS","zip":"23434"},{"district":"Veredas","districtType":"Ampliación","municipality":"Los Cabos","municipalityId":"008","city":"San José del Cabo","cityId":"04","state":"Baja California Sur","stateId":"03","stateCode":"BCS","zip":"23434"},{"district":"Oasis","districtType":"Fraccionamiento","municipality":"Los Cabos","municipalityId":"008","city":"San José del Cabo","cityId":"04","state":"Baja California Sur","stateId":"03","stateCode":"BCS","zip":"23434"},{"district":"INFONAVIT","districtType":"Conjunto habitacional","municipality":"Los Cabos","municipalityId":"008","city":"San José del Cabo","cityId":"04","state":"Baja California Sur","stateId":"03","stateCode":"BCS","zip":"23435"},{"district":"FOVISSSTE las Veredas","districtType":"Colonia","municipality":"Los Cabos","municipalityId":"008","city":"San José del Cabo","cityId":"04","state":"Baja California Sur","stateId":"03","stateCode":"BCS","zip":"23435"},{"district":"Las Veredas","districtType":"Colonia","municipality":"Los Cabos","municipalityId":"008","city":"San José del Cabo","cityId":"04","state":"Baja California Sur","stateId":"03","stateCode":"BCS","zip":"23435"},{"district":"FOVISSSTE las Veredas","districtType":"Fraccionamiento","municipality":"Los Cabos","municipalityId":"008","city":"San José del Cabo","cityId":"04","state":"Baja California Sur","stateId":"03","stateCode":"BCS","zip":"23435"},{"district":"San Bernabe","districtType":"Colonia","municipality":"Los Cabos","municipalityId":"008","city":"San José del Cabo","cityId":"04","state":"Baja California Sur","stateId":"03","stateCode":"BCS","zip":"23436"},{"district":"Buenos Aires","districtType":"Colonia","municipality":"Los Cabos","municipalityId":"008","city":"San José del Cabo","cityId":"04","state":"Baja California Sur","stateId":"03","stateCode":"BCS","zip":"23436"},{"district":"Catarina","districtType":"Colonia","municipality":"Los Cabos","municipalityId":"008","city":"San José del Cabo","cityId":"04","state":"Baja California Sur","stateId":"03","stateCode":"BCS","zip":"23436"},{"district":"Las Dunas","districtType":"Fraccionamiento","municipality":"Los Cabos","municipalityId":"008","city":"San José del Cabo","cityId":"04","state":"Baja California Sur","stateId":"03","stateCode":"BCS","zip":"23437"},{"district":"San José Viejo","districtType":"Colonia","municipality":"Los Cabos","municipalityId":"008","city":"San José del Cabo","cityId":"04","state":"Baja California Sur","stateId":"03","stateCode":"BCS","zip":"23437"},{"district":"El Limón","districtType":"Fraccionamiento","municipality":"Los Cabos","municipalityId":"008","city":"San José del Cabo","cityId":"04","state":"Baja California Sur","stateId":"03","stateCode":"BCS","zip":"23437"},{"district":"Jesús Castro Agundes","districtType":"Colonia","municipality":"Los Cabos","municipalityId":"008","city":"San José del Cabo","cityId":"04","state":"Baja California Sur","stateId":"03","stateCode":"BCS","zip":"23440"},{"district":"Mauricio Castro","districtType":"Colonia","municipality":"Los Cabos","municipalityId":"008","city":"San José del Cabo","cityId":"04","state":"Baja California Sur","stateId":"03","stateCode":"BCS","zip":"23443"},{"district":"Chula Vista","districtType":"Colonia","municipality":"Los Cabos","municipalityId":"008","city":"San José del Cabo","cityId":"04","state":"Baja California Sur","stateId":"03","stateCode":"BCS","zip":"23443"},{"district":"El Aguajito","districtType":"Colonia","municipality":"Los Cabos","municipalityId":"008","city":"San José del Cabo","cityId":"04","state":"Baja California Sur","stateId":"03","stateCode":"BCS","zip":"23443"},{"district":"Pablo L Martinez","districtType":"Colonia","municipality":"Los Cabos","municipalityId":"008","city":"San José del Cabo","cityId":"04","state":"Baja California Sur","stateId":"03","stateCode":"BCS","zip":"23444"},{"district":"Monterreal Residencial 1ra Etapa","districtType":"Fraccionamiento","municipality":"Los Cabos","municipalityId":"008","city":"San José del Cabo","cityId":"04","state":"Baja California Sur","stateId":"03","stateCode":"BCS","zip":"23444"},{"district":"Lomas Residencial 2a Etapa","districtType":"Fraccionamiento","municipality":"Los Cabos","municipalityId":"008","city":"San José del Cabo","cityId":"04","state":"Baja California Sur","stateId":"03","stateCode":"BCS","zip":"23444"},{"district":"Monterreal Residencial 2da Etapa","districtType":"Fraccionamiento","municipality":"Los Cabos","municipalityId":"008","city":"San José del Cabo","cityId":"04","state":"Baja California Sur","stateId":"03","stateCode":"BCS","zip":"23444"},{"district":"Luis Donaldo Colosio","districtType":"Colonia","municipality":"Los Cabos","municipalityId":"008","city":"San José del Cabo","cityId":"04","state":"Baja California Sur","stateId":"03","stateCode":"BCS","zip":"23444"},{"district":"Colinas Plus","districtType":"Fraccionamiento","municipality":"Los Cabos","municipalityId":"008","city":"San José del Cabo","cityId":"04","state":"Baja California Sur","stateId":"03","stateCode":"BCS","zip":"23444"},{"district":"Lomas de Rosarito","districtType":"Colonia","municipality":"Los Cabos","municipalityId":"008","city":"San José del Cabo","cityId":"04","state":"Baja California Sur","stateId":"03","stateCode":"BCS","zip":"23444"},{"district":"Lomas Residencial 1a  Etapa","districtType":"Fraccionamiento","municipality":"Los Cabos","municipalityId":"008","city":"San José del Cabo","cityId":"04","state":"Baja California Sur","stateId":"03","stateCode":"BCS","zip":"23444"},{"district":"Country del Mar","districtType":"Fraccionamiento","municipality":"Los Cabos","municipalityId":"008","city":"San José del Cabo","cityId":"04","state":"Baja California Sur","stateId":"03","stateCode":"BCS","zip":"23444"},{"district":"Lomas de Guaymitas","districtType":"Colonia","municipality":"Los Cabos","municipalityId":"008","city":"San José del Cabo","cityId":"04","state":"Baja California Sur","stateId":"03","stateCode":"BCS","zip":"23445"},{"district":"Plaza Náutica","districtType":"Zona comercial","municipality":"Los Cabos","municipalityId":"008","city":"Cabo San Lucas","cityId":"03","state":"Baja California Sur","stateId":"03","stateCode":"BCS","zip":"23450"},{"district":"Modulo Turístico","districtType":"Zona comercial","municipality":"Los Cabos","municipalityId":"008","city":"Cabo San Lucas","cityId":"03","state":"Baja California Sur","stateId":"03","stateCode":"BCS","zip":"23450"},{"district":"Plaza del Marlin","districtType":"Zona comercial","municipality":"Los Cabos","municipalityId":"008","city":"Cabo San Lucas","cityId":"03","state":"Baja California Sur","stateId":"03","stateCode":"BCS","zip":"23450"},{"district":"Plaza del Sol","districtType":"Zona comercial","municipality":"Los Cabos","municipalityId":"008","city":"Cabo San Lucas","cityId":"03","state":"Baja California Sur","stateId":"03","stateCode":"BCS","zip":"23450"},{"district":"La Dársena","districtType":"Zona comercial","municipality":"Los Cabos","municipalityId":"008","city":"Cabo San Lucas","cityId":"03","state":"Baja California Sur","stateId":"03","stateCode":"BCS","zip":"23450"},{"district":"Cabo San Lucas Centro","districtType":"Colonia","municipality":"Los Cabos","municipalityId":"008","city":"Cabo San Lucas","cityId":"03","state":"Baja California Sur","stateId":"03","stateCode":"BCS","zip":"23450"},{"district":"Plaza Real","districtType":"Zona comercial","municipality":"Los Cabos","municipalityId":"008","city":"Cabo San Lucas","cityId":"03","state":"Baja California Sur","stateId":"03","stateCode":"BCS","zip":"23450"},{"district":"Plaza las Glorias","districtType":"Zona comercial","municipality":"Los Cabos","municipalityId":"008","city":"Cabo San Lucas","cityId":"03","state":"Baja California Sur","stateId":"03","stateCode":"BCS","zip":"23450"},{"district":"Plaza Bonita","districtType":"Zona comercial","municipality":"Los Cabos","municipalityId":"008","city":"Cabo San Lucas","cityId":"03","state":"Baja California Sur","stateId":"03","stateCode":"BCS","zip":"23450"},{"district":"Terrasol","districtType":"Colonia","municipality":"Los Cabos","municipalityId":"008","city":"Cabo San Lucas","cityId":"03","state":"Baja California Sur","stateId":"03","stateCode":"BCS","zip":"23453"},{"district":"El Medano","districtType":"Colonia","municipality":"Los Cabos","municipalityId":"008","city":"Cabo San Lucas","cityId":"03","state":"Baja California Sur","stateId":"03","stateCode":"BCS","zip":"23453"},{"district":"La Marina","districtType":"Colonia","municipality":"Los Cabos","municipalityId":"008","city":"Cabo San Lucas","cityId":"03","state":"Baja California Sur","stateId":"03","stateCode":"BCS","zip":"23453"},{"district":"El Pedregal","districtType":"Colonia","municipality":"Los Cabos","municipalityId":"008","city":"Cabo San Lucas","cityId":"03","state":"Baja California Sur","stateId":"03","stateCode":"BCS","zip":"23453"},{"district":"Residencial La Cima","districtType":"Fraccionamiento","municipality":"Los Cabos","municipalityId":"008","city":"Cabo San Lucas","cityId":"03","state":"Baja California Sur","stateId":"03","stateCode":"BCS","zip":"23454"},{"district":"Puerta del Mar","districtType":"Fraccionamiento","municipality":"Los Cabos","municipalityId":"008","city":"Cabo San Lucas","cityId":"03","state":"Baja California Sur","stateId":"03","stateCode":"BCS","zip":"23454"},{"district":"Maranatha","districtType":"Residencial","municipality":"Los Cabos","municipalityId":"008","city":"Cabo San Lucas","cityId":"03","state":"Baja California Sur","stateId":"03","stateCode":"BCS","zip":"23454"},{"district":"Peña de  Horeb","districtType":"Fraccionamiento","municipality":"Los Cabos","municipalityId":"008","city":"Cabo San Lucas","cityId":"03","state":"Baja California Sur","stateId":"03","stateCode":"BCS","zip":"23454"},{"district":"Privanzas","districtType":"Fraccionamiento","municipality":"Los Cabos","municipalityId":"008","city":"Cabo San Lucas","cityId":"03","state":"Baja California Sur","stateId":"03","stateCode":"BCS","zip":"23454"},{"district":"Punta Arena","districtType":"Fraccionamiento","municipality":"Los Cabos","municipalityId":"008","city":"Cabo San Lucas","cityId":"03","state":"Baja California Sur","stateId":"03","stateCode":"BCS","zip":"23454"},{"district":"Cumbres del Tezal","districtType":"Fraccionamiento","municipality":"Los Cabos","municipalityId":"008","city":"Cabo San Lucas","cityId":"03","state":"Baja California Sur","stateId":"03","stateCode":"BCS","zip":"23454"},{"district":"San Luciano","districtType":"Residencial","municipality":"Los Cabos","municipalityId":"008","city":"Cabo San Lucas","cityId":"03","state":"Baja California Sur","stateId":"03","stateCode":"BCS","zip":"23454"},{"district":"Mediterránea","districtType":"Fraccionamiento","municipality":"Los Cabos","municipalityId":"008","city":"Cabo San Lucas","cityId":"03","state":"Baja California Sur","stateId":"03","stateCode":"BCS","zip":"23454"},{"district":"El Tezal","districtType":"Colonia","municipality":"Los Cabos","municipalityId":"008","city":"Cabo San Lucas","cityId":"03","state":"Baja California Sur","stateId":"03","stateCode":"BCS","zip":"23454"},{"district":"Zona Hotelera","districtType":"Residencial","municipality":"Los Cabos","municipalityId":"008","city":"Cabo San Lucas","cityId":"03","state":"Baja California Sur","stateId":"03","stateCode":"BCS","zip":"23454"},{"district":"La Vista","districtType":"Fraccionamiento","municipality":"Los Cabos","municipalityId":"008","city":"Cabo San Lucas","cityId":"03","state":"Baja California Sur","stateId":"03","stateCode":"BCS","zip":"23454"},{"district":"Vista Bahía","districtType":"Fraccionamiento","municipality":"Los Cabos","municipalityId":"008","city":"Cabo San Lucas","cityId":"03","state":"Baja California Sur","stateId":"03","stateCode":"BCS","zip":"23454"},{"district":"Vistana","districtType":"Fraccionamiento","municipality":"Los Cabos","municipalityId":"008","city":"Cabo San Lucas","cityId":"03","state":"Baja California Sur","stateId":"03","stateCode":"BCS","zip":"23454"},{"district":"Misiones del Cabo","districtType":"Fraccionamiento","municipality":"Los Cabos","municipalityId":"008","city":"Cabo San Lucas","cityId":"03","state":"Baja California Sur","stateId":"03","stateCode":"BCS","zip":"23455"},{"district":"Puesta del Sol","districtType":"Colonia","municipality":"Los Cabos","municipalityId":"008","city":"Cabo San Lucas","cityId":"03","state":"Baja California Sur","stateId":"03","stateCode":"BCS","zip":"23455"},{"district":"Santa Carmela","districtType":"Fraccionamiento","municipality":"Los Cabos","municipalityId":"008","city":"Cabo San Lucas","cityId":"03","state":"Baja California Sur","stateId":"03","stateCode":"BCS","zip":"23455"},{"district":"Cabo Bello","districtType":"Colonia","municipality":"Los Cabos","municipalityId":"008","city":"Cabo San Lucas","cityId":"03","state":"Baja California Sur","stateId":"03","stateCode":"BCS","zip":"23455"},{"district":"Villa Serena","districtType":"Fraccionamiento","municipality":"Los Cabos","municipalityId":"008","city":"Cabo San Lucas","cityId":"03","state":"Baja California Sur","stateId":"03","stateCode":"BCS","zip":"23455"},{"district":"Residencial Cabo del Sol","districtType":"Fraccionamiento","municipality":"Los Cabos","municipalityId":"008","city":"Cabo San Lucas","cityId":"03","state":"Baja California Sur","stateId":"03","stateCode":"BCS","zip":"23455"},{"district":"Lomas del Cabo","districtType":"Fraccionamiento","municipality":"Los Cabos","municipalityId":"008","city":"Cabo San Lucas","cityId":"03","state":"Baja California Sur","stateId":"03","stateCode":"BCS","zip":"23456"},{"district":"Altos de Miramar","districtType":"Fraccionamiento","municipality":"Los Cabos","municipalityId":"008","city":"Cabo San Lucas","cityId":"03","state":"Baja California Sur","stateId":"03","stateCode":"BCS","zip":"23456"},{"district":"Miramar","districtType":"Fraccionamiento","municipality":"Los Cabos","municipalityId":"008","city":"Cabo San Lucas","cityId":"03","state":"Baja California Sur","stateId":"03","stateCode":"BCS","zip":"23456"},{"district":"Balcones","districtType":"Fraccionamiento","municipality":"Los Cabos","municipalityId":"008","city":"Cabo San Lucas","cityId":"03","state":"Baja California Sur","stateId":"03","stateCode":"BCS","zip":"23456"},{"district":"Jazmines","districtType":"Fraccionamiento","municipality":"Los Cabos","municipalityId":"008","city":"Cabo San Lucas","cityId":"03","state":"Baja California Sur","stateId":"03","stateCode":"BCS","zip":"23456"},{"district":"Acuario","districtType":"Fraccionamiento","municipality":"Los Cabos","municipalityId":"008","city":"Cabo San Lucas","cityId":"03","state":"Baja California Sur","stateId":"03","stateCode":"BCS","zip":"23456"},{"district":"El Palmar","districtType":"Fraccionamiento","municipality":"Los Cabos","municipalityId":"008","city":"Cabo San Lucas","cityId":"03","state":"Baja California Sur","stateId":"03","stateCode":"BCS","zip":"23456"},{"district":"Paraíso","districtType":"Fraccionamiento","municipality":"Los Cabos","municipalityId":"008","city":"Cabo San Lucas","cityId":"03","state":"Baja California Sur","stateId":"03","stateCode":"BCS","zip":"23456"},{"district":"Buenos Aires","districtType":"Fraccionamiento","municipality":"Los Cabos","municipalityId":"008","city":"Cabo San Lucas","cityId":"03","state":"Baja California Sur","stateId":"03","stateCode":"BCS","zip":"23456"},{"district":"Auroras","districtType":"Colonia","municipality":"Los Cabos","municipalityId":"008","city":"Cabo San Lucas","cityId":"03","state":"Baja California Sur","stateId":"03","stateCode":"BCS","zip":"23456"},{"district":"Quintas California","districtType":"Fraccionamiento","municipality":"Los Cabos","municipalityId":"008","city":"Cabo San Lucas","cityId":"03","state":"Baja California Sur","stateId":"03","stateCode":"BCS","zip":"23456"},{"district":"Bugambilias","districtType":"Fraccionamiento","municipality":"Los Cabos","municipalityId":"008","city":"Cabo San Lucas","cityId":"03","state":"Baja California Sur","stateId":"03","stateCode":"BCS","zip":"23456"},{"district":"Arco Iris","districtType":"Fraccionamiento","municipality":"Los Cabos","municipalityId":"008","city":"Cabo San Lucas","cityId":"03","state":"Baja California Sur","stateId":"03","stateCode":"BCS","zip":"23456"},{"district":"Colinas de Cabo Baja","districtType":"Fraccionamiento","municipality":"Los Cabos","municipalityId":"008","city":"Cabo San Lucas","cityId":"03","state":"Baja California Sur","stateId":"03","stateCode":"BCS","zip":"23456"},{"district":"Rincón de Miramar","districtType":"Fraccionamiento","municipality":"Los Cabos","municipalityId":"008","city":"Cabo San Lucas","cityId":"03","state":"Baja California Sur","stateId":"03","stateCode":"BCS","zip":"23456"},{"district":"Privada Perla","districtType":"Fraccionamiento","municipality":"Los Cabos","municipalityId":"008","city":"Cabo San Lucas","cityId":"03","state":"Baja California Sur","stateId":"03","stateCode":"BCS","zip":"23456"},{"district":"Real de Miramar","districtType":"Fraccionamiento","municipality":"Los Cabos","municipalityId":"008","city":"Cabo San Lucas","cityId":"03","state":"Baja California Sur","stateId":"03","stateCode":"BCS","zip":"23456"},{"district":"Bella Vista","districtType":"Fraccionamiento","municipality":"Los Cabos","municipalityId":"008","city":"Cabo San Lucas","cityId":"03","state":"Baja California Sur","stateId":"03","stateCode":"BCS","zip":"23456"},{"district":"Arenal","districtType":"Colonia","municipality":"Los Cabos","municipalityId":"008","city":"Cabo San Lucas","cityId":"03","state":"Baja California Sur","stateId":"03","stateCode":"BCS","zip":"23460"},{"district":"Mariano Matamoros","districtType":"Ampliación","municipality":"Los Cabos","municipalityId":"008","city":"Cabo San Lucas","cityId":"03","state":"Baja California Sur","stateId":"03","stateCode":"BCS","zip":"23460"},{"district":"La Joya","districtType":"Colonia","municipality":"Los Cabos","municipalityId":"008","city":"Cabo San Lucas","cityId":"03","state":"Baja California Sur","stateId":"03","stateCode":"BCS","zip":"23460"},{"district":"Tabachines","districtType":"Residencial","municipality":"Los Cabos","municipalityId":"008","city":"Cabo San Lucas","cityId":"03","state":"Baja California Sur","stateId":"03","stateCode":"BCS","zip":"23460"},{"district":"Leonardo Gastélum Quinta Etapa","districtType":"Fraccionamiento","municipality":"Los Cabos","municipalityId":"008","city":"Cabo San Lucas","cityId":"03","state":"Baja California Sur","stateId":"03","stateCode":"BCS","zip":"23462"},{"district":"Lagunitas","districtType":"Unidad habitacional","municipality":"Los Cabos","municipalityId":"008","city":"Cabo San Lucas","cityId":"03","state":"Baja California Sur","stateId":"03","stateCode":"BCS","zip":"23462"},{"district":"Mesa Colorada III","districtType":"Colonia","municipality":"Los Cabos","municipalityId":"008","city":"Cabo San Lucas","cityId":"03","state":"Baja California Sur","stateId":"03","stateCode":"BCS","zip":"23462"},{"district":"Leonardo Rodríguez Gastélum","districtType":"Fraccionamiento","municipality":"Los Cabos","municipalityId":"008","city":"Cabo San Lucas","cityId":"03","state":"Baja California Sur","stateId":"03","stateCode":"BCS","zip":"23462"},{"district":"Mesa Colorada II","districtType":"Colonia","municipality":"Los Cabos","municipalityId":"008","city":"Cabo San Lucas","cityId":"03","state":"Baja California Sur","stateId":"03","stateCode":"BCS","zip":"23462"},{"district":"Mesa Colorada I","districtType":"Colonia","municipality":"Los Cabos","municipalityId":"008","city":"Cabo San Lucas","cityId":"03","state":"Baja California Sur","stateId":"03","stateCode":"BCS","zip":"23462"},{"district":"Cabo San Lucas Country Club","districtType":"Residencial","municipality":"Los Cabos","municipalityId":"008","city":"Cabo San Lucas","cityId":"03","state":"Baja California Sur","stateId":"03","stateCode":"BCS","zip":"23463"},{"district":"Ventanas del Cortés","districtType":"Fraccionamiento","municipality":"Los Cabos","municipalityId":"008","city":"Cabo San Lucas","cityId":"03","state":"Baja California Sur","stateId":"03","stateCode":"BCS","zip":"23467"},{"district":"Desarrollo Turístico Cabo Vista","districtType":"Residencial","municipality":"Los Cabos","municipalityId":"008","city":"Cabo San Lucas","cityId":"03","state":"Baja California Sur","stateId":"03","stateCode":"BCS","zip":"23467"},{"district":"Artesanos","districtType":"Colonia","municipality":"Los Cabos","municipalityId":"008","city":"Cabo San Lucas","cityId":"03","state":"Baja California Sur","stateId":"03","stateCode":"BCS","zip":"23467"},{"district":"Reyna Avalos","districtType":"Fraccionamiento","municipality":"Los Cabos","municipalityId":"008","city":"Cabo San Lucas","cityId":"03","state":"Baja California Sur","stateId":"03","stateCode":"BCS","zip":"23467"},{"district":"Casa Mexicana","districtType":"Fraccionamiento","municipality":"Los Cabos","municipalityId":"008","city":"Cabo San Lucas","cityId":"03","state":"Baja California Sur","stateId":"03","stateCode":"BCS","zip":"23467"},{"district":"Vista Real","districtType":"Fraccionamiento","municipality":"Los Cabos","municipalityId":"008","city":"Cabo San Lucas","cityId":"03","state":"Baja California Sur","stateId":"03","stateCode":"BCS","zip":"23467"},{"district":"Residencial San Jerónimo","districtType":"Fraccionamiento","municipality":"Los Cabos","municipalityId":"008","city":"Cabo San Lucas","cityId":"03","state":"Baja California Sur","stateId":"03","stateCode":"BCS","zip":"23467"},{"district":"Residencial Puerta del Sol","districtType":"Fraccionamiento","municipality":"Los Cabos","municipalityId":"008","city":"Cabo San Lucas","cityId":"03","state":"Baja California Sur","stateId":"03","stateCode":"BCS","zip":"23467"},{"district":"Amalfi","districtType":"Fraccionamiento","municipality":"Los Cabos","municipalityId":"008","city":"Cabo San Lucas","cityId":"03","state":"Baja California Sur","stateId":"03","stateCode":"BCS","zip":"23467"},{"district":"Coto San Diego","districtType":"Fraccionamiento","municipality":"Los Cabos","municipalityId":"008","city":"Cabo San Lucas","cityId":"03","state":"Baja California Sur","stateId":"03","stateCode":"BCS","zip":"23467"},{"district":"Mariano Matamoros","districtType":"Colonia","municipality":"Los Cabos","municipalityId":"008","city":"Cabo San Lucas","cityId":"03","state":"Baja California Sur","stateId":"03","stateCode":"BCS","zip":"23468"},{"district":"INFONAVIT Viejo","districtType":"Fraccionamiento","municipality":"Los Cabos","municipalityId":"008","city":"Cabo San Lucas","cityId":"03","state":"Baja California Sur","stateId":"03","stateCode":"BCS","zip":"23468"},{"district":"Coromuel","districtType":"Unidad habitacional","municipality":"Los Cabos","municipalityId":"008","city":"Cabo San Lucas","cityId":"03","state":"Baja California Sur","stateId":"03","stateCode":"BCS","zip":"23469"},{"district":"Juárez","districtType":"Ampliación","municipality":"Los Cabos","municipalityId":"008","city":"Cabo San Lucas","cityId":"03","state":"Baja California Sur","stateId":"03","stateCode":"BCS","zip":"23469"},{"district":"Benito Juárez","districtType":"Colonia","municipality":"Los Cabos","municipalityId":"008","city":"Cabo San Lucas","cityId":"03","state":"Baja California Sur","stateId":"03","stateCode":"BCS","zip":"23469"},{"district":"Ildefonso Green","districtType":"Colonia","municipality":"Los Cabos","municipalityId":"008","city":"Cabo San Lucas","cityId":"03","state":"Baja California Sur","stateId":"03","stateCode":"BCS","zip":"23470"},{"district":"Vía de Lerry","districtType":"Condominio","municipality":"Los Cabos","municipalityId":"008","city":"Cabo San Lucas","cityId":"03","state":"Baja California Sur","stateId":"03","stateCode":"BCS","zip":"23470"},{"district":"4 de Marzo","districtType":"Ampliación","municipality":"Los Cabos","municipalityId":"008","city":"Cabo San Lucas","cityId":"03","state":"Baja California Sur","stateId":"03","stateCode":"BCS","zip":"23470"},{"district":"Lienzo Charro Centro","districtType":"Colonia","municipality":"Los Cabos","municipalityId":"008","city":"Cabo San Lucas","cityId":"03","state":"Baja California Sur","stateId":"03","stateCode":"BCS","zip":"23470"},{"district":"La Cruz","districtType":"Colonia","municipality":"Los Cabos","municipalityId":"008","city":"Cabo San Lucas","cityId":"03","state":"Baja California Sur","stateId":"03","stateCode":"BCS","zip":"23470"},{"district":"Ejidal","districtType":"Colonia","municipality":"Los Cabos","municipalityId":"008","city":"Cabo San Lucas","cityId":"03","state":"Baja California Sur","stateId":"03","stateCode":"BCS","zip":"23470"},{"district":"Nueva Ejidal","districtType":"Fraccionamiento","municipality":"Los Cabos","municipalityId":"008","city":"Cabo San Lucas","cityId":"03","state":"Baja California Sur","stateId":"03","stateCode":"BCS","zip":"23470"},{"district":"Libertad","districtType":"Fraccionamiento","municipality":"Los Cabos","municipalityId":"008","city":"Cabo San Lucas","cityId":"03","state":"Baja California Sur","stateId":"03","stateCode":"BCS","zip":"23470"},{"district":"Lomas Altas","districtType":"Fraccionamiento","municipality":"Los Cabos","municipalityId":"008","city":"Cabo San Lucas","cityId":"03","state":"Baja California Sur","stateId":"03","stateCode":"BCS","zip":"23472"},{"district":"Núcleo Agrario","districtType":"Fraccionamiento","municipality":"Los Cabos","municipalityId":"008","city":"Cabo San Lucas","cityId":"03","state":"Baja California Sur","stateId":"03","stateCode":"BCS","zip":"23472"},{"district":"4 de Marzo","districtType":"Colonia","municipality":"Los Cabos","municipalityId":"008","city":"Cabo San Lucas","cityId":"03","state":"Baja California Sur","stateId":"03","stateCode":"BCS","zip":"23472"},{"district":"Obrera","districtType":"Colonia","municipality":"Los Cabos","municipalityId":"008","city":"Cabo San Lucas","cityId":"03","state":"Baja California Sur","stateId":"03","stateCode":"BCS","zip":"23472"},{"district":"Lomas del Faro Viejo","districtType":"Colonia","municipality":"Los Cabos","municipalityId":"008","city":"Cabo San Lucas","cityId":"03","state":"Baja California Sur","stateId":"03","stateCode":"BCS","zip":"23472"},{"district":"Magisterial","districtType":"Fraccionamiento","municipality":"Los Cabos","municipalityId":"008","city":"Cabo San Lucas","cityId":"03","state":"Baja California Sur","stateId":"03","stateCode":"BCS","zip":"23472"},{"district":"Lomas del Pacifico","districtType":"Fraccionamiento","municipality":"Los Cabos","municipalityId":"008","city":"Cabo San Lucas","cityId":"03","state":"Baja California Sur","stateId":"03","stateCode":"BCS","zip":"23473"},{"district":"Portales","districtType":"Fraccionamiento","municipality":"Los Cabos","municipalityId":"008","city":"Cabo San Lucas","cityId":"03","state":"Baja California Sur","stateId":"03","stateCode":"BCS","zip":"23473"},{"district":"Terranova","districtType":"Fraccionamiento","municipality":"Los Cabos","municipalityId":"008","city":"Cabo San Lucas","cityId":"03","state":"Baja California Sur","stateId":"03","stateCode":"BCS","zip":"23473"},{"district":"Aurora","districtType":"Fraccionamiento","municipality":"Los Cabos","municipalityId":"008","city":"Cabo San Lucas","cityId":"03","state":"Baja California Sur","stateId":"03","stateCode":"BCS","zip":"23473"},{"district":"Brisas del Pacifico","districtType":"Fraccionamiento","municipality":"Los Cabos","municipalityId":"008","city":"Cabo San Lucas","cityId":"03","state":"Baja California Sur","stateId":"03","stateCode":"BCS","zip":"23473"},{"district":"INFONAVIT Nuevo","districtType":"Unidad habitacional","municipality":"Los Cabos","municipalityId":"008","city":"Cabo San Lucas","cityId":"03","state":"Baja California Sur","stateId":"03","stateCode":"BCS","zip":"23473"},{"district":"Los Cangrejos","districtType":"Colonia","municipality":"Los Cabos","municipalityId":"008","city":"Cabo San Lucas","cityId":"03","state":"Baja California Sur","stateId":"03","stateCode":"BCS","zip":"23473"},{"district":"Cerro de los Venados","districtType":"Fraccionamiento","municipality":"Los Cabos","municipalityId":"008","city":"Cabo San Lucas","cityId":"03","state":"Baja California Sur","stateId":"03","stateCode":"BCS","zip":"23473"},{"district":"Hojazen","districtType":"Fraccionamiento","municipality":"Los Cabos","municipalityId":"008","city":"Cabo San Lucas","cityId":"03","state":"Baja California Sur","stateId":"03","stateCode":"BCS","zip":"23473"},{"district":"Vista Hermosa","districtType":"Fraccionamiento","municipality":"Los Cabos","municipalityId":"008","city":"Cabo San Lucas","cityId":"03","state":"Baja California Sur","stateId":"03","stateCode":"BCS","zip":"23473"},{"district":"Gardenias","districtType":"Colonia","municipality":"Los Cabos","municipalityId":"008","city":"Cabo San Lucas","cityId":"03","state":"Baja California Sur","stateId":"03","stateCode":"BCS","zip":"23473"},{"district":"Casa Blanca","districtType":"Fraccionamiento","municipality":"Los Cabos","municipalityId":"008","city":"Cabo San Lucas","cityId":"03","state":"Baja California Sur","stateId":"03","stateCode":"BCS","zip":"23473"},{"district":"Buena Vista","districtType":"Fraccionamiento","municipality":"Los Cabos","municipalityId":"008","city":"Cabo San Lucas","cityId":"03","state":"Baja California Sur","stateId":"03","stateCode":"BCS","zip":"23473"},{"district":"Jacarandas","districtType":"Fraccionamiento","municipality":"Los Cabos","municipalityId":"008","city":"Cabo San Lucas","cityId":"03","state":"Baja California Sur","stateId":"03","stateCode":"BCS","zip":"23473"},{"district":"Brisas del Pacifico Codepa","districtType":"Fraccionamiento","municipality":"Los Cabos","municipalityId":"008","city":"Cabo San Lucas","cityId":"03","state":"Baja California Sur","stateId":"03","stateCode":"BCS","zip":"23473"},{"district":"Arcos del Sol","districtType":"Colonia","municipality":"Los Cabos","municipalityId":"008","city":"Cabo San Lucas","cityId":"03","state":"Baja California Sur","stateId":"03","stateCode":"BCS","zip":"23474"},{"district":"Inova","districtType":"Fraccionamiento","municipality":"Los Cabos","municipalityId":"008","city":"Cabo San Lucas","cityId":"03","state":"Baja California Sur","stateId":"03","stateCode":"BCS","zip":"23474"},{"district":"Villas de La Joya","districtType":"Fraccionamiento","municipality":"Los Cabos","municipalityId":"008","city":"Cabo San Lucas","cityId":"03","state":"Baja California Sur","stateId":"03","stateCode":"BCS","zip":"23474"},{"district":"La Esperanza","districtType":"Colonia","municipality":"Los Cabos","municipalityId":"008","city":"Cabo San Lucas","cityId":"03","state":"Baja California Sur","stateId":"03","stateCode":"BCS","zip":"23474"},{"district":"Jardines del Sol","districtType":"Colonia","municipality":"Los Cabos","municipalityId":"008","city":"Cabo San Lucas","cityId":"03","state":"Baja California Sur","stateId":"03","stateCode":"BCS","zip":"23474"},{"district":"Hemisferia","districtType":"Fraccionamiento","municipality":"Los Cabos","municipalityId":"008","city":"Cabo San Lucas","cityId":"03","state":"Baja California Sur","stateId":"03","stateCode":"BCS","zip":"23475"},{"district":"Tierra y Libertad","districtType":"Colonia","municipality":"Los Cabos","municipalityId":"008","city":"Cabo San Lucas","cityId":"03","state":"Baja California Sur","stateId":"03","stateCode":"BCS","zip":"23477"},{"district":"Progreso","districtType":"Colonia","municipality":"Los Cabos","municipalityId":"008","city":"Cabo San Lucas","cityId":"03","state":"Baja California Sur","stateId":"03","stateCode":"BCS","zip":"23477"},{"district":"Lomas del Valle","districtType":"Fraccionamiento","municipality":"Los Cabos","municipalityId":"008","city":"Cabo San Lucas","cityId":"03","state":"Baja California Sur","stateId":"03","stateCode":"BCS","zip":"23477"},{"district":"Las Palmas","districtType":"Colonia","municipality":"Los Cabos","municipalityId":"008","city":"Cabo San Lucas","cityId":"03","state":"Baja California Sur","stateId":"03","stateCode":"BCS","zip":"23477"},{"district":"Lomas del Sol","districtType":"Colonia","municipality":"Los Cabos","municipalityId":"008","city":"Cabo San Lucas","cityId":"03","state":"Baja California Sur","stateId":"03","stateCode":"BCS","zip":"23477"},{"district":"Magisterial Viva","districtType":"Colonia","municipality":"Los Cabos","municipalityId":"008","city":"Cabo San Lucas","cityId":"03","state":"Baja California Sur","stateId":"03","stateCode":"BCS","zip":"23477"},{"district":"Caribe","districtType":"Colonia","municipality":"Los Cabos","municipalityId":"008","city":"Cabo San Lucas","cityId":"03","state":"Baja California Sur","stateId":"03","stateCode":"BCS","zip":"23477"},{"district":"Celeste","districtType":"Residencial","municipality":"Los Cabos","municipalityId":"008","city":"Cabo San Lucas","cityId":"03","state":"Baja California Sur","stateId":"03","stateCode":"BCS","zip":"23477"},{"district":"Rosa Delia","districtType":"Colonia","municipality":"Los Cabos","municipalityId":"008","city":"Cabo San Lucas","cityId":"03","state":"Baja California Sur","stateId":"03","stateCode":"BCS","zip":"23477"},{"district":"Residencial La Peña","districtType":"Fraccionamiento","municipality":"Los Cabos","municipalityId":"008","city":"Cabo San Lucas","cityId":"03","state":"Baja California Sur","stateId":"03","stateCode":"BCS","zip":"23477"},{"district":"Las Palmas","districtType":"Fraccionamiento","municipality":"Los Cabos","municipalityId":"008","city":"Cabo San Lucas","cityId":"03","state":"Baja California Sur","stateId":"03","stateCode":"BCS","zip":"23477"},{"district":"Misiones de Santa Fe","districtType":"Fraccionamiento","municipality":"Los Cabos","municipalityId":"008","city":"Cabo San Lucas","cityId":"03","state":"Baja California Sur","stateId":"03","stateCode":"BCS","zip":"23477"},{"district":"Santa Fe Oro","districtType":"Fraccionamiento","municipality":"Los Cabos","municipalityId":"008","city":"Cabo San Lucas","cityId":"03","state":"Baja California Sur","stateId":"03","stateCode":"BCS","zip":"23477"},{"district":"Jardines del Sur","districtType":"Fraccionamiento","municipality":"Los Cabos","municipalityId":"008","city":"Cabo San Lucas","cityId":"03","state":"Baja California Sur","stateId":"03","stateCode":"BCS","zip":"23478"},{"district":"Arcos del Sol II","districtType":"Fraccionamiento","municipality":"Los Cabos","municipalityId":"008","city":"Cabo San Lucas","cityId":"03","state":"Baja California Sur","stateId":"03","stateCode":"BCS","zip":"23478"},{"district":"Matancitas","districtType":"Poblado comunal","municipality":"Los Cabos","municipalityId":"008","city":"","cityId":"","state":"Baja California Sur","stateId":"03","stateCode":"BCS","zip":"23500"},{"district":"Santiago","districtType":"Pueblo","municipality":"Los Cabos","municipalityId":"008","city":"","cityId":"","state":"Baja California Sur","stateId":"03","stateCode":"BCS","zip":"23500"},{"district":"Milpillas","districtType":"Ranchería","municipality":"Los Cabos","municipalityId":"008","city":"","cityId":"","state":"Baja California Sur","stateId":"03","stateCode":"BCS","zip":"23500"},{"district":"El Epazote","districtType":"Ranchería","municipality":"Los Cabos","municipalityId":"008","city":"","cityId":"","state":"Baja California Sur","stateId":"03","stateCode":"BCS","zip":"23501"},{"district":"Agua Caliente","districtType":"Congregación","municipality":"Los Cabos","municipalityId":"008","city":"","cityId":"","state":"Baja California Sur","stateId":"03","stateCode":"BCS","zip":"23510"},{"district":"Miraflores","districtType":"Pueblo","municipality":"Los Cabos","municipalityId":"008","city":"","cityId":"","state":"Baja California Sur","stateId":"03","stateCode":"BCS","zip":"23520"},{"district":"La Palmilla","districtType":"Ranchería","municipality":"Los Cabos","municipalityId":"008","city":"","cityId":"","state":"Baja California Sur","stateId":"03","stateCode":"BCS","zip":"23522"},{"district":"Caduaño","districtType":"Congregación","municipality":"Los Cabos","municipalityId":"008","city":"","cityId":"","state":"Baja California Sur","stateId":"03","stateCode":"BCS","zip":"23530"},{"district":"Boca de La Trinidad","districtType":"Ranchería","municipality":"Los Cabos","municipalityId":"008","city":"","cityId":"","state":"Baja California Sur","stateId":"03","stateCode":"BCS","zip":"23531"},{"district":"El Bosque","districtType":"Ranchería","municipality":"Los Cabos","municipalityId":"008","city":"","cityId":"","state":"Baja California Sur","stateId":"03","stateCode":"BCS","zip":"23532"},{"district":"Loma Encantada","districtType":"Fraccionamiento","municipality":"Los Cabos","municipalityId":"008","city":"","cityId":"","state":"Baja California Sur","stateId":"03","stateCode":"BCS","zip":"23537"},{"district":"Vista Colorada","districtType":"Fraccionamiento","municipality":"Los Cabos","municipalityId":"008","city":"","cityId":"","state":"Baja California Sur","stateId":"03","stateCode":"BCS","zip":"23537"},{"district":"Palmilla","districtType":"Fraccionamiento","municipality":"Los Cabos","municipalityId":"008","city":"","cityId":"","state":"Baja California Sur","stateId":"03","stateCode":"BCS","zip":"23537"},{"district":"La Antigua","districtType":"Fraccionamiento","municipality":"Los Cabos","municipalityId":"008","city":"","cityId":"","state":"Baja California Sur","stateId":"03","stateCode":"BCS","zip":"23537"},{"district":"San Bernabe","districtType":"Ranchería","municipality":"Los Cabos","municipalityId":"008","city":"","cityId":"","state":"Baja California Sur","stateId":"03","stateCode":"BCS","zip":"23540"},{"district":"El Refugio","districtType":"Ranchería","municipality":"Los Cabos","municipalityId":"008","city":"","cityId":"","state":"Baja California Sur","stateId":"03","stateCode":"BCS","zip":"23541"},{"district":"Palo Escopeta","districtType":"Ranchería","municipality":"Los Cabos","municipalityId":"008","city":"","cityId":"","state":"Baja California Sur","stateId":"03","stateCode":"BCS","zip":"23542"},{"district":"San José Viejo","districtType":"Ranchería","municipality":"Los Cabos","municipalityId":"008","city":"","cityId":"","state":"Baja California Sur","stateId":"03","stateCode":"BCS","zip":"23550"},{"district":"Santa Catarina","districtType":"Ranchería","municipality":"Los Cabos","municipalityId":"008","city":"","cityId":"","state":"Baja California Sur","stateId":"03","stateCode":"BCS","zip":"23550"},{"district":"Los Frailes","districtType":"Ranchería","municipality":"Los Cabos","municipalityId":"008","city":"","cityId":"","state":"Baja California Sur","stateId":"03","stateCode":"BCS","zip":"23551"},{"district":"Santa Rosa","districtType":"Ranchería","municipality":"Los Cabos","municipalityId":"008","city":"","cityId":"","state":"Baja California Sur","stateId":"03","stateCode":"BCS","zip":"23552"},{"district":"Las Cuevas","districtType":"Colonia","municipality":"Los Cabos","municipalityId":"008","city":"","cityId":"","state":"Baja California Sur","stateId":"03","stateCode":"BCS","zip":"23560"},{"district":"El Campamento","districtType":"Campamento","municipality":"Los Cabos","municipalityId":"008","city":"","cityId":"","state":"Baja California Sur","stateId":"03","stateCode":"BCS","zip":"23560"},{"district":"Santa Cruz","districtType":"Ranchería","municipality":"Los Cabos","municipalityId":"008","city":"","cityId":"","state":"Baja California Sur","stateId":"03","stateCode":"BCS","zip":"23567"},{"district":"La Rivera","districtType":"Ranchería","municipality":"Los Cabos","municipalityId":"008","city":"","cityId":"","state":"Baja California Sur","stateId":"03","stateCode":"BCS","zip":"23570"},{"district":"Las Lagunas","districtType":"Ranchería","municipality":"Los Cabos","municipalityId":"008","city":"","cityId":"","state":"Baja California Sur","stateId":"03","stateCode":"BCS","zip":"23572"},{"district":"Miramar","districtType":"Ranchería","municipality":"Los Cabos","municipalityId":"008","city":"","cityId":"","state":"Baja California Sur","stateId":"03","stateCode":"BCS","zip":"23573"},{"district":"Cabo Pulmo","districtType":"Ranchería","municipality":"Los Cabos","municipalityId":"008","city":"","cityId":"","state":"Baja California Sur","stateId":"03","stateCode":"BCS","zip":"23574"},{"district":"Las Barrancas","districtType":"Ranchería","municipality":"Los Cabos","municipalityId":"008","city":"","cityId":"","state":"Baja California Sur","stateId":"03","stateCode":"BCS","zip":"23575"},{"district":"Buenavista","districtType":"Ranchería","municipality":"Los Cabos","municipalityId":"008","city":"","cityId":"","state":"Baja California Sur","stateId":"03","stateCode":"BCS","zip":"23580"},{"district":"La Ballena","districtType":"Ranchería","municipality":"Los Cabos","municipalityId":"008","city":"","cityId":"","state":"Baja California Sur","stateId":"03","stateCode":"BCS","zip":"23581"},{"district":"San Felipe","districtType":"Ranchería","municipality":"Los Cabos","municipalityId":"008","city":"","cityId":"","state":"Baja California Sur","stateId":"03","stateCode":"BCS","zip":"23581"},{"district":"Las Casitas","districtType":"Congregación","municipality":"Los Cabos","municipalityId":"008","city":"","cityId":"","state":"Baja California Sur","stateId":"03","stateCode":"BCS","zip":"23582"},{"district":"Punta Chileno","districtType":"Ranchería","municipality":"Los Cabos","municipalityId":"008","city":"","cityId":"","state":"Baja California Sur","stateId":"03","stateCode":"BCS","zip":"23585"},{"district":"El Ranchito","districtType":"Ranchería","municipality":"Los Cabos","municipalityId":"008","city":"","cityId":"","state":"Baja California Sur","stateId":"03","stateCode":"BCS","zip":"23586"},{"district":"Rosarito","districtType":"Ranchería","municipality":"Los Cabos","municipalityId":"008","city":"","cityId":"","state":"Baja California Sur","stateId":"03","stateCode":"BCS","zip":"23587"},{"district":"El Zacatal","districtType":"Ranchería","municipality":"Los Cabos","municipalityId":"008","city":"","cityId":"","state":"Baja California Sur","stateId":"03","stateCode":"BCS","zip":"23588"},{"district":"La Candelaria","districtType":"Pueblo","municipality":"Los Cabos","municipalityId":"008","city":"","cityId":"","state":"Baja California Sur","stateId":"03","stateCode":"BCS","zip":"23590"},{"district":"Boca del Saucito","districtType":"Ranchería","municipality":"Los Cabos","municipalityId":"008","city":"","cityId":"","state":"Baja California Sur","stateId":"03","stateCode":"BCS","zip":"23593"},{"district":"El Sauzal","districtType":"Poblado comunal","municipality":"Los Cabos","municipalityId":"008","city":"","cityId":"","state":"Baja California Sur","stateId":"03","stateCode":"BCS","zip":"23593"},{"district":"Buena Vista","districtType":"Fraccionamiento","municipality":"Los Cabos","municipalityId":"008","city":"","cityId":"","state":"Baja California Sur","stateId":"03","stateCode":"BCS","zip":"23595"},{"district":"Agua Escondida","districtType":"Ranchería","municipality":"Los Cabos","municipalityId":"008","city":"","cityId":"","state":"Baja California Sur","stateId":"03","stateCode":"BCS","zip":"23595"},{"district":"Buenavista","districtType":"Poblado comunal","municipality":"Los Cabos","municipalityId":"008","city":"","cityId":"","state":"Baja California Sur","stateId":"03","stateCode":"BCS","zip":"23597"},{"district":"Cerro Catedral","districtType":"Colonia","municipality":"Comondú","municipalityId":"001","city":"Ciudad Constitución","cityId":"01","state":"Baja California Sur","stateId":"03","stateCode":"BCS","zip":"23600"},{"district":"Batequitos","districtType":"Colonia","municipality":"Comondú","municipalityId":"001","city":"Ciudad Constitución","cityId":"01","state":"Baja California Sur","stateId":"03","stateCode":"BCS","zip":"23600"},{"district":"Zona Centro","districtType":"Colonia","municipality":"Comondú","municipalityId":"001","city":"Ciudad Constitución","cityId":"01","state":"Baja California Sur","stateId":"03","stateCode":"BCS","zip":"23600"},{"district":"INVI Olivos Juan Domínguez Cota","districtType":"Colonia","municipality":"Comondú","municipalityId":"001","city":"Ciudad Constitución","cityId":"01","state":"Baja California Sur","stateId":"03","stateCode":"BCS","zip":"23600"},{"district":"Las Palmas","districtType":"Fraccionamiento","municipality":"Comondú","municipalityId":"001","city":"Ciudad Constitución","cityId":"01","state":"Baja California Sur","stateId":"03","stateCode":"BCS","zip":"23610"},{"district":"Vargas","districtType":"Colonia","municipality":"Comondú","municipalityId":"001","city":"Ciudad Constitución","cityId":"01","state":"Baja California Sur","stateId":"03","stateCode":"BCS","zip":"23620"},{"district":"Renero","districtType":"Fraccionamiento","municipality":"Comondú","municipalityId":"001","city":"Ciudad Constitución","cityId":"01","state":"Baja California Sur","stateId":"03","stateCode":"BCS","zip":"23620"},{"district":"Los Olivos","districtType":"Fraccionamiento","municipality":"Comondú","municipalityId":"001","city":"Ciudad Constitución","cityId":"01","state":"Baja California Sur","stateId":"03","stateCode":"BCS","zip":"23630"},{"district":"INFONAVIT San Martín","districtType":"Fraccionamiento","municipality":"Comondú","municipalityId":"001","city":"Ciudad Constitución","cityId":"01","state":"Baja California Sur","stateId":"03","stateCode":"BCS","zip":"23631"},{"district":"Olímpico","districtType":"Fraccionamiento","municipality":"Comondú","municipalityId":"001","city":"Ciudad Constitución","cityId":"01","state":"Baja California Sur","stateId":"03","stateCode":"BCS","zip":"23640"},{"district":"4 de Marzo","districtType":"Colonia","municipality":"Comondú","municipalityId":"001","city":"Ciudad Constitución","cityId":"01","state":"Baja California Sur","stateId":"03","stateCode":"BCS","zip":"23641"},{"district":"Lienzo Charro","districtType":"Fraccionamiento","municipality":"Comondú","municipalityId":"001","city":"Ciudad Constitución","cityId":"01","state":"Baja California Sur","stateId":"03","stateCode":"BCS","zip":"23650"},{"district":"Conjunto Urbano del Sur","districtType":"Fraccionamiento","municipality":"Comondú","municipalityId":"001","city":"Ciudad Constitución","cityId":"01","state":"Baja California Sur","stateId":"03","stateCode":"BCS","zip":"23658"},{"district":"Residencial La Hacienda","districtType":"Fraccionamiento","municipality":"Comondú","municipalityId":"001","city":"Ciudad Constitución","cityId":"01","state":"Baja California Sur","stateId":"03","stateCode":"BCS","zip":"23658"},{"district":"INFONAVIT Guaycura","districtType":"Fraccionamiento","municipality":"Comondú","municipalityId":"001","city":"Ciudad Constitución","cityId":"01","state":"Baja California Sur","stateId":"03","stateCode":"BCS","zip":"23660"},{"district":"Los Pinos","districtType":"Colonia","municipality":"Comondú","municipalityId":"001","city":"Ciudad Constitución","cityId":"01","state":"Baja California Sur","stateId":"03","stateCode":"BCS","zip":"23670"},{"district":"Pueblo Nuevo","districtType":"Colonia","municipality":"Comondú","municipalityId":"001","city":"Ciudad Constitución","cityId":"01","state":"Baja California Sur","stateId":"03","stateCode":"BCS","zip":"23670"},{"district":"El Crucero","districtType":"Fraccionamiento","municipality":"Comondú","municipalityId":"001","city":"Ciudad Constitución","cityId":"01","state":"Baja California Sur","stateId":"03","stateCode":"BCS","zip":"23670"},{"district":"Pioneros","districtType":"Colonia","municipality":"Comondú","municipalityId":"001","city":"Ciudad Constitución","cityId":"01","state":"Baja California Sur","stateId":"03","stateCode":"BCS","zip":"23676"},{"district":"Constitución","districtType":"Fraccionamiento","municipality":"Comondú","municipalityId":"001","city":"Ciudad Constitución","cityId":"01","state":"Baja California Sur","stateId":"03","stateCode":"BCS","zip":"23677"},{"district":"La Esperanza","districtType":"Colonia","municipality":"Comondú","municipalityId":"001","city":"Ciudad Constitución","cityId":"01","state":"Baja California Sur","stateId":"03","stateCode":"BCS","zip":"23677"},{"district":"Plano Oriente","districtType":"Colonia","municipality":"Comondú","municipalityId":"001","city":"Ciudad Constitución","cityId":"01","state":"Baja California Sur","stateId":"03","stateCode":"BCS","zip":"23678"},{"district":"Real","districtType":"Fraccionamiento","municipality":"Comondú","municipalityId":"001","city":"Ciudad Constitución","cityId":"01","state":"Baja California Sur","stateId":"03","stateCode":"BCS","zip":"23680"},{"district":"San Martín","districtType":"Fraccionamiento","municipality":"Comondú","municipalityId":"001","city":"Ciudad Constitución","cityId":"01","state":"Baja California Sur","stateId":"03","stateCode":"BCS","zip":"23690"},{"district":"Roberto Esperon","districtType":"Colonia","municipality":"Comondú","municipalityId":"001","city":"Ciudad Constitución","cityId":"01","state":"Baja California Sur","stateId":"03","stateCode":"BCS","zip":"23695"},{"district":"Cecilia Madrid","districtType":"Fraccionamiento","municipality":"Comondú","municipalityId":"001","city":"Ciudad Constitución","cityId":"01","state":"Baja California Sur","stateId":"03","stateCode":"BCS","zip":"23696"},{"district":"El Agricultor INDECO","districtType":"Colonia","municipality":"Comondú","municipalityId":"001","city":"Ciudad Constitución","cityId":"01","state":"Baja California Sur","stateId":"03","stateCode":"BCS","zip":"23696"},{"district":"Magisterial","districtType":"Colonia","municipality":"Comondú","municipalityId":"001","city":"Ciudad Constitución","cityId":"01","state":"Baja California Sur","stateId":"03","stateCode":"BCS","zip":"23697"},{"district":"Fernando de La Toba","districtType":"Ranchería","municipality":"Comondú","municipalityId":"001","city":"","cityId":"","state":"Baja California Sur","stateId":"03","stateCode":"BCS","zip":"23700"},{"district":"Ciudad Insurgentes","districtType":"Ciudad","municipality":"Comondú","municipalityId":"001","city":"","cityId":"","state":"Baja California Sur","stateId":"03","stateCode":"BCS","zip":"23700"},{"district":"Buenos Aires","districtType":"Ranchería","municipality":"Comondú","municipalityId":"001","city":"","cityId":"","state":"Baja California Sur","stateId":"03","stateCode":"BCS","zip":"23701"},{"district":"Las Flores","districtType":"Colonia","municipality":"Comondú","municipalityId":"001","city":"","cityId":"","state":"Baja California Sur","stateId":"03","stateCode":"BCS","zip":"23701"},{"district":"Rio Mayo","districtType":"Colonia","municipality":"Comondú","municipalityId":"001","city":"","cityId":"","state":"Baja California Sur","stateId":"03","stateCode":"BCS","zip":"23708"},{"district":"Puerto Pdte. Adolfo Lopez Mateos Centro","districtType":"Colonia","municipality":"Comondú","municipalityId":"001","city":"Puerto Adolfo López Mateos","cityId":"06","state":"Baja California Sur","stateId":"03","stateCode":"BCS","zip":"23710"},{"district":"Matancitas II","districtType":"Unidad habitacional","municipality":"Comondú","municipalityId":"001","city":"Puerto Adolfo López Mateos","cityId":"06","state":"Baja California Sur","stateId":"03","stateCode":"BCS","zip":"23710"},{"district":"Ingeniero Luis de La Peña","districtType":"Unidad habitacional","municipality":"Comondú","municipalityId":"001","city":"Puerto Adolfo López Mateos","cityId":"06","state":"Baja California Sur","stateId":"03","stateCode":"BCS","zip":"23710"},{"district":"Matancitas I","districtType":"Unidad habitacional","municipality":"Comondú","municipalityId":"001","city":"Puerto Adolfo López Mateos","cityId":"06","state":"Baja California Sur","stateId":"03","stateCode":"BCS","zip":"23710"},{"district":"La Poza de Palo","districtType":"Colonia","municipality":"Comondú","municipalityId":"001","city":"","cityId":"","state":"Baja California Sur","stateId":"03","stateCode":"BCS","zip":"23712"},{"district":"San Juan de Matancitas","districtType":"Ranchería","municipality":"Comondú","municipalityId":"001","city":"","cityId":"","state":"Baja California Sur","stateId":"03","stateCode":"BCS","zip":"23713"},{"district":"Ignacio Zaragoza","districtType":"Ejido","municipality":"Comondú","municipalityId":"001","city":"","cityId":"","state":"Baja California Sur","stateId":"03","stateCode":"BCS","zip":"23715"},{"district":"Villa Hidalgo","districtType":"Colonia","municipality":"Comondú","municipalityId":"001","city":"","cityId":"","state":"Baja California Sur","stateId":"03","stateCode":"BCS","zip":"23720"},{"district":"Ramaditas","districtType":"Ejido","municipality":"Comondú","municipalityId":"001","city":"","cityId":"","state":"Baja California Sur","stateId":"03","stateCode":"BCS","zip":"23721"},{"district":"Matancitas","districtType":"Ranchería","municipality":"Comondú","municipalityId":"001","city":"","cityId":"","state":"Baja California Sur","stateId":"03","stateCode":"BCS","zip":"23722"},{"district":"Benito Juárez","districtType":"Colonia","municipality":"Comondú","municipalityId":"001","city":"","cityId":"","state":"Baja California Sur","stateId":"03","stateCode":"BCS","zip":"23730"},{"district":"Providencia","districtType":"Colonia","municipality":"Comondú","municipalityId":"001","city":"","cityId":"","state":"Baja California Sur","stateId":"03","stateCode":"BCS","zip":"23731"},{"district":"Torres","districtType":"Colonia","municipality":"Comondú","municipalityId":"001","city":"","cityId":"","state":"Baja California Sur","stateId":"03","stateCode":"BCS","zip":"23733"},{"district":"Teotlan","districtType":"Colonia","municipality":"Comondú","municipalityId":"001","city":"","cityId":"","state":"Baja California Sur","stateId":"03","stateCode":"BCS","zip":"23734"},{"district":"Palo Bola","districtType":"Ranchería","municipality":"Comondú","municipalityId":"001","city":"","cityId":"","state":"Baja California Sur","stateId":"03","stateCode":"BCS","zip":"23736"},{"district":"El Vallecito","districtType":"Ranchería","municipality":"Comondú","municipalityId":"001","city":"","cityId":"","state":"Baja California Sur","stateId":"03","stateCode":"BCS","zip":"23737"},{"district":"Navojoa 1","districtType":"Ranchería","municipality":"Comondú","municipalityId":"001","city":"","cityId":"","state":"Baja California Sur","stateId":"03","stateCode":"BCS","zip":"23739"},{"district":"Puerto San Carlos","districtType":"Colonia","municipality":"Comondú","municipalityId":"001","city":"","cityId":"","state":"Baja California Sur","stateId":"03","stateCode":"BCS","zip":"23740"},{"district":"El Ranchito","districtType":"Poblado comunal","municipality":"Comondú","municipalityId":"001","city":"","cityId":"","state":"Baja California Sur","stateId":"03","stateCode":"BCS","zip":"23743"},{"district":"Puerto Magdalena","districtType":"Pueblo","municipality":"Comondú","municipalityId":"001","city":"","cityId":"","state":"Baja California Sur","stateId":"03","stateCode":"BCS","zip":"23748"},{"district":"Puerto Alcatraz","districtType":"Ranchería","municipality":"Comondú","municipalityId":"001","city":"","cityId":"","state":"Baja California Sur","stateId":"03","stateCode":"BCS","zip":"23749"},{"district":"Puerto Cortes","districtType":"Pueblo","municipality":"Comondú","municipalityId":"001","city":"","cityId":"","state":"Baja California Sur","stateId":"03","stateCode":"BCS","zip":"23750"},{"district":"Ley Federal de Aguas No 5","districtType":"Colonia","municipality":"Comondú","municipalityId":"001","city":"","cityId":"","state":"Baja California Sur","stateId":"03","stateCode":"BCS","zip":"23760"},{"district":"Tepentu","districtType":"Colonia","municipality":"Comondú","municipalityId":"001","city":"","cityId":"","state":"Baja California Sur","stateId":"03","stateCode":"BCS","zip":"23766"},{"district":"Lagunita","districtType":"Ranchería","municipality":"Comondú","municipalityId":"001","city":"","cityId":"","state":"Baja California Sur","stateId":"03","stateCode":"BCS","zip":"23767"},{"district":"Villa Morelos","districtType":"Ranchería","municipality":"Comondú","municipalityId":"001","city":"","cityId":"","state":"Baja California Sur","stateId":"03","stateCode":"BCS","zip":"23770"},{"district":"El Vergel","districtType":"Ranchería","municipality":"Comondú","municipalityId":"001","city":"","cityId":"","state":"Baja California Sur","stateId":"03","stateCode":"BCS","zip":"23771"},{"district":"Yaqui","districtType":"Colonia","municipality":"Comondú","municipalityId":"001","city":"","cityId":"","state":"Baja California Sur","stateId":"03","stateCode":"BCS","zip":"23771"},{"district":"La Arpillera","districtType":"Ranchería","municipality":"Comondú","municipalityId":"001","city":"","cityId":"","state":"Baja California Sur","stateId":"03","stateCode":"BCS","zip":"23773"},{"district":"Las Delicias","districtType":"Ranchería","municipality":"Comondú","municipalityId":"001","city":"","cityId":"","state":"Baja California Sur","stateId":"03","stateCode":"BCS","zip":"23774"},{"district":"Yaquis, Lote 13","districtType":"Poblado comunal","municipality":"Comondú","municipalityId":"001","city":"","cityId":"","state":"Baja California Sur","stateId":"03","stateCode":"BCS","zip":"23775"},{"district":"Ley Federal de Aguas No 4","districtType":"Colonia","municipality":"Comondú","municipalityId":"001","city":"","cityId":"","state":"Baja California Sur","stateId":"03","stateCode":"BCS","zip":"23780"},{"district":"Santa Teresa","districtType":"Ranchería","municipality":"Comondú","municipalityId":"001","city":"","cityId":"","state":"Baja California Sur","stateId":"03","stateCode":"BCS","zip":"23789"},{"district":"Ley Federal de Aguas No 3","districtType":"Ranchería","municipality":"Comondú","municipalityId":"001","city":"","cityId":"","state":"Baja California Sur","stateId":"03","stateCode":"BCS","zip":"23790"},{"district":"San Miguel de Comondú","districtType":"Pueblo","municipality":"Comondú","municipalityId":"001","city":"","cityId":"","state":"Baja California Sur","stateId":"03","stateCode":"BCS","zip":"23800"},{"district":"Llano Redondo","districtType":"Ranchería","municipality":"Comondú","municipalityId":"001","city":"","cityId":"","state":"Baja California Sur","stateId":"03","stateCode":"BCS","zip":"23801"},{"district":"San Hilario","districtType":"Ranchería","municipality":"Comondú","municipalityId":"001","city":"","cityId":"","state":"Baja California Sur","stateId":"03","stateCode":"BCS","zip":"23802"},{"district":"San Julio","districtType":"Ranchería","municipality":"Comondú","municipalityId":"001","city":"","cityId":"","state":"Baja California Sur","stateId":"03","stateCode":"BCS","zip":"23803"},{"district":"San Pedro","districtType":"Ranchería","municipality":"Comondú","municipalityId":"001","city":"","cityId":"","state":"Baja California Sur","stateId":"03","stateCode":"BCS","zip":"23805"},{"district":"San Luis Gonzaga","districtType":"Ranchería","municipality":"Comondú","municipalityId":"001","city":"","cityId":"","state":"Baja California Sur","stateId":"03","stateCode":"BCS","zip":"23808"},{"district":"San Isidro","districtType":"Ranchería","municipality":"Comondú","municipalityId":"001","city":"","cityId":"","state":"Baja California Sur","stateId":"03","stateCode":"BCS","zip":"23810"},{"district":"El Quiñi","districtType":"Ranchería","municipality":"Comondú","municipalityId":"001","city":"","cityId":"","state":"Baja California Sur","stateId":"03","stateCode":"BCS","zip":"23811"},{"district":"Cadeje","districtType":"Ranchería","municipality":"Comondú","municipalityId":"001","city":"","cityId":"","state":"Baja California Sur","stateId":"03","stateCode":"BCS","zip":"23811"},{"district":"San Juanico","districtType":"Ejido","municipality":"Comondú","municipalityId":"001","city":"","cityId":"","state":"Baja California Sur","stateId":"03","stateCode":"BCS","zip":"23812"},{"district":"Paso Hondo","districtType":"Ranchería","municipality":"Comondú","municipalityId":"001","city":"","cityId":"","state":"Baja California Sur","stateId":"03","stateCode":"BCS","zip":"23813"},{"district":"Los Burros","districtType":"Ranchería","municipality":"Comondú","municipalityId":"001","city":"","cityId":"","state":"Baja California Sur","stateId":"03","stateCode":"BCS","zip":"23816"},{"district":"San Gregorio","districtType":"Ranchería","municipality":"Comondú","municipalityId":"001","city":"","cityId":"","state":"Baja California Sur","stateId":"03","stateCode":"BCS","zip":"23818"},{"district":"El Mezquital","districtType":"Poblado comunal","municipality":"Comondú","municipalityId":"001","city":"","cityId":"","state":"Baja California Sur","stateId":"03","stateCode":"BCS","zip":"23820"},{"district":"San José de Comondú","districtType":"Pueblo","municipality":"Comondú","municipalityId":"001","city":"","cityId":"","state":"Baja California Sur","stateId":"03","stateCode":"BCS","zip":"23820"},{"district":"La Purísima","districtType":"Ranchería","municipality":"Comondú","municipalityId":"001","city":"","cityId":"","state":"Baja California Sur","stateId":"03","stateCode":"BCS","zip":"23820"},{"district":"La Laguna","districtType":"Ranchería","municipality":"Comondú","municipalityId":"001","city":"","cityId":"","state":"Baja California Sur","stateId":"03","stateCode":"BCS","zip":"23823"},{"district":"Ojo de Agua","districtType":"Ranchería","municipality":"Comondú","municipalityId":"001","city":"","cityId":"","state":"Baja California Sur","stateId":"03","stateCode":"BCS","zip":"23824"},{"district":"Comondú Viejo","districtType":"Ranchería","municipality":"Comondú","municipalityId":"001","city":"","cityId":"","state":"Baja California Sur","stateId":"03","stateCode":"BCS","zip":"23828"},{"district":"Cerro Colorado","districtType":"Ranchería","municipality":"Comondú","municipalityId":"001","city":"","cityId":"","state":"Baja California Sur","stateId":"03","stateCode":"BCS","zip":"23829"},{"district":"La Poza Grande","districtType":"Ranchería","municipality":"Comondú","municipalityId":"001","city":"","cityId":"","state":"Baja California Sur","stateId":"03","stateCode":"BCS","zip":"23830"},{"district":"El Pabellón","districtType":"Ranchería","municipality":"Comondú","municipalityId":"001","city":"","cityId":"","state":"Baja California Sur","stateId":"03","stateCode":"BCS","zip":"23832"},{"district":"Las Barrancas","districtType":"Ranchería","municipality":"Comondú","municipalityId":"001","city":"","cityId":"","state":"Baja California Sur","stateId":"03","stateCode":"BCS","zip":"23834"},{"district":"Campo Pesquero las Barrancas","districtType":"Ejido","municipality":"Comondú","municipalityId":"001","city":"","cityId":"","state":"Baja California Sur","stateId":"03","stateCode":"BCS","zip":"23834"},{"district":"San Venancio","districtType":"Ejido","municipality":"Comondú","municipalityId":"001","city":"","cityId":"","state":"Baja California Sur","stateId":"03","stateCode":"BCS","zip":"23837"},{"district":"Francisco Villa","districtType":"Ejido","municipality":"Comondú","municipalityId":"001","city":"","cityId":"","state":"Baja California Sur","stateId":"03","stateCode":"BCS","zip":"23838"},{"district":"María Auxiliadora","districtType":"Ranchería","municipality":"Comondú","municipalityId":"001","city":"","cityId":"","state":"Baja California Sur","stateId":"03","stateCode":"BCS","zip":"23840"},{"district":"Jalisco","districtType":"Ranchería","municipality":"Comondú","municipalityId":"001","city":"","cityId":"","state":"Baja California Sur","stateId":"03","stateCode":"BCS","zip":"23844"},{"district":"El Palo Alto","districtType":"Ranchería","municipality":"Comondú","municipalityId":"001","city":"","cityId":"","state":"Baja California Sur","stateId":"03","stateCode":"BCS","zip":"23845"},{"district":"Purísima","districtType":"Ranchería","municipality":"Comondú","municipalityId":"001","city":"","cityId":"","state":"Baja California Sur","stateId":"03","stateCode":"BCS","zip":"23847"},{"district":"Los Angeles","districtType":"Ranchería","municipality":"Comondú","municipalityId":"001","city":"","cityId":"","state":"Baja California Sur","stateId":"03","stateCode":"BCS","zip":"23851"},{"district":"El Medano Blanco","districtType":"Ranchería","municipality":"Comondú","municipalityId":"001","city":"","cityId":"","state":"Baja California Sur","stateId":"03","stateCode":"BCS","zip":"23853"},{"district":"Canelo","districtType":"Ranchería","municipality":"Comondú","municipalityId":"001","city":"","cityId":"","state":"Baja California Sur","stateId":"03","stateCode":"BCS","zip":"23854"},{"district":"Ley Federal de Aguas No 2","districtType":"Colonia","municipality":"Comondú","municipalityId":"001","city":"","cityId":"","state":"Baja California Sur","stateId":"03","stateCode":"BCS","zip":"23860"},{"district":"Ley Federal de Aguas No 1","districtType":"Colonia","municipality":"Comondú","municipalityId":"001","city":"","cityId":"","state":"Baja California Sur","stateId":"03","stateCode":"BCS","zip":"23870"},{"district":"San Ignacio","districtType":"Ranchería","municipality":"Comondú","municipalityId":"001","city":"","cityId":"","state":"Baja California Sur","stateId":"03","stateCode":"BCS","zip":"23873"},{"district":"Zaragoza","districtType":"Colonia","municipality":"Loreto","municipalityId":"009","city":"Loreto","cityId":"05","state":"Baja California Sur","stateId":"03","stateCode":"BCS","zip":"23880"},{"district":"INFONAVIT","districtType":"Colonia","municipality":"Loreto","municipalityId":"009","city":"Loreto","cityId":"05","state":"Baja California Sur","stateId":"03","stateCode":"BCS","zip":"23880"},{"district":"Centro","districtType":"Colonia","municipality":"Loreto","municipalityId":"009","city":"Loreto","cityId":"05","state":"Baja California Sur","stateId":"03","stateCode":"BCS","zip":"23880"},{"district":"Exploradores","districtType":"Colonia","municipality":"Loreto","municipalityId":"009","city":"Loreto","cityId":"05","state":"Baja California Sur","stateId":"03","stateCode":"BCS","zip":"23880"},{"district":"Nuevo Loreto","districtType":"Colonia","municipality":"Loreto","municipalityId":"009","city":"Loreto","cityId":"05","state":"Baja California Sur","stateId":"03","stateCode":"BCS","zip":"23880"},{"district":"Obrera","districtType":"Colonia","municipality":"Loreto","municipalityId":"009","city":"Loreto","cityId":"05","state":"Baja California Sur","stateId":"03","stateCode":"BCS","zip":"23880"},{"district":"Miramar","districtType":"Colonia","municipality":"Loreto","municipalityId":"009","city":"Loreto","cityId":"05","state":"Baja California Sur","stateId":"03","stateCode":"BCS","zip":"23880"},{"district":"El Jaral","districtType":"Colonia","municipality":"Loreto","municipalityId":"009","city":"Loreto","cityId":"05","state":"Baja California Sur","stateId":"03","stateCode":"BCS","zip":"23880"},{"district":"Misioneros","districtType":"Colonia","municipality":"Loreto","municipalityId":"009","city":"Loreto","cityId":"05","state":"Baja California Sur","stateId":"03","stateCode":"BCS","zip":"23880"},{"district":"Chula Vista","districtType":"Ranchería","municipality":"Loreto","municipalityId":"009","city":"","cityId":"","state":"Baja California Sur","stateId":"03","stateCode":"BCS","zip":"23883"},{"district":"Kilómetro 4","districtType":"Ranchería","municipality":"Loreto","municipalityId":"009","city":"","cityId":"","state":"Baja California Sur","stateId":"03","stateCode":"BCS","zip":"23883"},{"district":"Lomas Lindas","districtType":"Ranchería","municipality":"Loreto","municipalityId":"009","city":"","cityId":"","state":"Baja California Sur","stateId":"03","stateCode":"BCS","zip":"23883"},{"district":"Pent House","districtType":"Ranchería","municipality":"Loreto","municipalityId":"009","city":"","cityId":"","state":"Baja California Sur","stateId":"03","stateCode":"BCS","zip":"23883"},{"district":"Vista del Carmen","districtType":"Ranchería","municipality":"Loreto","municipalityId":"009","city":"","cityId":"","state":"Baja California Sur","stateId":"03","stateCode":"BCS","zip":"23883"},{"district":"Las Parras","districtType":"Ranchería","municipality":"Loreto","municipalityId":"009","city":"","cityId":"","state":"Baja California Sur","stateId":"03","stateCode":"BCS","zip":"23883"},{"district":"El Bebelamar","districtType":"Ranchería","municipality":"Loreto","municipalityId":"009","city":"","cityId":"","state":"Baja California Sur","stateId":"03","stateCode":"BCS","zip":"23883"},{"district":"Lomas Altas","districtType":"Ranchería","municipality":"Loreto","municipalityId":"009","city":"","cityId":"","state":"Baja California Sur","stateId":"03","stateCode":"BCS","zip":"23883"},{"district":"El Pozo de los Murillo","districtType":"Ranchería","municipality":"Loreto","municipalityId":"009","city":"","cityId":"","state":"Baja California Sur","stateId":"03","stateCode":"BCS","zip":"23883"},{"district":"El Cardonal","districtType":"Ranchería","municipality":"Loreto","municipalityId":"009","city":"","cityId":"","state":"Baja California Sur","stateId":"03","stateCode":"BCS","zip":"23884"},{"district":"Pozo Redondo","districtType":"Ranchería","municipality":"Loreto","municipalityId":"009","city":"","cityId":"","state":"Baja California Sur","stateId":"03","stateCode":"BCS","zip":"23884"},{"district":"La Morena","districtType":"Ranchería","municipality":"Loreto","municipalityId":"009","city":"","cityId":"","state":"Baja California Sur","stateId":"03","stateCode":"BCS","zip":"23884"},{"district":"San Bruno","districtType":"Ranchería","municipality":"Loreto","municipalityId":"009","city":"","cityId":"","state":"Baja California Sur","stateId":"03","stateCode":"BCS","zip":"23884"},{"district":"El Troquero","districtType":"Ranchería","municipality":"Loreto","municipalityId":"009","city":"","cityId":"","state":"Baja California Sur","stateId":"03","stateCode":"BCS","zip":"23884"},{"district":"Kilómetro 21","districtType":"Ranchería","municipality":"Loreto","municipalityId":"009","city":"","cityId":"","state":"Baja California Sur","stateId":"03","stateCode":"BCS","zip":"23884"},{"district":"Buenavista","districtType":"Ranchería","municipality":"Loreto","municipalityId":"009","city":"","cityId":"","state":"Baja California Sur","stateId":"03","stateCode":"BCS","zip":"23884"},{"district":"Los Bebelamas","districtType":"Ranchería","municipality":"Loreto","municipalityId":"009","city":"","cityId":"","state":"Baja California Sur","stateId":"03","stateCode":"BCS","zip":"23884"},{"district":"Arroyo de Leon","districtType":"Ranchería","municipality":"Loreto","municipalityId":"009","city":"","cityId":"","state":"Baja California Sur","stateId":"03","stateCode":"BCS","zip":"23884"},{"district":"Monte Cabello","districtType":"Ranchería","municipality":"Loreto","municipalityId":"009","city":"","cityId":"","state":"Baja California Sur","stateId":"03","stateCode":"BCS","zip":"23884"},{"district":"Hacienda Guadalupe","districtType":"Ranchería","municipality":"Loreto","municipalityId":"009","city":"","cityId":"","state":"Baja California Sur","stateId":"03","stateCode":"BCS","zip":"23884"},{"district":"San Vicente","districtType":"Ranchería","municipality":"Loreto","municipalityId":"009","city":"","cityId":"","state":"Baja California Sur","stateId":"03","stateCode":"BCS","zip":"23885"},{"district":"Naocojoa","districtType":"Ranchería","municipality":"Loreto","municipalityId":"009","city":"","cityId":"","state":"Baja California Sur","stateId":"03","stateCode":"BCS","zip":"23886"},{"district":"Canipole","districtType":"Ranchería","municipality":"Loreto","municipalityId":"009","city":"","cityId":"","state":"Baja California Sur","stateId":"03","stateCode":"BCS","zip":"23887"},{"district":"Los Chamacos","districtType":"Ranchería","municipality":"Loreto","municipalityId":"009","city":"","cityId":"","state":"Baja California Sur","stateId":"03","stateCode":"BCS","zip":"23887"},{"district":"Nopolo","districtType":"Fraccionamiento","municipality":"Loreto","municipalityId":"009","city":"","cityId":"","state":"Baja California Sur","stateId":"03","stateCode":"BCS","zip":"23887"},{"district":"El Manglito","districtType":"Ranchería","municipality":"Loreto","municipalityId":"009","city":"","cityId":"","state":"Baja California Sur","stateId":"03","stateCode":"BCS","zip":"23887"},{"district":"El Rosarito","districtType":"Ranchería","municipality":"Loreto","municipalityId":"009","city":"","cityId":"","state":"Baja California Sur","stateId":"03","stateCode":"BCS","zip":"23887"},{"district":"San Nicolás","districtType":"Ranchería","municipality":"Loreto","municipalityId":"009","city":"","cityId":"","state":"Baja California Sur","stateId":"03","stateCode":"BCS","zip":"23887"},{"district":"La Giganta","districtType":"Ranchería","municipality":"Loreto","municipalityId":"009","city":"","cityId":"","state":"Baja California Sur","stateId":"03","stateCode":"BCS","zip":"23888"},{"district":"El Cimarrón","districtType":"Ranchería","municipality":"Loreto","municipalityId":"009","city":"","cityId":"","state":"Baja California Sur","stateId":"03","stateCode":"BCS","zip":"23888"},{"district":"Lote 11","districtType":"Ranchería","municipality":"Loreto","municipalityId":"009","city":"","cityId":"","state":"Baja California Sur","stateId":"03","stateCode":"BCS","zip":"23888"},{"district":"San Juan Bautista Londo","districtType":"Ranchería","municipality":"Loreto","municipalityId":"009","city":"","cityId":"","state":"Baja California Sur","stateId":"03","stateCode":"BCS","zip":"23888"},{"district":"Pénjamo","districtType":"Ranchería","municipality":"Loreto","municipalityId":"009","city":"","cityId":"","state":"Baja California Sur","stateId":"03","stateCode":"BCS","zip":"23888"},{"district":"Lote 10","districtType":"Ranchería","municipality":"Loreto","municipalityId":"009","city":"","cityId":"","state":"Baja California Sur","stateId":"03","stateCode":"BCS","zip":"23888"},{"district":"Lote 67","districtType":"Ranchería","municipality":"Loreto","municipalityId":"009","city":"","cityId":"","state":"Baja California Sur","stateId":"03","stateCode":"BCS","zip":"23888"},{"district":"El Imposible","districtType":"Ranchería","municipality":"Loreto","municipalityId":"009","city":"","cityId":"","state":"Baja California Sur","stateId":"03","stateCode":"BCS","zip":"23888"},{"district":"Rancho el 47","districtType":"Ranchería","municipality":"Loreto","municipalityId":"009","city":"","cityId":"","state":"Baja California Sur","stateId":"03","stateCode":"BCS","zip":"23888"},{"district":"Lote 2a","districtType":"Ranchería","municipality":"Loreto","municipalityId":"009","city":"","cityId":"","state":"Baja California Sur","stateId":"03","stateCode":"BCS","zip":"23888"},{"district":"Santa Rosa","districtType":"Ranchería","municipality":"Loreto","municipalityId":"009","city":"","cityId":"","state":"Baja California Sur","stateId":"03","stateCode":"BCS","zip":"23888"},{"district":"Los Búfalos","districtType":"Ranchería","municipality":"Loreto","municipalityId":"009","city":"","cityId":"","state":"Baja California Sur","stateId":"03","stateCode":"BCS","zip":"23888"},{"district":"Lote 3a","districtType":"Ranchería","municipality":"Loreto","municipalityId":"009","city":"","cityId":"","state":"Baja California Sur","stateId":"03","stateCode":"BCS","zip":"23888"},{"district":"San Pedro","districtType":"Ranchería","municipality":"Loreto","municipalityId":"009","city":"","cityId":"","state":"Baja California Sur","stateId":"03","stateCode":"BCS","zip":"23888"},{"district":"El Descanso","districtType":"Ranchería","municipality":"Loreto","municipalityId":"009","city":"","cityId":"","state":"Baja California Sur","stateId":"03","stateCode":"BCS","zip":"23888"},{"district":"Loreto (Loreto)","districtType":"Aeropuerto","municipality":"Loreto","municipalityId":"009","city":"","cityId":"","state":"Baja California Sur","stateId":"03","stateCode":"BCS","zip":"23889"},{"district":"El Sauzalito","districtType":"Ranchería","municipality":"Loreto","municipalityId":"009","city":"","cityId":"","state":"Baja California Sur","stateId":"03","stateCode":"BCS","zip":"23890"},{"district":"Chula Vista","districtType":"Ranchería","municipality":"Loreto","municipalityId":"009","city":"","cityId":"","state":"Baja California Sur","stateId":"03","stateCode":"BCS","zip":"23890"},{"district":"La Calera","districtType":"Ranchería","municipality":"Loreto","municipalityId":"009","city":"","cityId":"","state":"Baja California Sur","stateId":"03","stateCode":"BCS","zip":"23890"},{"district":"El Palo Chino","districtType":"Ranchería","municipality":"Loreto","municipalityId":"009","city":"","cityId":"","state":"Baja California Sur","stateId":"03","stateCode":"BCS","zip":"23890"},{"district":"San Guillermo","districtType":"Ranchería","municipality":"Loreto","municipalityId":"009","city":"","cityId":"","state":"Baja California Sur","stateId":"03","stateCode":"BCS","zip":"23890"},{"district":"Rancho Viejo","districtType":"Ranchería","municipality":"Loreto","municipalityId":"009","city":"","cityId":"","state":"Baja California Sur","stateId":"03","stateCode":"BCS","zip":"23890"},{"district":"Santa Isabel","districtType":"Ranchería","municipality":"Loreto","municipalityId":"009","city":"","cityId":"","state":"Baja California Sur","stateId":"03","stateCode":"BCS","zip":"23890"},{"district":"El Horno","districtType":"Ranchería","municipality":"Loreto","municipalityId":"009","city":"","cityId":"","state":"Baja California Sur","stateId":"03","stateCode":"BCS","zip":"23890"},{"district":"El Picacho","districtType":"Ranchería","municipality":"Loreto","municipalityId":"009","city":"","cityId":"","state":"Baja California Sur","stateId":"03","stateCode":"BCS","zip":"23890"},{"district":"El Peloteado","districtType":"Ranchería","municipality":"Loreto","municipalityId":"009","city":"","cityId":"","state":"Baja California Sur","stateId":"03","stateCode":"BCS","zip":"23893"},{"district":"La Presa","districtType":"Ranchería","municipality":"Loreto","municipalityId":"009","city":"","cityId":"","state":"Baja California Sur","stateId":"03","stateCode":"BCS","zip":"23893"},{"district":"El Púa","districtType":"Ranchería","municipality":"Loreto","municipalityId":"009","city":"","cityId":"","state":"Baja California Sur","stateId":"03","stateCode":"BCS","zip":"23893"},{"district":"Agua Bonita","districtType":"Ranchería","municipality":"Loreto","municipalityId":"009","city":"","cityId":"","state":"Baja California Sur","stateId":"03","stateCode":"BCS","zip":"23893"},{"district":"La Fortuna","districtType":"Ranchería","municipality":"Loreto","municipalityId":"009","city":"","cityId":"","state":"Baja California Sur","stateId":"03","stateCode":"BCS","zip":"23893"},{"district":"El Belén","districtType":"Ranchería","municipality":"Loreto","municipalityId":"009","city":"","cityId":"","state":"Baja California Sur","stateId":"03","stateCode":"BCS","zip":"23893"},{"district":"El Aguaje","districtType":"Ranchería","municipality":"Loreto","municipalityId":"009","city":"","cityId":"","state":"Baja California Sur","stateId":"03","stateCode":"BCS","zip":"23893"},{"district":"San Javier","districtType":"Congregación","municipality":"Loreto","municipalityId":"009","city":"","cityId":"","state":"Baja California Sur","stateId":"03","stateCode":"BCS","zip":"23893"},{"district":"El Segundo Paso","districtType":"Ranchería","municipality":"Loreto","municipalityId":"009","city":"","cityId":"","state":"Baja California Sur","stateId":"03","stateCode":"BCS","zip":"23893"},{"district":"Los Corrales","districtType":"Ranchería","municipality":"Loreto","municipalityId":"009","city":"","cityId":"","state":"Baja California Sur","stateId":"03","stateCode":"BCS","zip":"23893"},{"district":"Rancho Nuevo","districtType":"Ranchería","municipality":"Loreto","municipalityId":"009","city":"","cityId":"","state":"Baja California Sur","stateId":"03","stateCode":"BCS","zip":"23893"},{"district":"Poza Gonzalez","districtType":"Ranchería","municipality":"Loreto","municipalityId":"009","city":"","cityId":"","state":"Baja California Sur","stateId":"03","stateCode":"BCS","zip":"23893"},{"district":"La Higuera","districtType":"Ranchería","municipality":"Loreto","municipalityId":"009","city":"","cityId":"","state":"Baja California Sur","stateId":"03","stateCode":"BCS","zip":"23893"},{"district":"Agua Escondida","districtType":"Ranchería","municipality":"Loreto","municipalityId":"009","city":"","cityId":"","state":"Baja California Sur","stateId":"03","stateCode":"BCS","zip":"23893"},{"district":"Santa Rosa","districtType":"Ranchería","municipality":"Loreto","municipalityId":"009","city":"","cityId":"","state":"Baja California Sur","stateId":"03","stateCode":"BCS","zip":"23893"},{"district":"El Pasito","districtType":"Ranchería","municipality":"Loreto","municipalityId":"009","city":"","cityId":"","state":"Baja California Sur","stateId":"03","stateCode":"BCS","zip":"23893"},{"district":"San Angel","districtType":"Ranchería","municipality":"Loreto","municipalityId":"009","city":"","cityId":"","state":"Baja California Sur","stateId":"03","stateCode":"BCS","zip":"23893"},{"district":"Los Dolores","districtType":"Ranchería","municipality":"Loreto","municipalityId":"009","city":"","cityId":"","state":"Baja California Sur","stateId":"03","stateCode":"BCS","zip":"23893"},{"district":"Puerto Escondido","districtType":"Ranchería","municipality":"Loreto","municipalityId":"009","city":"","cityId":"","state":"Baja California Sur","stateId":"03","stateCode":"BCS","zip":"23894"},{"district":"Incha","districtType":"Ranchería","municipality":"Loreto","municipalityId":"009","city":"","cityId":"","state":"Baja California Sur","stateId":"03","stateCode":"BCS","zip":"23894"},{"district":"Restaurant Vista Al Mar","districtType":"Ranchería","municipality":"Loreto","municipalityId":"009","city":"","cityId":"","state":"Baja California Sur","stateId":"03","stateCode":"BCS","zip":"23894"},{"district":"El Saucito","districtType":"Ranchería","municipality":"Loreto","municipalityId":"009","city":"","cityId":"","state":"Baja California Sur","stateId":"03","stateCode":"BCS","zip":"23894"},{"district":"Juncalito","districtType":"Ranchería","municipality":"Loreto","municipalityId":"009","city":"","cityId":"","state":"Baja California Sur","stateId":"03","stateCode":"BCS","zip":"23894"},{"district":"Ligui","districtType":"Ranchería","municipality":"Loreto","municipalityId":"009","city":"","cityId":"","state":"Baja California Sur","stateId":"03","stateCode":"BCS","zip":"23895"},{"district":"El Palo Blanco","districtType":"Ranchería","municipality":"Loreto","municipalityId":"009","city":"","cityId":"","state":"Baja California Sur","stateId":"03","stateCode":"BCS","zip":"23895"},{"district":"Ensenada Blanca","districtType":"Ranchería","municipality":"Loreto","municipalityId":"009","city":"","cityId":"","state":"Baja California Sur","stateId":"03","stateCode":"BCS","zip":"23895"},{"district":"El Palmarcito","districtType":"Ranchería","municipality":"Loreto","municipalityId":"009","city":"","cityId":"","state":"Baja California Sur","stateId":"03","stateCode":"BCS","zip":"23895"},{"district":"La Angostura","districtType":"Ranchería","municipality":"Loreto","municipalityId":"009","city":"","cityId":"","state":"Baja California Sur","stateId":"03","stateCode":"BCS","zip":"23895"},{"district":"El Mezquite","districtType":"Ranchería","municipality":"Loreto","municipalityId":"009","city":"","cityId":"","state":"Baja California Sur","stateId":"03","stateCode":"BCS","zip":"23895"},{"district":"El Edén","districtType":"Ranchería","municipality":"Loreto","municipalityId":"009","city":"","cityId":"","state":"Baja California Sur","stateId":"03","stateCode":"BCS","zip":"23895"},{"district":"Poza Teresa","districtType":"Ranchería","municipality":"Loreto","municipalityId":"009","city":"","cityId":"","state":"Baja California Sur","stateId":"03","stateCode":"BCS","zip":"23895"},{"district":"Vuelta del Cerro","districtType":"Ranchería","municipality":"Loreto","municipalityId":"009","city":"","cityId":"","state":"Baja California Sur","stateId":"03","stateCode":"BCS","zip":"23895"},{"district":"Santa Inés","districtType":"Ranchería","municipality":"Loreto","municipalityId":"009","city":"","cityId":"","state":"Baja California Sur","stateId":"03","stateCode":"BCS","zip":"23895"},{"district":"La Altagracia","districtType":"Ranchería","municipality":"Loreto","municipalityId":"009","city":"","cityId":"","state":"Baja California Sur","stateId":"03","stateCode":"BCS","zip":"23895"},{"district":"Los Algodones","districtType":"Ranchería","municipality":"Loreto","municipalityId":"009","city":"","cityId":"","state":"Baja California Sur","stateId":"03","stateCode":"BCS","zip":"23895"},{"district":"San Lucas","districtType":"Ranchería","municipality":"Loreto","municipalityId":"009","city":"","cityId":"","state":"Baja California Sur","stateId":"03","stateCode":"BCS","zip":"23895"},{"district":"Los Corrales","districtType":"Ranchería","municipality":"Loreto","municipalityId":"009","city":"","cityId":"","state":"Baja California Sur","stateId":"03","stateCode":"BCS","zip":"23896"},{"district":"El Divisadero","districtType":"Ranchería","municipality":"Loreto","municipalityId":"009","city":"","cityId":"","state":"Baja California Sur","stateId":"03","stateCode":"BCS","zip":"23896"},{"district":"La Cruz","districtType":"Ranchería","municipality":"Loreto","municipalityId":"009","city":"","cityId":"","state":"Baja California Sur","stateId":"03","stateCode":"BCS","zip":"23896"},{"district":"Ultima Agua","districtType":"Ranchería","municipality":"Loreto","municipalityId":"009","city":"","cityId":"","state":"Baja California Sur","stateId":"03","stateCode":"BCS","zip":"23896"},{"district":"El Huatamote","districtType":"Ranchería","municipality":"Loreto","municipalityId":"009","city":"","cityId":"","state":"Baja California Sur","stateId":"03","stateCode":"BCS","zip":"23896"},{"district":"Puerta de La Engañosa","districtType":"Ranchería","municipality":"Loreto","municipalityId":"009","city":"","cityId":"","state":"Baja California Sur","stateId":"03","stateCode":"BCS","zip":"23896"},{"district":"El Carrizalito","districtType":"Ranchería","municipality":"Loreto","municipalityId":"009","city":"","cityId":"","state":"Baja California Sur","stateId":"03","stateCode":"BCS","zip":"23896"},{"district":"San Enrique","districtType":"Ranchería","municipality":"Loreto","municipalityId":"009","city":"","cityId":"","state":"Baja California Sur","stateId":"03","stateCode":"BCS","zip":"23896"},{"district":"Agua Amarga","districtType":"Ranchería","municipality":"Loreto","municipalityId":"009","city":"","cityId":"","state":"Baja California Sur","stateId":"03","stateCode":"BCS","zip":"23896"},{"district":"Los Sestiaderos","districtType":"Ranchería","municipality":"Loreto","municipalityId":"009","city":"","cityId":"","state":"Baja California Sur","stateId":"03","stateCode":"BCS","zip":"23896"},{"district":"La Puerta","districtType":"Ranchería","municipality":"Loreto","municipalityId":"009","city":"","cityId":"","state":"Baja California Sur","stateId":"03","stateCode":"BCS","zip":"23896"},{"district":"Rancho Viejo","districtType":"Ranchería","municipality":"Loreto","municipalityId":"009","city":"","cityId":"","state":"Baja California Sur","stateId":"03","stateCode":"BCS","zip":"23896"},{"district":"Poza Verde","districtType":"Ranchería","municipality":"Loreto","municipalityId":"009","city":"","cityId":"","state":"Baja California Sur","stateId":"03","stateCode":"BCS","zip":"23896"},{"district":"El Caracol","districtType":"Ranchería","municipality":"Loreto","municipalityId":"009","city":"","cityId":"","state":"Baja California Sur","stateId":"03","stateCode":"BCS","zip":"23896"},{"district":"El Gacho","districtType":"Ranchería","municipality":"Loreto","municipalityId":"009","city":"","cityId":"","state":"Baja California Sur","stateId":"03","stateCode":"BCS","zip":"23896"},{"district":"Poza Seca","districtType":"Ranchería","municipality":"Loreto","municipalityId":"009","city":"","cityId":"","state":"Baja California Sur","stateId":"03","stateCode":"BCS","zip":"23896"},{"district":"Santa Cruz","districtType":"Ranchería","municipality":"Loreto","municipalityId":"009","city":"","cityId":"","state":"Baja California Sur","stateId":"03","stateCode":"BCS","zip":"23896"},{"district":"La Engañosa","districtType":"Ranchería","municipality":"Loreto","municipalityId":"009","city":"","cityId":"","state":"Baja California Sur","stateId":"03","stateCode":"BCS","zip":"23896"},{"district":"Paso de Santa Cruz","districtType":"Ranchería","municipality":"Loreto","municipalityId":"009","city":"","cityId":"","state":"Baja California Sur","stateId":"03","stateCode":"BCS","zip":"23896"},{"district":"San Cosme","districtType":"Ranchería","municipality":"Loreto","municipalityId":"009","city":"","cityId":"","state":"Baja California Sur","stateId":"03","stateCode":"BCS","zip":"23896"},{"district":"Agua Verde","districtType":"Colonia","municipality":"Loreto","municipalityId":"009","city":"","cityId":"","state":"Baja California Sur","stateId":"03","stateCode":"BCS","zip":"23897"},{"district":"Puerto Agua Verde","districtType":"Ranchería","municipality":"Loreto","municipalityId":"009","city":"","cityId":"","state":"Baja California Sur","stateId":"03","stateCode":"BCS","zip":"23897"},{"district":"San Antonio de La Higuera","districtType":"Colonia","municipality":"Loreto","municipalityId":"009","city":"","cityId":"","state":"Baja California Sur","stateId":"03","stateCode":"BCS","zip":"23897"},{"district":"El Tulillo","districtType":"Ranchería","municipality":"Loreto","municipalityId":"009","city":"","cityId":"","state":"Baja California Sur","stateId":"03","stateCode":"BCS","zip":"23897"},{"district":"Santa Martha","districtType":"Ranchería","municipality":"Loreto","municipalityId":"009","city":"","cityId":"","state":"Baja California Sur","stateId":"03","stateCode":"BCS","zip":"23898"},{"district":"El Carrizalito","districtType":"Ranchería","municipality":"Loreto","municipalityId":"009","city":"","cityId":"","state":"Baja California Sur","stateId":"03","stateCode":"BCS","zip":"23898"},{"district":"Timbabichi","districtType":"Ranchería","municipality":"Loreto","municipalityId":"009","city":"","cityId":"","state":"Baja California Sur","stateId":"03","stateCode":"BCS","zip":"23898"},{"district":"San Carlos","districtType":"Colonia","municipality":"Loreto","municipalityId":"009","city":"","cityId":"","state":"Baja California Sur","stateId":"03","stateCode":"BCS","zip":"23898"},{"district":"Santo Domingo","districtType":"Ranchería","municipality":"Loreto","municipalityId":"009","city":"","cityId":"","state":"Baja California Sur","stateId":"03","stateCode":"BCS","zip":"23899"},{"district":"Heroica Mulegé Centro","districtType":"Colonia","municipality":"Mulegé","municipalityId":"002","city":"Heroica Mulegé","cityId":"08","state":"Baja California Sur","stateId":"03","stateCode":"BCS","zip":"23900"},{"district":"Buenos Aires","districtType":"Colonia","municipality":"Mulegé","municipalityId":"002","city":"Heroica Mulegé","cityId":"08","state":"Baja California Sur","stateId":"03","stateCode":"BCS","zip":"23900"},{"district":"Cananea","districtType":"Colonia","municipality":"Mulegé","municipalityId":"002","city":"Heroica Mulegé","cityId":"08","state":"Baja California Sur","stateId":"03","stateCode":"BCS","zip":"23900"},{"district":"La Calera","districtType":"Colonia","municipality":"Mulegé","municipalityId":"002","city":"Heroica Mulegé","cityId":"08","state":"Baja California Sur","stateId":"03","stateCode":"BCS","zip":"23900"},{"district":"Benavides","districtType":"Colonia","municipality":"Mulegé","municipalityId":"002","city":"Heroica Mulegé","cityId":"08","state":"Baja California Sur","stateId":"03","stateCode":"BCS","zip":"23900"},{"district":"El Rebaje","districtType":"Colonia","municipality":"Mulegé","municipalityId":"002","city":"Heroica Mulegé","cityId":"08","state":"Baja California Sur","stateId":"03","stateCode":"BCS","zip":"23900"},{"district":"Ranchería","districtType":"Colonia","municipality":"Mulegé","municipalityId":"002","city":"Heroica Mulegé","cityId":"08","state":"Baja California Sur","stateId":"03","stateCode":"BCS","zip":"23900"},{"district":"Loma Azul","districtType":"Colonia","municipality":"Mulegé","municipalityId":"002","city":"Heroica Mulegé","cityId":"08","state":"Baja California Sur","stateId":"03","stateCode":"BCS","zip":"23900"},{"district":"El Ranchito","districtType":"Ranchería","municipality":"Mulegé","municipalityId":"002","city":"Heroica Mulegé","cityId":"08","state":"Baja California Sur","stateId":"03","stateCode":"BCS","zip":"23900"},{"district":"El Cacheno","districtType":"Colonia","municipality":"Mulegé","municipalityId":"002","city":"Heroica Mulegé","cityId":"08","state":"Baja California Sur","stateId":"03","stateCode":"BCS","zip":"23900"},{"district":"Punta de Agua","districtType":"Colonia","municipality":"Mulegé","municipalityId":"002","city":"Heroica Mulegé","cityId":"08","state":"Baja California Sur","stateId":"03","stateCode":"BCS","zip":"23900"},{"district":"Tinajitas","districtType":"Colonia","municipality":"Mulegé","municipalityId":"002","city":"Heroica Mulegé","cityId":"08","state":"Baja California Sur","stateId":"03","stateCode":"BCS","zip":"23900"},{"district":"El Potrero","districtType":"Ranchería","municipality":"Mulegé","municipalityId":"002","city":"","cityId":"","state":"Baja California Sur","stateId":"03","stateCode":"BCS","zip":"23902"},{"district":"El Coyote","districtType":"Ranchería","municipality":"Mulegé","municipalityId":"002","city":"","cityId":"","state":"Baja California Sur","stateId":"03","stateCode":"BCS","zip":"23903"},{"district":"San Ignacio 2","districtType":"Ranchería","municipality":"Mulegé","municipalityId":"002","city":"","cityId":"","state":"Baja California Sur","stateId":"03","stateCode":"BCS","zip":"23904"},{"district":"San Nicolás","districtType":"Ranchería","municipality":"Mulegé","municipalityId":"002","city":"","cityId":"","state":"Baja California Sur","stateId":"03","stateCode":"BCS","zip":"23904"},{"district":"San Bruno","districtType":"Ejido","municipality":"Mulegé","municipalityId":"002","city":"","cityId":"","state":"Baja California Sur","stateId":"03","stateCode":"BCS","zip":"23910"},{"district":"Isla San Marcos","districtType":"Ranchería","municipality":"Mulegé","municipalityId":"002","city":"","cityId":"","state":"Baja California Sur","stateId":"03","stateCode":"BCS","zip":"23910"},{"district":"San José de Magdalena","districtType":"Congregación","municipality":"Mulegé","municipalityId":"002","city":"","cityId":"","state":"Baja California Sur","stateId":"03","stateCode":"BCS","zip":"23911"},{"district":"San Lucas","districtType":"Ejido","municipality":"Mulegé","municipalityId":"002","city":"","cityId":"","state":"Baja California Sur","stateId":"03","stateCode":"BCS","zip":"23911"},{"district":"Santa Águeda","districtType":"Poblado comunal","municipality":"Mulegé","municipalityId":"002","city":"","cityId":"","state":"Baja California Sur","stateId":"03","stateCode":"BCS","zip":"23911"},{"district":"Las Cuevitas","districtType":"Ranchería","municipality":"Mulegé","municipalityId":"002","city":"","cityId":"","state":"Baja California Sur","stateId":"03","stateCode":"BCS","zip":"23912"},{"district":"El Perdido","districtType":"Ranchería","municipality":"Mulegé","municipalityId":"002","city":"","cityId":"","state":"Baja California Sur","stateId":"03","stateCode":"BCS","zip":"23912"},{"district":"San Isidro","districtType":"Ranchería","municipality":"Mulegé","municipalityId":"002","city":"","cityId":"","state":"Baja California Sur","stateId":"03","stateCode":"BCS","zip":"23912"},{"district":"Santa Isabel del Boleo","districtType":"Ejido","municipality":"Mulegé","municipalityId":"002","city":"","cityId":"","state":"Baja California Sur","stateId":"03","stateCode":"BCS","zip":"23913"},{"district":"San Juan","districtType":"Barrio","municipality":"Mulegé","municipalityId":"002","city":"","cityId":"","state":"Baja California Sur","stateId":"03","stateCode":"BCS","zip":"23914"},{"district":"Las Tunas","districtType":"Poblado comunal","municipality":"Mulegé","municipalityId":"002","city":"","cityId":"","state":"Baja California Sur","stateId":"03","stateCode":"BCS","zip":"23914"},{"district":"La Angostura","districtType":"Ranchería","municipality":"Mulegé","municipalityId":"002","city":"","cityId":"","state":"Baja California Sur","stateId":"03","stateCode":"BCS","zip":"23915"},{"district":"El Dátil","districtType":"Ranchería","municipality":"Mulegé","municipalityId":"002","city":"","cityId":"","state":"Baja California Sur","stateId":"03","stateCode":"BCS","zip":"23916"},{"district":"San Bartolo","districtType":"Poblado comunal","municipality":"Mulegé","municipalityId":"002","city":"","cityId":"","state":"Baja California Sur","stateId":"03","stateCode":"BCS","zip":"23916"},{"district":"Jesús María","districtType":"Poblado comunal","municipality":"Mulegé","municipalityId":"002","city":"","cityId":"","state":"Baja California Sur","stateId":"03","stateCode":"BCS","zip":"23917"},{"district":"Hidalgo","districtType":"Colonia","municipality":"Mulegé","municipalityId":"002","city":"","cityId":"","state":"Baja California Sur","stateId":"03","stateCode":"BCS","zip":"23920"},{"district":"Nueva Santa Rosalía","districtType":"Colonia","municipality":"Mulegé","municipalityId":"002","city":"","cityId":"","state":"Baja California Sur","stateId":"03","stateCode":"BCS","zip":"23920"},{"district":"Bellavista","districtType":"Colonia","municipality":"Mulegé","municipalityId":"002","city":"","cityId":"","state":"Baja California Sur","stateId":"03","stateCode":"BCS","zip":"23920"},{"district":"Mesa Francia","districtType":"Colonia","municipality":"Mulegé","municipalityId":"002","city":"","cityId":"","state":"Baja California Sur","stateId":"03","stateCode":"BCS","zip":"23920"},{"district":"Costa Azul","districtType":"Colonia","municipality":"Mulegé","municipalityId":"002","city":"","cityId":"","state":"Baja California Sur","stateId":"03","stateCode":"BCS","zip":"23920"},{"district":"Nivel 50","districtType":"Barrio","municipality":"Mulegé","municipalityId":"002","city":"","cityId":"","state":"Baja California Sur","stateId":"03","stateCode":"BCS","zip":"23920"},{"district":"El Retiro","districtType":"Barrio","municipality":"Mulegé","municipalityId":"002","city":"","cityId":"","state":"Baja California Sur","stateId":"03","stateCode":"BCS","zip":"23920"},{"district":"La Villita","districtType":"Colonia","municipality":"Mulegé","municipalityId":"002","city":"","cityId":"","state":"Baja California Sur","stateId":"03","stateCode":"BCS","zip":"23920"},{"district":"Sarh","districtType":"Unidad habitacional","municipality":"Mulegé","municipalityId":"002","city":"","cityId":"","state":"Baja California Sur","stateId":"03","stateCode":"BCS","zip":"23920"},{"district":"Magisterial","districtType":"Colonia","municipality":"Mulegé","municipalityId":"002","city":"","cityId":"","state":"Baja California Sur","stateId":"03","stateCode":"BCS","zip":"23920"},{"district":"Mesa México","districtType":"Colonia","municipality":"Mulegé","municipalityId":"002","city":"","cityId":"","state":"Baja California Sur","stateId":"03","stateCode":"BCS","zip":"23920"},{"district":"Canadá","districtType":"Barrio","municipality":"Mulegé","municipalityId":"002","city":"","cityId":"","state":"Baja California Sur","stateId":"03","stateCode":"BCS","zip":"23920"},{"district":"Canastilla","districtType":"Colonia","municipality":"Mulegé","municipalityId":"002","city":"","cityId":"","state":"Baja California Sur","stateId":"03","stateCode":"BCS","zip":"23920"},{"district":"Centro","districtType":"Colonia","municipality":"Mulegé","municipalityId":"002","city":"","cityId":"","state":"Baja California Sur","stateId":"03","stateCode":"BCS","zip":"23920"},{"district":"Ranchería","districtType":"Colonia","municipality":"Mulegé","municipalityId":"002","city":"","cityId":"","state":"Baja California Sur","stateId":"03","stateCode":"BCS","zip":"23920"},{"district":"Cuauhtémoc","districtType":"Colonia","municipality":"Mulegé","municipalityId":"002","city":"","cityId":"","state":"Baja California Sur","stateId":"03","stateCode":"BCS","zip":"23920"},{"district":"Santa María","districtType":"Ranchería","municipality":"Mulegé","municipalityId":"002","city":"","cityId":"","state":"Baja California Sur","stateId":"03","stateCode":"BCS","zip":"23921"},{"district":"El Ranchito","districtType":"Barrio","municipality":"Mulegé","municipalityId":"002","city":"","cityId":"","state":"Baja California Sur","stateId":"03","stateCode":"BCS","zip":"23922"},{"district":"Lic Alfredo V Bonfil","districtType":"Ejido","municipality":"Mulegé","municipalityId":"002","city":"","cityId":"","state":"Baja California Sur","stateId":"03","stateCode":"BCS","zip":"23923"},{"district":"San Lino (paredones)","districtType":"Colonia","municipality":"Mulegé","municipalityId":"002","city":"","cityId":"","state":"Baja California Sur","stateId":"03","stateCode":"BCS","zip":"23924"},{"district":"San Sebastián","districtType":"Ranchería","municipality":"Mulegé","municipalityId":"002","city":"","cityId":"","state":"Baja California Sur","stateId":"03","stateCode":"BCS","zip":"23926"},{"district":"Laguna de San Ignacio","districtType":"Ranchería","municipality":"Mulegé","municipalityId":"002","city":"","cityId":"","state":"Baja California Sur","stateId":"03","stateCode":"BCS","zip":"23929"},{"district":"Guamúchil","districtType":"Colonia","municipality":"Mulegé","municipalityId":"002","city":"San Ignacio","cityId":"10","state":"Baja California Sur","stateId":"03","stateCode":"BCS","zip":"23930"},{"district":"Pueblo Nuevo","districtType":"Colonia","municipality":"Mulegé","municipalityId":"002","city":"San Ignacio","cityId":"10","state":"Baja California Sur","stateId":"03","stateCode":"BCS","zip":"23930"},{"district":"Chula Vista","districtType":"Colonia","municipality":"Mulegé","municipalityId":"002","city":"San Ignacio","cityId":"10","state":"Baja California Sur","stateId":"03","stateCode":"BCS","zip":"23930"},{"district":"San Ignacio Centro","districtType":"Colonia","municipality":"Mulegé","municipalityId":"002","city":"San Ignacio","cityId":"10","state":"Baja California Sur","stateId":"03","stateCode":"BCS","zip":"23930"},{"district":"San Benito","districtType":"Poblado comunal","municipality":"Mulegé","municipalityId":"002","city":"","cityId":"","state":"Baja California Sur","stateId":"03","stateCode":"BCS","zip":"23934"},{"district":"Gustavo Diaz Ordaz (Vizcaíno)","districtType":"Ejido","municipality":"Mulegé","municipalityId":"002","city":"","cityId":"","state":"Baja California Sur","stateId":"03","stateCode":"BCS","zip":"23935"},{"district":"Vizcaíno","districtType":"Ranchería","municipality":"Mulegé","municipalityId":"002","city":"","cityId":"","state":"Baja California Sur","stateId":"03","stateCode":"BCS","zip":"23935"},{"district":"Emiliano Zapata","districtType":"Ejido","municipality":"Mulegé","municipalityId":"002","city":"","cityId":"","state":"Baja California Sur","stateId":"03","stateCode":"BCS","zip":"23936"},{"district":"El Silencio","districtType":"Ranchería","municipality":"Mulegé","municipalityId":"002","city":"","cityId":"","state":"Baja California Sur","stateId":"03","stateCode":"BCS","zip":"23936"},{"district":"Leonel Cota Montaño","districtType":"Colonia","municipality":"Mulegé","municipalityId":"002","city":"Villa Alberto Andrés Alvarado Arámburo","cityId":"09","state":"Baja California Sur","stateId":"03","stateCode":"BCS","zip":"23938"},{"district":"Triky","districtType":"Colonia","municipality":"Mulegé","municipalityId":"002","city":"Villa Alberto Andrés Alvarado Arámburo","cityId":"09","state":"Baja California Sur","stateId":"03","stateCode":"BCS","zip":"23938"},{"district":"Nueva Oaxaca","districtType":"Colonia","municipality":"Mulegé","municipalityId":"002","city":"Villa Alberto Andrés Alvarado Arámburo","cityId":"09","state":"Baja California Sur","stateId":"03","stateCode":"BCS","zip":"23938"},{"district":"Benito Juárez","districtType":"Colonia","municipality":"Mulegé","municipalityId":"002","city":"Villa Alberto Andrés Alvarado Arámburo","cityId":"09","state":"Baja California Sur","stateId":"03","stateCode":"BCS","zip":"23938"},{"district":"Elizabeth","districtType":"Granja","municipality":"Mulegé","municipalityId":"002","city":"Villa Alberto Andrés Alvarado Arámburo","cityId":"09","state":"Baja California Sur","stateId":"03","stateCode":"BCS","zip":"23938"},{"district":"Magisterial","districtType":"Colonia","municipality":"Mulegé","municipalityId":"002","city":"Villa Alberto Andrés Alvarado Arámburo","cityId":"09","state":"Baja California Sur","stateId":"03","stateCode":"BCS","zip":"23938"},{"district":"Villa Alberto Alvarado Aramburo","districtType":"Colonia","municipality":"Mulegé","municipalityId":"002","city":"Villa Alberto Andrés Alvarado Arámburo","cityId":"09","state":"Baja California Sur","stateId":"03","stateCode":"BCS","zip":"23938"},{"district":"Guerrero Negro Centro","districtType":"Colonia","municipality":"Mulegé","municipalityId":"002","city":"Guerrero Negro","cityId":"11","state":"Baja California Sur","stateId":"03","stateCode":"BCS","zip":"23940"},{"district":"Libertad","districtType":"Colonia","municipality":"Mulegé","municipalityId":"002","city":"Guerrero Negro","cityId":"11","state":"Baja California Sur","stateId":"03","stateCode":"BCS","zip":"23940"},{"district":"INFONAVIT","districtType":"Colonia","municipality":"Mulegé","municipalityId":"002","city":"Guerrero Negro","cityId":"11","state":"Baja California Sur","stateId":"03","stateCode":"BCS","zip":"23940"},{"district":"FOVISSSTE","districtType":"Unidad habitacional","municipality":"Mulegé","municipalityId":"002","city":"Guerrero Negro","cityId":"11","state":"Baja California Sur","stateId":"03","stateCode":"BCS","zip":"23940"},{"district":"Loma Bonita","districtType":"Colonia","municipality":"Mulegé","municipalityId":"002","city":"Guerrero Negro","cityId":"11","state":"Baja California Sur","stateId":"03","stateCode":"BCS","zip":"23940"},{"district":"Nuevo INFONAVIT","districtType":"Colonia","municipality":"Mulegé","municipalityId":"002","city":"Guerrero Negro","cityId":"11","state":"Baja California Sur","stateId":"03","stateCode":"BCS","zip":"23940"},{"district":"Profesor Marcelo Rubio","districtType":"Colonia","municipality":"Mulegé","municipalityId":"002","city":"Guerrero Negro","cityId":"11","state":"Baja California Sur","stateId":"03","stateCode":"BCS","zip":"23940"},{"district":"Estado 30","districtType":"Colonia","municipality":"Mulegé","municipalityId":"002","city":"Guerrero Negro","cityId":"11","state":"Baja California Sur","stateId":"03","stateCode":"BCS","zip":"23940"},{"district":"Sector Caligas","districtType":"Fraccionamiento","municipality":"Mulegé","municipalityId":"002","city":"Guerrero Negro","cityId":"11","state":"Baja California Sur","stateId":"03","stateCode":"BCS","zip":"23940"},{"district":"El Dominó","districtType":"Barrio","municipality":"Mulegé","municipalityId":"002","city":"Guerrero Negro","cityId":"11","state":"Baja California Sur","stateId":"03","stateCode":"BCS","zip":"23940"},{"district":"Solidaridad","districtType":"Colonia","municipality":"Mulegé","municipalityId":"002","city":"Guerrero Negro","cityId":"11","state":"Baja California Sur","stateId":"03","stateCode":"BCS","zip":"23940"},{"district":"Laguneros","districtType":"Ejido","municipality":"Mulegé","municipalityId":"002","city":"Guerrero Negro","cityId":"11","state":"Baja California Sur","stateId":"03","stateCode":"BCS","zip":"23940"},{"district":"Benito Juárez","districtType":"Colonia","municipality":"Mulegé","municipalityId":"002","city":"","cityId":"","state":"Baja California Sur","stateId":"03","stateCode":"BCS","zip":"23944"},{"district":"El Arco","districtType":"Ranchería","municipality":"Mulegé","municipalityId":"002","city":"","cityId":"","state":"Baja California Sur","stateId":"03","stateCode":"BCS","zip":"23945"},{"district":"Gustavo Diaz Ordaz II Etapa (rancho La Joya)","districtType":"Ranchería","municipality":"Mulegé","municipalityId":"002","city":"","cityId":"","state":"Baja California Sur","stateId":"03","stateCode":"BCS","zip":"23948"},{"district":"Francisco J Mújica","districtType":"Colonia","municipality":"Mulegé","municipalityId":"002","city":"","cityId":"","state":"Baja California Sur","stateId":"03","stateCode":"BCS","zip":"23949"},{"district":"Bahía Tortugas Sur","districtType":"Congregación","municipality":"Mulegé","municipalityId":"002","city":"","cityId":"","state":"Baja California Sur","stateId":"03","stateCode":"BCS","zip":"23950"},{"district":"Isla Natividad","districtType":"Ranchería","municipality":"Mulegé","municipalityId":"002","city":"","cityId":"","state":"Baja California Sur","stateId":"03","stateCode":"BCS","zip":"23951"},{"district":"Punta Eugenia","districtType":"Ranchería","municipality":"Mulegé","municipalityId":"002","city":"","cityId":"","state":"Baja California Sur","stateId":"03","stateCode":"BCS","zip":"23952"},{"district":"San José de Castro","districtType":"Ranchería","municipality":"Mulegé","municipalityId":"002","city":"","cityId":"","state":"Baja California Sur","stateId":"03","stateCode":"BCS","zip":"23959"},{"district":"Bahía Asunción","districtType":"Ranchería","municipality":"Mulegé","municipalityId":"002","city":"","cityId":"","state":"Baja California Sur","stateId":"03","stateCode":"BCS","zip":"23960"},{"district":"San Roque","districtType":"Ranchería","municipality":"Mulegé","municipalityId":"002","city":"","cityId":"","state":"Baja California Sur","stateId":"03","stateCode":"BCS","zip":"23969"},{"district":"Punta Abreojos","districtType":"Pueblo","municipality":"Mulegé","municipalityId":"002","city":"","cityId":"","state":"Baja California Sur","stateId":"03","stateCode":"BCS","zip":"23970"},{"district":"Punta Prieta","districtType":"Ranchería","municipality":"Mulegé","municipalityId":"002","city":"","cityId":"","state":"Baja California Sur","stateId":"03","stateCode":"BCS","zip":"23971"},{"district":"San Hipólito Bahía","districtType":"Ranchería","municipality":"Mulegé","municipalityId":"002","city":"","cityId":"","state":"Baja California Sur","stateId":"03","stateCode":"BCS","zip":"23972"},{"district":"La Bocana","districtType":"Pueblo","municipality":"Mulegé","municipalityId":"002","city":"","cityId":"","state":"Baja California Sur","stateId":"03","stateCode":"BCS","zip":"23973"},{"district":"Las Margaritas (el Piloto)","districtType":"Ranchería","municipality":"Mulegé","municipalityId":"002","city":"","cityId":"","state":"Baja California Sur","stateId":"03","stateCode":"BCS","zip":"23975"},{"district":"Guadalupe","districtType":"Ranchería","municipality":"Mulegé","municipalityId":"002","city":"","cityId":"","state":"Baja California Sur","stateId":"03","stateCode":"BCS","zip":"23980"},{"district":"Guillermo Prieto","districtType":"Ranchería","municipality":"Mulegé","municipalityId":"002","city":"","cityId":"","state":"Baja California Sur","stateId":"03","stateCode":"BCS","zip":"23983"},{"district":"San Francisco de la Sierra","districtType":"Ranchería","municipality":"Mulegé","municipalityId":"002","city":"","cityId":"","state":"Baja California Sur","stateId":"03","stateCode":"BCS","zip":"23988"},{"district":"El Carricito","districtType":"Ranchería","municipality":"Mulegé","municipalityId":"002","city":"","cityId":"","state":"Baja California Sur","stateId":"03","stateCode":"BCS","zip":"23990"},{"district":"Los Angeles","districtType":"Ranchería","municipality":"Mulegé","municipalityId":"002","city":"","cityId":"","state":"Baja California Sur","stateId":"03","stateCode":"BCS","zip":"23995"},{"district":"El Mezquital 1","districtType":"Ranchería","municipality":"Mulegé","municipalityId":"002","city":"","cityId":"","state":"Baja California Sur","stateId":"03","stateCode":"BCS","zip":"23997"}]