[{"district":"Colima Centro","districtType":"Colonia","municipality":"Colima","municipalityId":"002","city":"Colima","cityId":"01","state":"Colima","stateId":"06","stateCode":"COL","zip":"28000"},{"district":"El Diezmo","districtType":"Colonia","municipality":"Colima","municipalityId":"002","city":"Colima","cityId":"01","state":"Colima","stateId":"06","stateCode":"COL","zip":"28010"},{"district":"Lomas de Circunvalación","districtType":"Colonia","municipality":"Colima","municipalityId":"002","city":"Colima","cityId":"01","state":"Colima","stateId":"06","stateCode":"COL","zip":"28010"},{"district":"ISSSTE Lomas","districtType":"Unidad habitacional","municipality":"Colima","municipalityId":"002","city":"Colima","cityId":"01","state":"Colima","stateId":"06","stateCode":"COL","zip":"28012"},{"district":"Jardines de las Lomas","districtType":"Colonia","municipality":"Colima","municipalityId":"002","city":"Colima","cityId":"01","state":"Colima","stateId":"06","stateCode":"COL","zip":"28014"},{"district":"Lomas Vistahermosa","districtType":"Colonia","municipality":"Colima","municipalityId":"002","city":"Colima","cityId":"01","state":"Colima","stateId":"06","stateCode":"COL","zip":"28016"},{"district":"Villas Colinas","districtType":"Condominio","municipality":"Colima","municipalityId":"002","city":"Colima","cityId":"01","state":"Colima","stateId":"06","stateCode":"COL","zip":"28017"},{"district":"Residencial Victoria","districtType":"Fraccionamiento","municipality":"Colima","municipalityId":"002","city":"Colima","cityId":"01","state":"Colima","stateId":"06","stateCode":"COL","zip":"28017"},{"district":"Jardines Vista Hermosa","districtType":"Colonia","municipality":"Colima","municipalityId":"002","city":"Colima","cityId":"01","state":"Colima","stateId":"06","stateCode":"COL","zip":"28017"},{"district":"Residencial Puerta del Sol","districtType":"Fraccionamiento","municipality":"Colima","municipalityId":"002","city":"Colima","cityId":"01","state":"Colima","stateId":"06","stateCode":"COL","zip":"28017"},{"district":"Residencial Esmeralda Norte","districtType":"Colonia","municipality":"Colima","municipalityId":"002","city":"Colima","cityId":"01","state":"Colima","stateId":"06","stateCode":"COL","zip":"28017"},{"district":"Privada San Rafael","districtType":"Fraccionamiento","municipality":"Colima","municipalityId":"002","city":"Colima","cityId":"01","state":"Colima","stateId":"06","stateCode":"COL","zip":"28017"},{"district":"Jardines de La Hacienda","districtType":"Colonia","municipality":"Colima","municipalityId":"002","city":"Colima","cityId":"01","state":"Colima","stateId":"06","stateCode":"COL","zip":"28017"},{"district":"Colinas de Santa Fe","districtType":"Fraccionamiento","municipality":"Colima","municipalityId":"002","city":"Colima","cityId":"01","state":"Colima","stateId":"06","stateCode":"COL","zip":"28017"},{"district":"Parque Royal","districtType":"Colonia","municipality":"Colima","municipalityId":"002","city":"Colima","cityId":"01","state":"Colima","stateId":"06","stateCode":"COL","zip":"28017"},{"district":"Residencial Santa Bárbara","districtType":"Colonia","municipality":"Colima","municipalityId":"002","city":"Colima","cityId":"01","state":"Colima","stateId":"06","stateCode":"COL","zip":"28017"},{"district":"Residencial Los Olivos","districtType":"Fraccionamiento","municipality":"Colima","municipalityId":"002","city":"Colima","cityId":"01","state":"Colima","stateId":"06","stateCode":"COL","zip":"28017"},{"district":"Lomas Verdes","districtType":"Colonia","municipality":"Colima","municipalityId":"002","city":"Colima","cityId":"01","state":"Colima","stateId":"06","stateCode":"COL","zip":"28017"},{"district":"Recidencial Esmeralda","districtType":"Fraccionamiento","municipality":"Colima","municipalityId":"002","city":"Colima","cityId":"01","state":"Colima","stateId":"06","stateCode":"COL","zip":"28017"},{"district":"Colinas de Santa Bárbara","districtType":"Colonia","municipality":"Colima","municipalityId":"002","city":"Colima","cityId":"01","state":"Colima","stateId":"06","stateCode":"COL","zip":"28017"},{"district":"Las Palmas","districtType":"Colonia","municipality":"Colima","municipalityId":"002","city":"Colima","cityId":"01","state":"Colima","stateId":"06","stateCode":"COL","zip":"28017"},{"district":"Paseo de la Hacienda","districtType":"Fraccionamiento","municipality":"Colima","municipalityId":"002","city":"Colima","cityId":"01","state":"Colima","stateId":"06","stateCode":"COL","zip":"28017"},{"district":"Santa Gertrudis","districtType":"Fraccionamiento","municipality":"Colima","municipalityId":"002","city":"Colima","cityId":"01","state":"Colima","stateId":"06","stateCode":"COL","zip":"28017"},{"district":"Bugambilias","districtType":"Condominio","municipality":"Colima","municipalityId":"002","city":"Colima","cityId":"01","state":"Colima","stateId":"06","stateCode":"COL","zip":"28017"},{"district":"Villanova","districtType":"Fraccionamiento","municipality":"Colima","municipalityId":"002","city":"Colima","cityId":"01","state":"Colima","stateId":"06","stateCode":"COL","zip":"28017"},{"district":"Residencial Real Santa Bárbara","districtType":"Fraccionamiento","municipality":"Colima","municipalityId":"002","city":"Colima","cityId":"01","state":"Colima","stateId":"06","stateCode":"COL","zip":"28017"},{"district":"Paseo de la Cantera","districtType":"Fraccionamiento","municipality":"Colima","municipalityId":"002","city":"Colima","cityId":"01","state":"Colima","stateId":"06","stateCode":"COL","zip":"28017"},{"district":"Puerta Paraíso","districtType":"Colonia","municipality":"Colima","municipalityId":"002","city":"Colima","cityId":"01","state":"Colima","stateId":"06","stateCode":"COL","zip":"28018"},{"district":"Real Vista Hermosa","districtType":"Colonia","municipality":"Colima","municipalityId":"002","city":"Colima","cityId":"01","state":"Colima","stateId":"06","stateCode":"COL","zip":"28018"},{"district":"La Cantera","districtType":"Fraccionamiento","municipality":"Colima","municipalityId":"002","city":"Colima","cityId":"01","state":"Colima","stateId":"06","stateCode":"COL","zip":"28018"},{"district":"Residencial Santa María","districtType":"Fraccionamiento","municipality":"Colima","municipalityId":"002","city":"Colima","cityId":"01","state":"Colima","stateId":"06","stateCode":"COL","zip":"28018"},{"district":"Valle Dorado","districtType":"Colonia","municipality":"Colima","municipalityId":"002","city":"Colima","cityId":"01","state":"Colima","stateId":"06","stateCode":"COL","zip":"28018"},{"district":"Girasoles","districtType":"Colonia","municipality":"Colima","municipalityId":"002","city":"Colima","cityId":"01","state":"Colima","stateId":"06","stateCode":"COL","zip":"28018"},{"district":"Las Pérgolas","districtType":"Fraccionamiento","municipality":"Colima","municipalityId":"002","city":"Colima","cityId":"01","state":"Colima","stateId":"06","stateCode":"COL","zip":"28018"},{"district":"Hacienda Real","districtType":"Fraccionamiento","municipality":"Colima","municipalityId":"002","city":"Colima","cityId":"01","state":"Colima","stateId":"06","stateCode":"COL","zip":"28018"},{"district":"Real Vista Hermosa III","districtType":"Colonia","municipality":"Colima","municipalityId":"002","city":"Colima","cityId":"01","state":"Colima","stateId":"06","stateCode":"COL","zip":"28018"},{"district":"El Porvenir","districtType":"Colonia","municipality":"Colima","municipalityId":"002","city":"Colima","cityId":"01","state":"Colima","stateId":"06","stateCode":"COL","zip":"28019"},{"district":"La Armonía","districtType":"Colonia","municipality":"Colima","municipalityId":"002","city":"Colima","cityId":"01","state":"Colima","stateId":"06","stateCode":"COL","zip":"28020"},{"district":"Jardines de Guadalupe","districtType":"Colonia","municipality":"Colima","municipalityId":"002","city":"Colima","cityId":"01","state":"Colima","stateId":"06","stateCode":"COL","zip":"28023"},{"district":"Niños Héroes","districtType":"Colonia","municipality":"Colima","municipalityId":"002","city":"Colima","cityId":"01","state":"Colima","stateId":"06","stateCode":"COL","zip":"28025"},{"district":"Villa los Prados","districtType":"Colonia","municipality":"Colima","municipalityId":"002","city":"Colima","cityId":"01","state":"Colima","stateId":"06","stateCode":"COL","zip":"28025"},{"district":"Jardines de La Corregidora","districtType":"Colonia","municipality":"Colima","municipalityId":"002","city":"Colima","cityId":"01","state":"Colima","stateId":"06","stateCode":"COL","zip":"28030"},{"district":"Magisterial","districtType":"Colonia","municipality":"Colima","municipalityId":"002","city":"Colima","cityId":"01","state":"Colima","stateId":"06","stateCode":"COL","zip":"28030"},{"district":"Guadalajarita","districtType":"Colonia","municipality":"Colima","municipalityId":"002","city":"Colima","cityId":"01","state":"Colima","stateId":"06","stateCode":"COL","zip":"28030"},{"district":"Militar Lomas","districtType":"Colonia","municipality":"Colima","municipalityId":"002","city":"Colima","cityId":"01","state":"Colima","stateId":"06","stateCode":"COL","zip":"28030"},{"district":"Jardines Residenciales","districtType":"Colonia","municipality":"Colima","municipalityId":"002","city":"Colima","cityId":"01","state":"Colima","stateId":"06","stateCode":"COL","zip":"28030"},{"district":"Morelos","districtType":"Colonia","municipality":"Colima","municipalityId":"002","city":"Colima","cityId":"01","state":"Colima","stateId":"06","stateCode":"COL","zip":"28030"},{"district":"Huertas del Sol","districtType":"Colonia","municipality":"Colima","municipalityId":"002","city":"Colima","cityId":"01","state":"Colima","stateId":"06","stateCode":"COL","zip":"28035"},{"district":"Hidalgo","districtType":"Colonia","municipality":"Colima","municipalityId":"002","city":"Colima","cityId":"01","state":"Colima","stateId":"06","stateCode":"COL","zip":"28037"},{"district":"Burócratas Municipales","districtType":"Colonia","municipality":"Colima","municipalityId":"002","city":"Colima","cityId":"01","state":"Colima","stateId":"06","stateCode":"COL","zip":"28040"},{"district":"INFONAVIT La Estancia","districtType":"Colonia","municipality":"Colima","municipalityId":"002","city":"Colima","cityId":"01","state":"Colima","stateId":"06","stateCode":"COL","zip":"28040"},{"district":"Camino Real","districtType":"Colonia","municipality":"Colima","municipalityId":"002","city":"Colima","cityId":"01","state":"Colima","stateId":"06","stateCode":"COL","zip":"28040"},{"district":"Las Víboras","districtType":"Colonia","municipality":"Colima","municipalityId":"002","city":"Colima","cityId":"01","state":"Colima","stateId":"06","stateCode":"COL","zip":"28040"},{"district":"INFONAVIT Camino Real","districtType":"Colonia","municipality":"Colima","municipalityId":"002","city":"Colima","cityId":"01","state":"Colima","stateId":"06","stateCode":"COL","zip":"28043"},{"district":"FOVISSSTE","districtType":"Unidad habitacional","municipality":"Colima","municipalityId":"002","city":"Colima","cityId":"01","state":"Colima","stateId":"06","stateCode":"COL","zip":"28044"},{"district":"Villa San Sebastián","districtType":"Colonia","municipality":"Colima","municipalityId":"002","city":"Colima","cityId":"01","state":"Colima","stateId":"06","stateCode":"COL","zip":"28045"},{"district":"Oriental","districtType":"Colonia","municipality":"Colima","municipalityId":"002","city":"Colima","cityId":"01","state":"Colima","stateId":"06","stateCode":"COL","zip":"28046"},{"district":"Jardines de La Estancia","districtType":"Colonia","municipality":"Colima","municipalityId":"002","city":"Colima","cityId":"01","state":"Colima","stateId":"06","stateCode":"COL","zip":"28047"},{"district":"Unidad Antorchista","districtType":"Colonia","municipality":"Colima","municipalityId":"002","city":"Colima","cityId":"01","state":"Colima","stateId":"06","stateCode":"COL","zip":"28047"},{"district":"Andares del Jazmín","districtType":"Fraccionamiento","municipality":"Colima","municipalityId":"002","city":"Colima","cityId":"01","state":"Colima","stateId":"06","stateCode":"COL","zip":"28047"},{"district":"Lázaro Cárdenas","districtType":"Colonia","municipality":"Colima","municipalityId":"002","city":"Colima","cityId":"01","state":"Colima","stateId":"06","stateCode":"COL","zip":"28047"},{"district":"Las Torres","districtType":"Colonia","municipality":"Colima","municipalityId":"002","city":"Colima","cityId":"01","state":"Colima","stateId":"06","stateCode":"COL","zip":"28047"},{"district":"Diamantes","districtType":"Fraccionamiento","municipality":"Colima","municipalityId":"002","city":"Colima","cityId":"01","state":"Colima","stateId":"06","stateCode":"COL","zip":"28047"},{"district":"Villa de los Pinos","districtType":"Fraccionamiento","municipality":"Colima","municipalityId":"002","city":"Colima","cityId":"01","state":"Colima","stateId":"06","stateCode":"COL","zip":"28047"},{"district":"Camino Real","districtType":"Colonia","municipality":"Colima","municipalityId":"002","city":"Colima","cityId":"01","state":"Colima","stateId":"06","stateCode":"COL","zip":"28047"},{"district":"Josefa Ortiz de Domínguez","districtType":"Colonia","municipality":"Colima","municipalityId":"002","city":"Colima","cityId":"01","state":"Colima","stateId":"06","stateCode":"COL","zip":"28047"},{"district":"La Virgencita","districtType":"Colonia","municipality":"Colima","municipalityId":"002","city":"Colima","cityId":"01","state":"Colima","stateId":"06","stateCode":"COL","zip":"28047"},{"district":"El Mirador de Colima","districtType":"Fraccionamiento","municipality":"Colima","municipalityId":"002","city":"Colima","cityId":"01","state":"Colima","stateId":"06","stateCode":"COL","zip":"28047"},{"district":"Lomas de Santa Elena","districtType":"Fraccionamiento","municipality":"Colima","municipalityId":"002","city":"Colima","cityId":"01","state":"Colima","stateId":"06","stateCode":"COL","zip":"28047"},{"district":"Francisco I Madero","districtType":"Colonia","municipality":"Colima","municipalityId":"002","city":"Colima","cityId":"01","state":"Colima","stateId":"06","stateCode":"COL","zip":"28047"},{"district":"Luis Donaldo Colosio","districtType":"Colonia","municipality":"Colima","municipalityId":"002","city":"Colima","cityId":"01","state":"Colima","stateId":"06","stateCode":"COL","zip":"28047"},{"district":"Los Pinos","districtType":"Colonia","municipality":"Colima","municipalityId":"002","city":"Colima","cityId":"01","state":"Colima","stateId":"06","stateCode":"COL","zip":"28047"},{"district":"Revolución","districtType":"Colonia","municipality":"Colima","municipalityId":"002","city":"Colima","cityId":"01","state":"Colima","stateId":"06","stateCode":"COL","zip":"28047"},{"district":"San José Norte","districtType":"Colonia","municipality":"Colima","municipalityId":"002","city":"Colima","cityId":"01","state":"Colima","stateId":"06","stateCode":"COL","zip":"28047"},{"district":"Pablo Silva García","districtType":"Colonia","municipality":"Colima","municipalityId":"002","city":"Colima","cityId":"01","state":"Colima","stateId":"06","stateCode":"COL","zip":"28047"},{"district":"Santa Elena","districtType":"Colonia","municipality":"Colima","municipalityId":"002","city":"Colima","cityId":"01","state":"Colima","stateId":"06","stateCode":"COL","zip":"28047"},{"district":"Margaritas","districtType":"Fraccionamiento","municipality":"Colima","municipalityId":"002","city":"Colima","cityId":"01","state":"Colima","stateId":"06","stateCode":"COL","zip":"28047"},{"district":"El Pedregal","districtType":"Colonia","municipality":"Colima","municipalityId":"002","city":"Colima","cityId":"01","state":"Colima","stateId":"06","stateCode":"COL","zip":"28048"},{"district":"Moctezuma","districtType":"Colonia","municipality":"Colima","municipalityId":"002","city":"Colima","cityId":"01","state":"Colima","stateId":"06","stateCode":"COL","zip":"28048"},{"district":"Mirador de La Cumbre II","districtType":"Colonia","municipality":"Colima","municipalityId":"002","city":"Colima","cityId":"01","state":"Colima","stateId":"06","stateCode":"COL","zip":"28048"},{"district":"Mirador de La Cumbre III","districtType":"Colonia","municipality":"Colima","municipalityId":"002","city":"Colima","cityId":"01","state":"Colima","stateId":"06","stateCode":"COL","zip":"28048"},{"district":"Jardines del Sol","districtType":"Colonia","municipality":"Colima","municipalityId":"002","city":"Colima","cityId":"01","state":"Colima","stateId":"06","stateCode":"COL","zip":"28048"},{"district":"Insurgentes","districtType":"Colonia","municipality":"Colima","municipalityId":"002","city":"Colima","cityId":"01","state":"Colima","stateId":"06","stateCode":"COL","zip":"28048"},{"district":"La Estancia","districtType":"Colonia","municipality":"Colima","municipalityId":"002","city":"Colima","cityId":"01","state":"Colima","stateId":"06","stateCode":"COL","zip":"28048"},{"district":"Nuevo Paraíso","districtType":"Colonia","municipality":"Colima","municipalityId":"002","city":"Colima","cityId":"01","state":"Colima","stateId":"06","stateCode":"COL","zip":"28048"},{"district":"San José Sur","districtType":"Colonia","municipality":"Colima","municipalityId":"002","city":"Colima","cityId":"01","state":"Colima","stateId":"06","stateCode":"COL","zip":"28048"},{"district":"Santa Amalia","districtType":"Colonia","municipality":"Colima","municipalityId":"002","city":"Colima","cityId":"01","state":"Colima","stateId":"06","stateCode":"COL","zip":"28048"},{"district":"Los Ángeles","districtType":"Colonia","municipality":"Colima","municipalityId":"002","city":"Colima","cityId":"01","state":"Colima","stateId":"06","stateCode":"COL","zip":"28048"},{"district":"San Rafael","districtType":"Colonia","municipality":"Colima","municipalityId":"002","city":"Colima","cityId":"01","state":"Colima","stateId":"06","stateCode":"COL","zip":"28048"},{"district":"Cuauhtémoc","districtType":"Colonia","municipality":"Colima","municipalityId":"002","city":"Colima","cityId":"01","state":"Colima","stateId":"06","stateCode":"COL","zip":"28048"},{"district":"Nuevo Milenio","districtType":"Colonia","municipality":"Colima","municipalityId":"002","city":"Colima","cityId":"01","state":"Colima","stateId":"06","stateCode":"COL","zip":"28048"},{"district":"Mirador de La Cumbre","districtType":"Colonia","municipality":"Colima","municipalityId":"002","city":"Colima","cityId":"01","state":"Colima","stateId":"06","stateCode":"COL","zip":"28048"},{"district":"Los Jazmines","districtType":"Colonia","municipality":"Colima","municipalityId":"002","city":"Colima","cityId":"01","state":"Colima","stateId":"06","stateCode":"COL","zip":"28048"},{"district":"Vicente Guerrero","districtType":"Colonia","municipality":"Colima","municipalityId":"002","city":"Colima","cityId":"01","state":"Colima","stateId":"06","stateCode":"COL","zip":"28048"},{"district":"La Guadalupe","districtType":"Colonia","municipality":"Colima","municipalityId":"002","city":"Colima","cityId":"01","state":"Colima","stateId":"06","stateCode":"COL","zip":"28048"},{"district":"Paraíso","districtType":"Colonia","municipality":"Colima","municipalityId":"002","city":"Colima","cityId":"01","state":"Colima","stateId":"06","stateCode":"COL","zip":"28048"},{"district":"Gustavo Vázquez Montes","districtType":"Colonia","municipality":"Colima","municipalityId":"002","city":"Colima","cityId":"01","state":"Colima","stateId":"06","stateCode":"COL","zip":"28048"},{"district":"Ignacio Zaragoza","districtType":"Colonia","municipality":"Colima","municipalityId":"002","city":"Colima","cityId":"01","state":"Colima","stateId":"06","stateCode":"COL","zip":"28048"},{"district":"Fátima","districtType":"Colonia","municipality":"Colima","municipalityId":"002","city":"Colima","cityId":"01","state":"Colima","stateId":"06","stateCode":"COL","zip":"28050"},{"district":"Rincón del Bosque","districtType":"Colonia","municipality":"Colima","municipalityId":"002","city":"Colima","cityId":"01","state":"Colima","stateId":"06","stateCode":"COL","zip":"28050"},{"district":"Placetas Estadio","districtType":"Colonia","municipality":"Colima","municipalityId":"002","city":"Colima","cityId":"01","state":"Colima","stateId":"06","stateCode":"COL","zip":"28050"},{"district":"Villas Primaveras","districtType":"Colonia","municipality":"Colima","municipalityId":"002","city":"Colima","cityId":"01","state":"Colima","stateId":"06","stateCode":"COL","zip":"28050"},{"district":"Privada San Francisco","districtType":"Fraccionamiento","municipality":"Colima","municipalityId":"002","city":"Colima","cityId":"01","state":"Colima","stateId":"06","stateCode":"COL","zip":"28050"},{"district":"Villas del Bosque","districtType":"Colonia","municipality":"Colima","municipalityId":"002","city":"Colima","cityId":"01","state":"Colima","stateId":"06","stateCode":"COL","zip":"28050"},{"district":"Residencial San Pablo","districtType":"Fraccionamiento","municipality":"Colima","municipalityId":"002","city":"Colima","cityId":"01","state":"Colima","stateId":"06","stateCode":"COL","zip":"28060"},{"district":"El Moralete","districtType":"Colonia","municipality":"Colima","municipalityId":"002","city":"Colima","cityId":"01","state":"Colima","stateId":"06","stateCode":"COL","zip":"28060"},{"district":"Francisco Villa","districtType":"Colonia","municipality":"Colima","municipalityId":"002","city":"Colima","cityId":"01","state":"Colima","stateId":"06","stateCode":"COL","zip":"28063"},{"district":"Las Haciendas","districtType":"Fraccionamiento","municipality":"Colima","municipalityId":"002","city":"Colima","cityId":"01","state":"Colima","stateId":"06","stateCode":"COL","zip":"28063"},{"district":"Los Volcanes","districtType":"Colonia","municipality":"Colima","municipalityId":"002","city":"Colima","cityId":"01","state":"Colima","stateId":"06","stateCode":"COL","zip":"28063"},{"district":"Rinconada San Pablo","districtType":"Colonia","municipality":"Colima","municipalityId":"002","city":"Colima","cityId":"01","state":"Colima","stateId":"06","stateCode":"COL","zip":"28063"},{"district":"San Carlos","districtType":"Colonia","municipality":"Colima","municipalityId":"002","city":"Colima","cityId":"01","state":"Colima","stateId":"06","stateCode":"COL","zip":"28063"},{"district":"Santa Gertrudis","districtType":"Colonia","municipality":"Colima","municipalityId":"002","city":"Colima","cityId":"01","state":"Colima","stateId":"06","stateCode":"COL","zip":"28063"},{"district":"De los Trabajadores","districtType":"Colonia","municipality":"Colima","municipalityId":"002","city":"Colima","cityId":"01","state":"Colima","stateId":"06","stateCode":"COL","zip":"28067"},{"district":"Villa Verde","districtType":"Colonia","municipality":"Colima","municipalityId":"002","city":"Colima","cityId":"01","state":"Colima","stateId":"06","stateCode":"COL","zip":"28068"},{"district":"Los Viveros","districtType":"Colonia","municipality":"Colima","municipalityId":"002","city":"Colima","cityId":"01","state":"Colima","stateId":"06","stateCode":"COL","zip":"28070"},{"district":"Del Periodista","districtType":"Colonia","municipality":"Colima","municipalityId":"002","city":"Colima","cityId":"01","state":"Colima","stateId":"06","stateCode":"COL","zip":"28070"},{"district":"Popular","districtType":"Colonia","municipality":"Colima","municipalityId":"002","city":"Colima","cityId":"01","state":"Colima","stateId":"06","stateCode":"COL","zip":"28070"},{"district":"Benito Juárez","districtType":"Colonia","municipality":"Colima","municipalityId":"002","city":"Colima","cityId":"01","state":"Colima","stateId":"06","stateCode":"COL","zip":"28070"},{"district":"Parque Industrial","districtType":"Zona industrial","municipality":"Colima","municipalityId":"002","city":"Colima","cityId":"01","state":"Colima","stateId":"06","stateCode":"COL","zip":"28075"},{"district":"José Pimentel Llerenas","districtType":"Colonia","municipality":"Colima","municipalityId":"002","city":"Colima","cityId":"01","state":"Colima","stateId":"06","stateCode":"COL","zip":"28077"},{"district":"Rincanada de Pereyra","districtType":"Fraccionamiento","municipality":"Colima","municipalityId":"002","city":"Colima","cityId":"01","state":"Colima","stateId":"06","stateCode":"COL","zip":"28077"},{"district":"Arboledas","districtType":"Colonia","municipality":"Colima","municipalityId":"002","city":"Colima","cityId":"01","state":"Colima","stateId":"06","stateCode":"COL","zip":"28077"},{"district":"La Rivera","districtType":"Colonia","municipality":"Colima","municipalityId":"002","city":"Colima","cityId":"01","state":"Colima","stateId":"06","stateCode":"COL","zip":"28078"},{"district":"El Yaqui","districtType":"Fraccionamiento","municipality":"Colima","municipalityId":"002","city":"Colima","cityId":"01","state":"Colima","stateId":"06","stateCode":"COL","zip":"28078"},{"district":"Real de Don Juan","districtType":"Fraccionamiento","municipality":"Colima","municipalityId":"002","city":"Colima","cityId":"01","state":"Colima","stateId":"06","stateCode":"COL","zip":"28078"},{"district":"Valle Real","districtType":"Fraccionamiento","municipality":"Colima","municipalityId":"002","city":"Colima","cityId":"01","state":"Colima","stateId":"06","stateCode":"COL","zip":"28078"},{"district":"La Albarrada","districtType":"Colonia","municipality":"Colima","municipalityId":"002","city":"Colima","cityId":"01","state":"Colima","stateId":"06","stateCode":"COL","zip":"28078"},{"district":"Arboledas de La Hacienda","districtType":"Colonia","municipality":"Colima","municipalityId":"002","city":"Colima","cityId":"01","state":"Colima","stateId":"06","stateCode":"COL","zip":"28078"},{"district":"El Prado","districtType":"Fraccionamiento","municipality":"Colima","municipalityId":"002","city":"Colima","cityId":"01","state":"Colima","stateId":"06","stateCode":"COL","zip":"28078"},{"district":"INDECO Albarrada","districtType":"Colonia","municipality":"Colima","municipalityId":"002","city":"Colima","cityId":"01","state":"Colima","stateId":"06","stateCode":"COL","zip":"28078"},{"district":"Residencial Prados del Sur","districtType":"Fraccionamiento","municipality":"Colima","municipalityId":"002","city":"Colima","cityId":"01","state":"Colima","stateId":"06","stateCode":"COL","zip":"28078"},{"district":"Las Fuentes","districtType":"Colonia","municipality":"Colima","municipalityId":"002","city":"Colima","cityId":"01","state":"Colima","stateId":"06","stateCode":"COL","zip":"28078"},{"district":"Gregorio Torres Quintero","districtType":"Colonia","municipality":"Colima","municipalityId":"002","city":"Colima","cityId":"01","state":"Colima","stateId":"06","stateCode":"COL","zip":"28079"},{"district":"Villas del Sur","districtType":"Colonia","municipality":"Colima","municipalityId":"002","city":"Colima","cityId":"01","state":"Colima","stateId":"06","stateCode":"COL","zip":"28079"},{"district":"Parajes del Sur","districtType":"Colonia","municipality":"Colima","municipalityId":"002","city":"Colima","cityId":"01","state":"Colima","stateId":"06","stateCode":"COL","zip":"28079"},{"district":"El Tivoli","districtType":"Colonia","municipality":"Colima","municipalityId":"002","city":"Colima","cityId":"01","state":"Colima","stateId":"06","stateCode":"COL","zip":"28080"},{"district":"Los Sauces","districtType":"Colonia","municipality":"Colima","municipalityId":"002","city":"Colima","cityId":"01","state":"Colima","stateId":"06","stateCode":"COL","zip":"28085"},{"district":"Juana de Asbaje","districtType":"Colonia","municipality":"Colima","municipalityId":"002","city":"Colima","cityId":"01","state":"Colima","stateId":"06","stateCode":"COL","zip":"28085"},{"district":"La Esperanza","districtType":"Fraccionamiento","municipality":"Colima","municipalityId":"002","city":"Colima","cityId":"01","state":"Colima","stateId":"06","stateCode":"COL","zip":"28085"},{"district":"Leonardo B Gutiérrez","districtType":"Colonia","municipality":"Colima","municipalityId":"002","city":"Colima","cityId":"01","state":"Colima","stateId":"06","stateCode":"COL","zip":"28089"},{"district":"Quinta El Tívoli","districtType":"Fraccionamiento","municipality":"Colima","municipalityId":"002","city":"Colima","cityId":"01","state":"Colima","stateId":"06","stateCode":"COL","zip":"28089"},{"district":"Bosques del Sur","districtType":"Fraccionamiento","municipality":"Colima","municipalityId":"002","city":"Colima","cityId":"01","state":"Colima","stateId":"06","stateCode":"COL","zip":"28089"},{"district":"Las Bugambilias","districtType":"Colonia","municipality":"Colima","municipalityId":"002","city":"Colima","cityId":"01","state":"Colima","stateId":"06","stateCode":"COL","zip":"28090"},{"district":"El Tecolote","districtType":"Colonia","municipality":"Colima","municipalityId":"002","city":"Colima","cityId":"01","state":"Colima","stateId":"06","stateCode":"COL","zip":"28090"},{"district":"Tecomán Centro","districtType":"Colonia","municipality":"Tecomán","municipalityId":"009","city":"Tecoman","cityId":"03","state":"Colima","stateId":"06","stateCode":"COL","zip":"28100"},{"district":"Reyes Heroles","districtType":"Colonia","municipality":"Tecomán","municipalityId":"009","city":"Tecoman","cityId":"03","state":"Colima","stateId":"06","stateCode":"COL","zip":"28110"},{"district":"Josefa Ortiz de Domínguez","districtType":"Colonia","municipality":"Tecomán","municipalityId":"009","city":"Tecoman","cityId":"03","state":"Colima","stateId":"06","stateCode":"COL","zip":"28110"},{"district":"Miguel Hidalgo","districtType":"Colonia","municipality":"Tecomán","municipalityId":"009","city":"Tecoman","cityId":"03","state":"Colima","stateId":"06","stateCode":"COL","zip":"28110"},{"district":"Tepeyac","districtType":"Colonia","municipality":"Tecomán","municipalityId":"009","city":"Tecoman","cityId":"03","state":"Colima","stateId":"06","stateCode":"COL","zip":"28110"},{"district":"Manuel Alvarez","districtType":"Colonia","municipality":"Tecomán","municipalityId":"009","city":"Tecoman","cityId":"03","state":"Colima","stateId":"06","stateCode":"COL","zip":"28110"},{"district":"Elba Cecilia Vega","districtType":"Colonia","municipality":"Tecomán","municipalityId":"009","city":"Tecoman","cityId":"03","state":"Colima","stateId":"06","stateCode":"COL","zip":"28113"},{"district":"Amalia Solórzano","districtType":"Colonia","municipality":"Tecomán","municipalityId":"009","city":"Tecoman","cityId":"03","state":"Colima","stateId":"06","stateCode":"COL","zip":"28114"},{"district":"Campo Aéreo","districtType":"Colonia","municipality":"Tecomán","municipalityId":"009","city":"Tecoman","cityId":"03","state":"Colima","stateId":"06","stateCode":"COL","zip":"28120"},{"district":"Cofradía de Juárez","districtType":"Colonia","municipality":"Tecomán","municipalityId":"009","city":"Tecoman","cityId":"03","state":"Colima","stateId":"06","stateCode":"COL","zip":"28120"},{"district":"Ampliación Valle Querido","districtType":"Colonia","municipality":"Tecomán","municipalityId":"009","city":"Tecoman","cityId":"03","state":"Colima","stateId":"06","stateCode":"COL","zip":"28120"},{"district":"Valle Querido","districtType":"Colonia","municipality":"Tecomán","municipalityId":"009","city":"Tecoman","cityId":"03","state":"Colima","stateId":"06","stateCode":"COL","zip":"28120"},{"district":"Noriega Pizano","districtType":"Colonia","municipality":"Tecomán","municipalityId":"009","city":"Tecoman","cityId":"03","state":"Colima","stateId":"06","stateCode":"COL","zip":"28120"},{"district":"Real del Valle","districtType":"Fraccionamiento","municipality":"Tecomán","municipalityId":"009","city":"Tecoman","cityId":"03","state":"Colima","stateId":"06","stateCode":"COL","zip":"28123"},{"district":"Real del Bosque","districtType":"Fraccionamiento","municipality":"Tecomán","municipalityId":"009","city":"Tecoman","cityId":"03","state":"Colima","stateId":"06","stateCode":"COL","zip":"28123"},{"district":"Francisco Villa","districtType":"Colonia","municipality":"Tecomán","municipalityId":"009","city":"Tecoman","cityId":"03","state":"Colima","stateId":"06","stateCode":"COL","zip":"28130"},{"district":"Fátima","districtType":"Colonia","municipality":"Tecomán","municipalityId":"009","city":"Tecoman","cityId":"03","state":"Colima","stateId":"06","stateCode":"COL","zip":"28130"},{"district":"Villas del Sol","districtType":"Fraccionamiento","municipality":"Tecomán","municipalityId":"009","city":"Tecoman","cityId":"03","state":"Colima","stateId":"06","stateCode":"COL","zip":"28130"},{"district":"Vicente Guerrero","districtType":"Colonia","municipality":"Tecomán","municipalityId":"009","city":"Tecoman","cityId":"03","state":"Colima","stateId":"06","stateCode":"COL","zip":"28130"},{"district":"La Unión","districtType":"Colonia","municipality":"Tecomán","municipalityId":"009","city":"Tecoman","cityId":"03","state":"Colima","stateId":"06","stateCode":"COL","zip":"28130"},{"district":"Hacienda La Loma","districtType":"Fraccionamiento","municipality":"Tecomán","municipalityId":"009","city":"Tecoman","cityId":"03","state":"Colima","stateId":"06","stateCode":"COL","zip":"28133"},{"district":"Loma Bonita","districtType":"Colonia","municipality":"Tecomán","municipalityId":"009","city":"Tecoman","cityId":"03","state":"Colima","stateId":"06","stateCode":"COL","zip":"28133"},{"district":"Santa Elena","districtType":"Colonia","municipality":"Tecomán","municipalityId":"009","city":"Tecoman","cityId":"03","state":"Colima","stateId":"06","stateCode":"COL","zip":"28134"},{"district":"Sor Juana Inés de La Cruz","districtType":"Colonia","municipality":"Tecomán","municipalityId":"009","city":"Tecoman","cityId":"03","state":"Colima","stateId":"06","stateCode":"COL","zip":"28134"},{"district":"San Ignacio","districtType":"Fraccionamiento","municipality":"Tecomán","municipalityId":"009","city":"Tecoman","cityId":"03","state":"Colima","stateId":"06","stateCode":"COL","zip":"28134"},{"district":"Lázaro Cárdenas II","districtType":"Colonia","municipality":"Tecomán","municipalityId":"009","city":"Tecoman","cityId":"03","state":"Colima","stateId":"06","stateCode":"COL","zip":"28134"},{"district":"Ampliación Las Flores","districtType":"Colonia","municipality":"Tecomán","municipalityId":"009","city":"Tecoman","cityId":"03","state":"Colima","stateId":"06","stateCode":"COL","zip":"28134"},{"district":"Álvaro Obregón","districtType":"Colonia","municipality":"Tecomán","municipalityId":"009","city":"Tecoman","cityId":"03","state":"Colima","stateId":"06","stateCode":"COL","zip":"28134"},{"district":"Palma Real","districtType":"Colonia","municipality":"Tecomán","municipalityId":"009","city":"Tecoman","cityId":"03","state":"Colima","stateId":"06","stateCode":"COL","zip":"28134"},{"district":"Griselda Alvarez","districtType":"Colonia","municipality":"Tecomán","municipalityId":"009","city":"Tecoman","cityId":"03","state":"Colima","stateId":"06","stateCode":"COL","zip":"28134"},{"district":"Griselda Alvarez","districtType":"Ampliación","municipality":"Tecomán","municipalityId":"009","city":"Tecoman","cityId":"03","state":"Colima","stateId":"06","stateCode":"COL","zip":"28134"},{"district":"Niños Héroes","districtType":"Colonia","municipality":"Tecomán","municipalityId":"009","city":"Tecoman","cityId":"03","state":"Colima","stateId":"06","stateCode":"COL","zip":"28134"},{"district":"Lázaro Cárdenas","districtType":"Colonia","municipality":"Tecomán","municipalityId":"009","city":"Tecoman","cityId":"03","state":"Colima","stateId":"06","stateCode":"COL","zip":"28134"},{"district":"Luis Donaldo Colosio","districtType":"Colonia","municipality":"Tecomán","municipalityId":"009","city":"Tecoman","cityId":"03","state":"Colima","stateId":"06","stateCode":"COL","zip":"28134"},{"district":"Las Flores","districtType":"Colonia","municipality":"Tecomán","municipalityId":"009","city":"Tecoman","cityId":"03","state":"Colima","stateId":"06","stateCode":"COL","zip":"28134"},{"district":"La Floresta","districtType":"Colonia","municipality":"Tecomán","municipalityId":"009","city":"Tecoman","cityId":"03","state":"Colima","stateId":"06","stateCode":"COL","zip":"28140"},{"district":"El Chamizal","districtType":"Colonia","municipality":"Tecomán","municipalityId":"009","city":"Tecoman","cityId":"03","state":"Colima","stateId":"06","stateCode":"COL","zip":"28140"},{"district":"Jardines del Chamizal","districtType":"Fraccionamiento","municipality":"Tecomán","municipalityId":"009","city":"Tecoman","cityId":"03","state":"Colima","stateId":"06","stateCode":"COL","zip":"28140"},{"district":"INFONAVIT Las Huertas","districtType":"Colonia","municipality":"Tecomán","municipalityId":"009","city":"Tecoman","cityId":"03","state":"Colima","stateId":"06","stateCode":"COL","zip":"28140"},{"district":"Jardines de Tecomán","districtType":"Fraccionamiento","municipality":"Tecomán","municipalityId":"009","city":"Tecoman","cityId":"03","state":"Colima","stateId":"06","stateCode":"COL","zip":"28140"},{"district":"San Isidro","districtType":"Colonia","municipality":"Tecomán","municipalityId":"009","city":"Tecoman","cityId":"03","state":"Colima","stateId":"06","stateCode":"COL","zip":"28140"},{"district":"Villa Florida","districtType":"Colonia","municipality":"Tecomán","municipalityId":"009","city":"Tecoman","cityId":"03","state":"Colima","stateId":"06","stateCode":"COL","zip":"28140"},{"district":"La Cuarta","districtType":"Fraccionamiento","municipality":"Tecomán","municipalityId":"009","city":"Tecoman","cityId":"03","state":"Colima","stateId":"06","stateCode":"COL","zip":"28143"},{"district":"Benito Juárez","districtType":"Colonia","municipality":"Tecomán","municipalityId":"009","city":"Tecoman","cityId":"03","state":"Colima","stateId":"06","stateCode":"COL","zip":"28150"},{"district":"La Palmita","districtType":"Colonia","municipality":"Tecomán","municipalityId":"009","city":"Tecoman","cityId":"03","state":"Colima","stateId":"06","stateCode":"COL","zip":"28150"},{"district":"San Francisco Javier","districtType":"Colonia","municipality":"Tecomán","municipalityId":"009","city":"Tecoman","cityId":"03","state":"Colima","stateId":"06","stateCode":"COL","zip":"28150"},{"district":"INFONAVIT Las Palmas","districtType":"Colonia","municipality":"Tecomán","municipalityId":"009","city":"Tecoman","cityId":"03","state":"Colima","stateId":"06","stateCode":"COL","zip":"28159"},{"district":"Ponciano Arriaga","districtType":"Colonia","municipality":"Tecomán","municipalityId":"009","city":"Tecoman","cityId":"03","state":"Colima","stateId":"06","stateCode":"COL","zip":"28160"},{"district":"Estatuto Jurídico","districtType":"Colonia","municipality":"Tecomán","municipalityId":"009","city":"Tecoman","cityId":"03","state":"Colima","stateId":"06","stateCode":"COL","zip":"28160"},{"district":"Pablo Silva García","districtType":"Colonia","municipality":"Tecomán","municipalityId":"009","city":"Tecoman","cityId":"03","state":"Colima","stateId":"06","stateCode":"COL","zip":"28160"},{"district":"Sedena Militar","districtType":"Colonia","municipality":"Tecomán","municipalityId":"009","city":"Tecoman","cityId":"03","state":"Colima","stateId":"06","stateCode":"COL","zip":"28160"},{"district":"Burócratas","districtType":"Colonia","municipality":"Tecomán","municipalityId":"009","city":"Tecoman","cityId":"03","state":"Colima","stateId":"06","stateCode":"COL","zip":"28160"},{"district":"Parque Las Flores (Elias Zamora Verduzco)","districtType":"Colonia","municipality":"Tecomán","municipalityId":"009","city":"Tecoman","cityId":"03","state":"Colima","stateId":"06","stateCode":"COL","zip":"28170"},{"district":"Libertad","districtType":"Colonia","municipality":"Tecomán","municipalityId":"009","city":"Tecoman","cityId":"03","state":"Colima","stateId":"06","stateCode":"COL","zip":"28170"},{"district":"Indeco","districtType":"Colonia","municipality":"Tecomán","municipalityId":"009","city":"Tecoman","cityId":"03","state":"Colima","stateId":"06","stateCode":"COL","zip":"28170"},{"district":"Villa del Centenario","districtType":"Colonia","municipality":"Tecomán","municipalityId":"009","city":"Tecoman","cityId":"03","state":"Colima","stateId":"06","stateCode":"COL","zip":"28180"},{"district":"Primaveras del Real","districtType":"Colonia","municipality":"Tecomán","municipalityId":"009","city":"Tecoman","cityId":"03","state":"Colima","stateId":"06","stateCode":"COL","zip":"28180"},{"district":"Las Palmas","districtType":"Colonia","municipality":"Tecomán","municipalityId":"009","city":"Tecoman","cityId":"03","state":"Colima","stateId":"06","stateCode":"COL","zip":"28180"},{"district":"Bugambilias","districtType":"Colonia","municipality":"Tecomán","municipalityId":"009","city":"Tecoman","cityId":"03","state":"Colima","stateId":"06","stateCode":"COL","zip":"28180"},{"district":"La Floresta II","districtType":"Colonia","municipality":"Tecomán","municipalityId":"009","city":"Tecoman","cityId":"03","state":"Colima","stateId":"06","stateCode":"COL","zip":"28180"},{"district":"San Antonio","districtType":"Colonia","municipality":"Tecomán","municipalityId":"009","city":"Tecoman","cityId":"03","state":"Colima","stateId":"06","stateCode":"COL","zip":"28180"},{"district":"San Miguel","districtType":"Fraccionamiento","municipality":"Tecomán","municipalityId":"009","city":"Tecoman","cityId":"03","state":"Colima","stateId":"06","stateCode":"COL","zip":"28180"},{"district":"Villas del Rey","districtType":"Colonia","municipality":"Tecomán","municipalityId":"009","city":"Tecoman","cityId":"03","state":"Colima","stateId":"06","stateCode":"COL","zip":"28180"},{"district":"San Carlos","districtType":"Fraccionamiento","municipality":"Tecomán","municipalityId":"009","city":"Tecoman","cityId":"03","state":"Colima","stateId":"06","stateCode":"COL","zip":"28184"},{"district":"88 Batallón de Infantería","districtType":"Colonia","municipality":"Tecomán","municipalityId":"009","city":"Tecoman","cityId":"03","state":"Colima","stateId":"06","stateCode":"COL","zip":"28189"},{"district":"San José","districtType":"Colonia","municipality":"Tecomán","municipalityId":"009","city":"Tecoman","cityId":"03","state":"Colima","stateId":"06","stateCode":"COL","zip":"28190"},{"district":"Llanos de San José","districtType":"Fraccionamiento","municipality":"Tecomán","municipalityId":"009","city":"Tecoman","cityId":"03","state":"Colima","stateId":"06","stateCode":"COL","zip":"28190"},{"district":"Gustavo Diaz Ordaz","districtType":"Colonia","municipality":"Tecomán","municipalityId":"009","city":"Tecoman","cityId":"03","state":"Colima","stateId":"06","stateCode":"COL","zip":"28190"},{"district":"Tuxpan","districtType":"Colonia","municipality":"Tecomán","municipalityId":"009","city":"Tecoman","cityId":"03","state":"Colima","stateId":"06","stateCode":"COL","zip":"28190"},{"district":"Manzanillo Centro","districtType":"Colonia","municipality":"Manzanillo","municipalityId":"007","city":"Manzanillo","cityId":"02","state":"Colima","stateId":"06","stateCode":"COL","zip":"28200"},{"district":"Manzanillo (Playa de Oro)","districtType":"Aeropuerto","municipality":"Manzanillo","municipalityId":"007","city":"Manzanillo","cityId":"02","state":"Colima","stateId":"06","stateCode":"COL","zip":"28209"},{"district":"Las Brisas","districtType":"Colonia","municipality":"Manzanillo","municipalityId":"007","city":"Manzanillo","cityId":"02","state":"Colima","stateId":"06","stateCode":"COL","zip":"28210"},{"district":"Morelos","districtType":"Colonia","municipality":"Manzanillo","municipalityId":"007","city":"Manzanillo","cityId":"02","state":"Colima","stateId":"06","stateCode":"COL","zip":"28217"},{"district":"Del Mar","districtType":"Colonia","municipality":"Manzanillo","municipalityId":"007","city":"Manzanillo","cityId":"02","state":"Colima","stateId":"06","stateCode":"COL","zip":"28218"},{"district":"Aeroméxico","districtType":"Fraccionamiento","municipality":"Manzanillo","municipalityId":"007","city":"Manzanillo","cityId":"02","state":"Colima","stateId":"06","stateCode":"COL","zip":"28218"},{"district":"Playa Azul","districtType":"Colonia","municipality":"Manzanillo","municipalityId":"007","city":"Manzanillo","cityId":"02","state":"Colima","stateId":"06","stateCode":"COL","zip":"28218"},{"district":"Los Ciruelos","districtType":"Fraccionamiento","municipality":"Manzanillo","municipalityId":"007","city":"Manzanillo","cityId":"02","state":"Colima","stateId":"06","stateCode":"COL","zip":"28219"},{"district":"Conjunto Primaveras","districtType":"Fraccionamiento","municipality":"Manzanillo","municipalityId":"007","city":"Manzanillo","cityId":"02","state":"Colima","stateId":"06","stateCode":"COL","zip":"28219"},{"district":"Del Sol","districtType":"Fraccionamiento","municipality":"Manzanillo","municipalityId":"007","city":"Manzanillo","cityId":"02","state":"Colima","stateId":"06","stateCode":"COL","zip":"28219"},{"district":"FETSE","districtType":"Colonia","municipality":"Manzanillo","municipalityId":"007","city":"Manzanillo","cityId":"02","state":"Colima","stateId":"06","stateCode":"COL","zip":"28219"},{"district":"Plainco","districtType":"Colonia","municipality":"Manzanillo","municipalityId":"007","city":"Manzanillo","cityId":"02","state":"Colima","stateId":"06","stateCode":"COL","zip":"28219"},{"district":"Playa Blanca","districtType":"Colonia","municipality":"Manzanillo","municipalityId":"007","city":"Manzanillo","cityId":"02","state":"Colima","stateId":"06","stateCode":"COL","zip":"28219"},{"district":"Rinconada del Valle","districtType":"Fraccionamiento","municipality":"Manzanillo","municipalityId":"007","city":"Manzanillo","cityId":"02","state":"Colima","stateId":"06","stateCode":"COL","zip":"28219"},{"district":"La Esperanza","districtType":"Colonia","municipality":"Manzanillo","municipalityId":"007","city":"Manzanillo","cityId":"02","state":"Colima","stateId":"06","stateCode":"COL","zip":"28219"},{"district":"Los Corales","districtType":"Fraccionamiento","municipality":"Manzanillo","municipalityId":"007","city":"Manzanillo","cityId":"02","state":"Colima","stateId":"06","stateCode":"COL","zip":"28219"},{"district":"Valle de las Garzas","districtType":"Fraccionamiento","municipality":"Manzanillo","municipalityId":"007","city":"Manzanillo","cityId":"02","state":"Colima","stateId":"06","stateCode":"COL","zip":"28219"},{"district":"Parque industrial FONDEPORT","districtType":"Zona industrial","municipality":"Manzanillo","municipalityId":"007","city":"Manzanillo","cityId":"02","state":"Colima","stateId":"06","stateCode":"COL","zip":"28219"},{"district":"Armada de México","districtType":"Unidad habitacional","municipality":"Manzanillo","municipalityId":"007","city":"Manzanillo","cityId":"02","state":"Colima","stateId":"06","stateCode":"COL","zip":"28219"},{"district":"Lomas del Valle","districtType":"Fraccionamiento","municipality":"Manzanillo","municipalityId":"007","city":"Manzanillo","cityId":"02","state":"Colima","stateId":"06","stateCode":"COL","zip":"28219"},{"district":"Residencial Villa del Mar","districtType":"Fraccionamiento","municipality":"Manzanillo","municipalityId":"007","city":"Manzanillo","cityId":"02","state":"Colima","stateId":"06","stateCode":"COL","zip":"28219"},{"district":"Residencial las Gaviotas","districtType":"Fraccionamiento","municipality":"Manzanillo","municipalityId":"007","city":"Manzanillo","cityId":"02","state":"Colima","stateId":"06","stateCode":"COL","zip":"28219"},{"district":"Playa Real","districtType":"Colonia","municipality":"Manzanillo","municipalityId":"007","city":"Manzanillo","cityId":"02","state":"Colima","stateId":"06","stateCode":"COL","zip":"28219"},{"district":"Villa Coral","districtType":"Fraccionamiento","municipality":"Manzanillo","municipalityId":"007","city":"Manzanillo","cityId":"02","state":"Colima","stateId":"06","stateCode":"COL","zip":"28219"},{"district":"Playa de Oro","districtType":"Colonia","municipality":"Manzanillo","municipalityId":"007","city":"Manzanillo","cityId":"02","state":"Colima","stateId":"06","stateCode":"COL","zip":"28219"},{"district":"Villa Mar","districtType":"Colonia","municipality":"Manzanillo","municipalityId":"007","city":"Manzanillo","cityId":"02","state":"Colima","stateId":"06","stateCode":"COL","zip":"28219"},{"district":"Barrio 5","districtType":"Colonia","municipality":"Manzanillo","municipalityId":"007","city":"Manzanillo","cityId":"02","state":"Colima","stateId":"06","stateCode":"COL","zip":"28219"},{"district":"Villa Océano","districtType":"Colonia","municipality":"Manzanillo","municipalityId":"007","city":"Manzanillo","cityId":"02","state":"Colima","stateId":"06","stateCode":"COL","zip":"28219"},{"district":"Playa Esmeralda","districtType":"Colonia","municipality":"Manzanillo","municipalityId":"007","city":"Manzanillo","cityId":"02","state":"Colima","stateId":"06","stateCode":"COL","zip":"28219"},{"district":"El Pacifico","districtType":"Colonia","municipality":"Manzanillo","municipalityId":"007","city":"Manzanillo","cityId":"02","state":"Colima","stateId":"06","stateCode":"COL","zip":"28219"},{"district":"Soleares","districtType":"Fraccionamiento","municipality":"Manzanillo","municipalityId":"007","city":"Manzanillo","cityId":"02","state":"Colima","stateId":"06","stateCode":"COL","zip":"28219"},{"district":"Las Garzas","districtType":"Fraccionamiento","municipality":"Manzanillo","municipalityId":"007","city":"Manzanillo","cityId":"02","state":"Colima","stateId":"06","stateCode":"COL","zip":"28219"},{"district":"Ignacio Zaragoza","districtType":"Colonia","municipality":"Manzanillo","municipalityId":"007","city":"Manzanillo","cityId":"02","state":"Colima","stateId":"06","stateCode":"COL","zip":"28230"},{"district":"El Rocío","districtType":"Colonia","municipality":"Manzanillo","municipalityId":"007","city":"Manzanillo","cityId":"02","state":"Colima","stateId":"06","stateCode":"COL","zip":"28230"},{"district":"Las Joyas","districtType":"Colonia","municipality":"Manzanillo","municipalityId":"007","city":"Manzanillo","cityId":"02","state":"Colima","stateId":"06","stateCode":"COL","zip":"28230"},{"district":"Manzanillo","districtType":"Puerto","municipality":"Manzanillo","municipalityId":"007","city":"Manzanillo","cityId":"02","state":"Colima","stateId":"06","stateCode":"COL","zip":"28236"},{"district":"La Gasera","districtType":"Colonia","municipality":"Manzanillo","municipalityId":"007","city":"Manzanillo","cityId":"02","state":"Colima","stateId":"06","stateCode":"COL","zip":"28237"},{"district":"Punta Grande","districtType":"Colonia","municipality":"Manzanillo","municipalityId":"007","city":"Manzanillo","cityId":"02","state":"Colima","stateId":"06","stateCode":"COL","zip":"28237"},{"district":"Leandro Valle","districtType":"Colonia","municipality":"Manzanillo","municipalityId":"007","city":"Manzanillo","cityId":"02","state":"Colima","stateId":"06","stateCode":"COL","zip":"28237"},{"district":"Benito Juárez","districtType":"Colonia","municipality":"Manzanillo","municipalityId":"007","city":"Manzanillo","cityId":"02","state":"Colima","stateId":"06","stateCode":"COL","zip":"28237"},{"district":"Las Torres","districtType":"Colonia","municipality":"Manzanillo","municipalityId":"007","city":"Manzanillo","cityId":"02","state":"Colima","stateId":"06","stateCode":"COL","zip":"28237"},{"district":"Bellavista","districtType":"Colonia","municipality":"Manzanillo","municipalityId":"007","city":"Manzanillo","cityId":"02","state":"Colima","stateId":"06","stateCode":"COL","zip":"28238"},{"district":"16 de Septiembre","districtType":"Colonia","municipality":"Manzanillo","municipalityId":"007","city":"Manzanillo","cityId":"02","state":"Colima","stateId":"06","stateCode":"COL","zip":"28239"},{"district":"INDECO","districtType":"Colonia","municipality":"Manzanillo","municipalityId":"007","city":"Manzanillo","cityId":"02","state":"Colima","stateId":"06","stateCode":"COL","zip":"28239"},{"district":"Isla Real","districtType":"Colonia","municipality":"Manzanillo","municipalityId":"007","city":"Manzanillo","cityId":"02","state":"Colima","stateId":"06","stateCode":"COL","zip":"28239"},{"district":"Loma Alta","districtType":"Colonia","municipality":"Manzanillo","municipalityId":"007","city":"Manzanillo","cityId":"02","state":"Colima","stateId":"06","stateCode":"COL","zip":"28239"},{"district":"San Carlos","districtType":"Colonia","municipality":"Manzanillo","municipalityId":"007","city":"Manzanillo","cityId":"02","state":"Colima","stateId":"06","stateCode":"COL","zip":"28239"},{"district":"Primavera","districtType":"Colonia","municipality":"Manzanillo","municipalityId":"007","city":"Manzanillo","cityId":"02","state":"Colima","stateId":"06","stateCode":"COL","zip":"28239"},{"district":"Tapeixtles","districtType":"Colonia","municipality":"Manzanillo","municipalityId":"007","city":"Manzanillo","cityId":"02","state":"Colima","stateId":"06","stateCode":"COL","zip":"28239"},{"district":"La Negrita","districtType":"Colonia","municipality":"Manzanillo","municipalityId":"007","city":"Manzanillo","cityId":"02","state":"Colima","stateId":"06","stateCode":"COL","zip":"28239"},{"district":"Lomas de Gregorio Figueroa","districtType":"Colonia","municipality":"Manzanillo","municipalityId":"007","city":"Manzanillo","cityId":"02","state":"Colima","stateId":"06","stateCode":"COL","zip":"28239"},{"district":"Punta Chica","districtType":"Colonia","municipality":"Manzanillo","municipalityId":"007","city":"Manzanillo","cityId":"02","state":"Colima","stateId":"06","stateCode":"COL","zip":"28240"},{"district":"Burócrata","districtType":"Colonia","municipality":"Manzanillo","municipalityId":"007","city":"Manzanillo","cityId":"02","state":"Colima","stateId":"06","stateCode":"COL","zip":"28250"},{"district":"San Pedrito","districtType":"Colonia","municipality":"Manzanillo","municipalityId":"007","city":"Manzanillo","cityId":"02","state":"Colima","stateId":"06","stateCode":"COL","zip":"28259"},{"district":"Libertad","districtType":"Colonia","municipality":"Manzanillo","municipalityId":"007","city":"Manzanillo","cityId":"02","state":"Colima","stateId":"06","stateCode":"COL","zip":"28260"},{"district":"Cuauhtémoc","districtType":"Colonia","municipality":"Manzanillo","municipalityId":"007","city":"Manzanillo","cityId":"02","state":"Colima","stateId":"06","stateCode":"COL","zip":"28269"},{"district":"Alameda","districtType":"Colonia","municipality":"Manzanillo","municipalityId":"007","city":"Manzanillo","cityId":"02","state":"Colima","stateId":"06","stateCode":"COL","zip":"28269"},{"district":"Padre Hidalgo","districtType":"Colonia","municipality":"Manzanillo","municipalityId":"007","city":"Manzanillo","cityId":"02","state":"Colima","stateId":"06","stateCode":"COL","zip":"28270"},{"district":"IMSS","districtType":"Unidad habitacional","municipality":"Manzanillo","municipalityId":"007","city":"Manzanillo","cityId":"02","state":"Colima","stateId":"06","stateCode":"COL","zip":"28277"},{"district":"Pedregoza","districtType":"Colonia","municipality":"Manzanillo","municipalityId":"007","city":"Manzanillo","cityId":"02","state":"Colima","stateId":"06","stateCode":"COL","zip":"28278"},{"district":"Bonanza","districtType":"Colonia","municipality":"Manzanillo","municipalityId":"007","city":"Manzanillo","cityId":"02","state":"Colima","stateId":"06","stateCode":"COL","zip":"28279"},{"district":"Costa Azul","districtType":"Condominio","municipality":"Manzanillo","municipalityId":"007","city":"Manzanillo","cityId":"02","state":"Colima","stateId":"06","stateCode":"COL","zip":"28280"},{"district":"Armería Centro","districtType":"Colonia","municipality":"Armería","municipalityId":"001","city":"Ciudad de Armería","cityId":"05","state":"Colima","stateId":"06","stateCode":"COL","zip":"28300"},{"district":"Cristo Rey","districtType":"Colonia","municipality":"Armería","municipalityId":"001","city":"Ciudad de Armería","cityId":"05","state":"Colima","stateId":"06","stateCode":"COL","zip":"28304"},{"district":"Lindavista","districtType":"Colonia","municipality":"Armería","municipalityId":"001","city":"Ciudad de Armería","cityId":"05","state":"Colima","stateId":"06","stateCode":"COL","zip":"28304"},{"district":"Lázaro Cárdenas","districtType":"Colonia","municipality":"Armería","municipalityId":"001","city":"Ciudad de Armería","cityId":"05","state":"Colima","stateId":"06","stateCode":"COL","zip":"28304"},{"district":"Ampliación Lázaro Cárdenas","districtType":"Colonia","municipality":"Armería","municipalityId":"001","city":"Ciudad de Armería","cityId":"05","state":"Colima","stateId":"06","stateCode":"COL","zip":"28304"},{"district":"Ejido","districtType":"Colonia","municipality":"Armería","municipalityId":"001","city":"Ciudad de Armería","cityId":"05","state":"Colima","stateId":"06","stateCode":"COL","zip":"28305"},{"district":"Independencia","districtType":"Colonia","municipality":"Armería","municipalityId":"001","city":"Ciudad de Armería","cityId":"05","state":"Colima","stateId":"06","stateCode":"COL","zip":"28306"},{"district":"Emiliano Zapata","districtType":"Colonia","municipality":"Armería","municipalityId":"001","city":"Ciudad de Armería","cityId":"05","state":"Colima","stateId":"06","stateCode":"COL","zip":"28306"},{"district":"Gregorio Torres Quintero","districtType":"Colonia","municipality":"Armería","municipalityId":"001","city":"Ciudad de Armería","cityId":"05","state":"Colima","stateId":"06","stateCode":"COL","zip":"28307"},{"district":"El Campanario","districtType":"Colonia","municipality":"Armería","municipalityId":"001","city":"Ciudad de Armería","cityId":"05","state":"Colima","stateId":"06","stateCode":"COL","zip":"28307"},{"district":"El Pelillo","districtType":"Colonia","municipality":"Armería","municipalityId":"001","city":"Ciudad de Armería","cityId":"05","state":"Colima","stateId":"06","stateCode":"COL","zip":"28307"},{"district":"Sagrado Corazón","districtType":"Colonia","municipality":"Armería","municipalityId":"001","city":"Ciudad de Armería","cityId":"05","state":"Colima","stateId":"06","stateCode":"COL","zip":"28307"},{"district":"El Arenal","districtType":"Colonia","municipality":"Armería","municipalityId":"001","city":"Ciudad de Armería","cityId":"05","state":"Colima","stateId":"06","stateCode":"COL","zip":"28307"},{"district":"Valle del Sol","districtType":"Fraccionamiento","municipality":"Armería","municipalityId":"001","city":"Ciudad de Armería","cityId":"05","state":"Colima","stateId":"06","stateCode":"COL","zip":"28307"},{"district":"Hacienda las Primaveras","districtType":"Colonia","municipality":"Armería","municipalityId":"001","city":"Ciudad de Armería","cityId":"05","state":"Colima","stateId":"06","stateCode":"COL","zip":"28307"},{"district":"Rincón de Lopez","districtType":"Ranchería","municipality":"Armería","municipalityId":"001","city":"","cityId":"","state":"Colima","stateId":"06","stateCode":"COL","zip":"28310"},{"district":"El Puertecito","districtType":"Ranchería","municipality":"Armería","municipalityId":"001","city":"","cityId":"","state":"Colima","stateId":"06","stateCode":"COL","zip":"28315"},{"district":"Augusto Gómez Villanueva (Coalatilla)","districtType":"Ejido","municipality":"Armería","municipalityId":"001","city":"","cityId":"","state":"Colima","stateId":"06","stateCode":"COL","zip":"28317"},{"district":"Coalatillo","districtType":"Ejido","municipality":"Armería","municipalityId":"001","city":"","cityId":"","state":"Colima","stateId":"06","stateCode":"COL","zip":"28317"},{"district":"Cofradía de Juárez","districtType":"Pueblo","municipality":"Armería","municipalityId":"001","city":"","cityId":"","state":"Colima","stateId":"06","stateCode":"COL","zip":"28320"},{"district":"Flor de Coco","districtType":"Pueblo","municipality":"Armería","municipalityId":"001","city":"","cityId":"","state":"Colima","stateId":"06","stateCode":"COL","zip":"28330"},{"district":"Periquillo","districtType":"Ranchería","municipality":"Armería","municipalityId":"001","city":"","cityId":"","state":"Colima","stateId":"06","stateCode":"COL","zip":"28330"},{"district":"Sagrado Corazón","districtType":"Pueblo","municipality":"Armería","municipalityId":"001","city":"","cityId":"","state":"Colima","stateId":"06","stateCode":"COL","zip":"28330"},{"district":"Paseo del Río","districtType":"Hacienda","municipality":"Armería","municipalityId":"001","city":"","cityId":"","state":"Colima","stateId":"06","stateCode":"COL","zip":"28335"},{"district":"Zorrillos","districtType":"Ejido","municipality":"Armería","municipalityId":"001","city":"","cityId":"","state":"Colima","stateId":"06","stateCode":"COL","zip":"28340"},{"district":"Los Reyes (Zorrillos)","districtType":"Ejido","municipality":"Armería","municipalityId":"001","city":"","cityId":"","state":"Colima","stateId":"06","stateCode":"COL","zip":"28340"},{"district":"El Ciruelo","districtType":"Ranchería","municipality":"Armería","municipalityId":"001","city":"","cityId":"","state":"Colima","stateId":"06","stateCode":"COL","zip":"28348"},{"district":"Canoa Verde","districtType":"Ranchería","municipality":"Armería","municipalityId":"001","city":"","cityId":"","state":"Colima","stateId":"06","stateCode":"COL","zip":"28349"},{"district":"Cuyutlán","districtType":"Ranchería","municipality":"Armería","municipalityId":"001","city":"","cityId":"","state":"Colima","stateId":"06","stateCode":"COL","zip":"28350"},{"district":"El Paraíso [Balneario]","districtType":"Ranchería","municipality":"Armería","municipalityId":"001","city":"","cityId":"","state":"Colima","stateId":"06","stateCode":"COL","zip":"28350"},{"district":"El Banco de Jicotán","districtType":"Exhacienda","municipality":"Armería","municipalityId":"001","city":"","cityId":"","state":"Colima","stateId":"06","stateCode":"COL","zip":"28362"},{"district":"El Chical","districtType":"Ranchería","municipality":"Coquimatlán","municipalityId":"004","city":"","cityId":"","state":"Colima","stateId":"06","stateCode":"COL","zip":"28400"},{"district":"Camichines 1","districtType":"Colonia","municipality":"Coquimatlán","municipalityId":"004","city":"","cityId":"","state":"Colima","stateId":"06","stateCode":"COL","zip":"28400"},{"district":"Emiliano Zapata","districtType":"Colonia","municipality":"Coquimatlán","municipalityId":"004","city":"","cityId":"","state":"Colima","stateId":"06","stateCode":"COL","zip":"28400"},{"district":"Las Higueras II","districtType":"Colonia","municipality":"Coquimatlán","municipalityId":"004","city":"","cityId":"","state":"Colima","stateId":"06","stateCode":"COL","zip":"28400"},{"district":"Camichines 2","districtType":"Colonia","municipality":"Coquimatlán","municipalityId":"004","city":"","cityId":"","state":"Colima","stateId":"06","stateCode":"COL","zip":"28400"},{"district":"Cazumba 1","districtType":"Colonia","municipality":"Coquimatlán","municipalityId":"004","city":"","cityId":"","state":"Colima","stateId":"06","stateCode":"COL","zip":"28400"},{"district":"Las Higueras","districtType":"Colonia","municipality":"Coquimatlán","municipalityId":"004","city":"","cityId":"","state":"Colima","stateId":"06","stateCode":"COL","zip":"28400"},{"district":"Jala","districtType":"Ranchería","municipality":"Coquimatlán","municipalityId":"004","city":"","cityId":"","state":"Colima","stateId":"06","stateCode":"COL","zip":"28400"},{"district":"La Esperanza","districtType":"Ranchería","municipality":"Coquimatlán","municipalityId":"004","city":"","cityId":"","state":"Colima","stateId":"06","stateCode":"COL","zip":"28400"},{"district":"Jardines del Llano","districtType":"Colonia","municipality":"Coquimatlán","municipalityId":"004","city":"","cityId":"","state":"Colima","stateId":"06","stateCode":"COL","zip":"28400"},{"district":"San Miguel","districtType":"Colonia","municipality":"Coquimatlán","municipalityId":"004","city":"","cityId":"","state":"Colima","stateId":"06","stateCode":"COL","zip":"28400"},{"district":"Valle de las Huertas","districtType":"Fraccionamiento","municipality":"Coquimatlán","municipalityId":"004","city":"","cityId":"","state":"Colima","stateId":"06","stateCode":"COL","zip":"28400"},{"district":"Coquimatlán","districtType":"Pueblo","municipality":"Coquimatlán","municipalityId":"004","city":"","cityId":"","state":"Colima","stateId":"06","stateCode":"COL","zip":"28400"},{"district":"Las Moras","districtType":"Colonia","municipality":"Coquimatlán","municipalityId":"004","city":"","cityId":"","state":"Colima","stateId":"06","stateCode":"COL","zip":"28400"},{"district":"Agua Zarca","districtType":"Ranchería","municipality":"Coquimatlán","municipalityId":"004","city":"","cityId":"","state":"Colima","stateId":"06","stateCode":"COL","zip":"28400"},{"district":"La Sidra","districtType":"Ranchería","municipality":"Coquimatlán","municipalityId":"004","city":"","cityId":"","state":"Colima","stateId":"06","stateCode":"COL","zip":"28400"},{"district":"Cazumba 2","districtType":"Colonia","municipality":"Coquimatlán","municipalityId":"004","city":"","cityId":"","state":"Colima","stateId":"06","stateCode":"COL","zip":"28400"},{"district":"Elías Zamora Verduzco","districtType":"Colonia","municipality":"Coquimatlán","municipalityId":"004","city":"","cityId":"","state":"Colima","stateId":"06","stateCode":"COL","zip":"28400"},{"district":"El Poblado","districtType":"Ranchería","municipality":"Coquimatlán","municipalityId":"004","city":"","cityId":"","state":"Colima","stateId":"06","stateCode":"COL","zip":"28402"},{"district":"Los Limones","districtType":"Pueblo","municipality":"Coquimatlán","municipalityId":"004","city":"","cityId":"","state":"Colima","stateId":"06","stateCode":"COL","zip":"28403"},{"district":"El Algodonal","districtType":"Ranchería","municipality":"Coquimatlán","municipalityId":"004","city":"","cityId":"","state":"Colima","stateId":"06","stateCode":"COL","zip":"28405"},{"district":"Juárez","districtType":"Pueblo","municipality":"Coquimatlán","municipalityId":"004","city":"","cityId":"","state":"Colima","stateId":"06","stateCode":"COL","zip":"28410"},{"district":"Aguajitos","districtType":"Colonia","municipality":"Comala","municipalityId":"003","city":"","cityId":"","state":"Colima","stateId":"06","stateCode":"COL","zip":"28450"},{"district":"Campo Verde","districtType":"Colonia","municipality":"Comala","municipalityId":"003","city":"","cityId":"","state":"Colima","stateId":"06","stateCode":"COL","zip":"28450"},{"district":"Comala","districtType":"Pueblo","municipality":"Comala","municipalityId":"003","city":"","cityId":"","state":"Colima","stateId":"06","stateCode":"COL","zip":"28450"},{"district":"Campestre San Juan","districtType":"Colonia","municipality":"Comala","municipalityId":"003","city":"","cityId":"","state":"Colima","stateId":"06","stateCode":"COL","zip":"28450"},{"district":"Miguel de La Madrid Hurtado","districtType":"Colonia","municipality":"Comala","municipalityId":"003","city":"","cityId":"","state":"Colima","stateId":"06","stateCode":"COL","zip":"28450"},{"district":"Lomas de Comala","districtType":"Colonia","municipality":"Comala","municipalityId":"003","city":"","cityId":"","state":"Colima","stateId":"06","stateCode":"COL","zip":"28450"},{"district":"Solidaridad Aguajitos","districtType":"Colonia","municipality":"Comala","municipalityId":"003","city":"","cityId":"","state":"Colima","stateId":"06","stateCode":"COL","zip":"28450"},{"district":"Lázaro Cárdenas","districtType":"Colonia","municipality":"Comala","municipalityId":"003","city":"","cityId":"","state":"Colima","stateId":"06","stateCode":"COL","zip":"28450"},{"district":"Los Aguajes","districtType":"Colonia","municipality":"Comala","municipalityId":"003","city":"","cityId":"","state":"Colima","stateId":"06","stateCode":"COL","zip":"28450"},{"district":"Santa Cecilia","districtType":"Colonia","municipality":"Comala","municipalityId":"003","city":"","cityId":"","state":"Colima","stateId":"06","stateCode":"COL","zip":"28450"},{"district":"La Trinidad","districtType":"Colonia","municipality":"Comala","municipalityId":"003","city":"","cityId":"","state":"Colima","stateId":"06","stateCode":"COL","zip":"28450"},{"district":"Lomas Altas","districtType":"Colonia","municipality":"Comala","municipalityId":"003","city":"","cityId":"","state":"Colima","stateId":"06","stateCode":"COL","zip":"28450"},{"district":"Real de Mendoza","districtType":"Colonia","municipality":"Comala","municipalityId":"003","city":"","cityId":"","state":"Colima","stateId":"06","stateCode":"COL","zip":"28450"},{"district":"Francisco Ramírez Villarreal","districtType":"Colonia","municipality":"Comala","municipalityId":"003","city":"","cityId":"","state":"Colima","stateId":"06","stateCode":"COL","zip":"28450"},{"district":"Celsa Virgen","districtType":"Colonia","municipality":"Comala","municipalityId":"003","city":"","cityId":"","state":"Colima","stateId":"06","stateCode":"COL","zip":"28450"},{"district":"Real Nogueras","districtType":"Colonia","municipality":"Comala","municipalityId":"003","city":"","cityId":"","state":"Colima","stateId":"06","stateCode":"COL","zip":"28450"},{"district":"Barrio Alto","districtType":"Colonia","municipality":"Comala","municipalityId":"003","city":"","cityId":"","state":"Colima","stateId":"06","stateCode":"COL","zip":"28450"},{"district":"Campestre Comala","districtType":"Colonia","municipality":"Comala","municipalityId":"003","city":"","cityId":"","state":"Colima","stateId":"06","stateCode":"COL","zip":"28450"},{"district":"Lomas del Pedregal","districtType":"Colonia","municipality":"Comala","municipalityId":"003","city":"","cityId":"","state":"Colima","stateId":"06","stateCode":"COL","zip":"28450"},{"district":"Cuauhtémoc","districtType":"Colonia","municipality":"Comala","municipalityId":"003","city":"","cityId":"","state":"Colima","stateId":"06","stateCode":"COL","zip":"28450"},{"district":"Zacualpan","districtType":"Ranchería","municipality":"Comala","municipalityId":"003","city":"","cityId":"","state":"Colima","stateId":"06","stateCode":"COL","zip":"28450"},{"district":"La Cañada","districtType":"Colonia","municipality":"Comala","municipalityId":"003","city":"","cityId":"","state":"Colima","stateId":"06","stateCode":"COL","zip":"28450"},{"district":"La Caja","districtType":"Ranchería","municipality":"Comala","municipalityId":"003","city":"","cityId":"","state":"Colima","stateId":"06","stateCode":"COL","zip":"28452"},{"district":"La Yerbabuena","districtType":"Ranchería","municipality":"Comala","municipalityId":"003","city":"","cityId":"","state":"Colima","stateId":"06","stateCode":"COL","zip":"28454"},{"district":"Nogueras","districtType":"Ranchería","municipality":"Comala","municipalityId":"003","city":"","cityId":"","state":"Colima","stateId":"06","stateCode":"COL","zip":"28454"},{"district":"Los Llanitos","districtType":"Ranchería","municipality":"Comala","municipalityId":"003","city":"","cityId":"","state":"Colima","stateId":"06","stateCode":"COL","zip":"28455"},{"district":"Los Corrales","districtType":"Ranchería","municipality":"Comala","municipalityId":"003","city":"","cityId":"","state":"Colima","stateId":"06","stateCode":"COL","zip":"28457"},{"district":"Suchitlán","districtType":"Ranchería","municipality":"Comala","municipalityId":"003","city":"","cityId":"","state":"Colima","stateId":"06","stateCode":"COL","zip":"28459"},{"district":"La Nogalera","districtType":"Ranchería","municipality":"Comala","municipalityId":"003","city":"","cityId":"","state":"Colima","stateId":"06","stateCode":"COL","zip":"28460"},{"district":"Cofradía de Suchitlán","districtType":"Ranchería","municipality":"Comala","municipalityId":"003","city":"","cityId":"","state":"Colima","stateId":"06","stateCode":"COL","zip":"28460"},{"district":"El Remate","districtType":"Ranchería","municipality":"Comala","municipalityId":"003","city":"","cityId":"","state":"Colima","stateId":"06","stateCode":"COL","zip":"28461"},{"district":"Lagunitas","districtType":"Ranchería","municipality":"Comala","municipalityId":"003","city":"","cityId":"","state":"Colima","stateId":"06","stateCode":"COL","zip":"28462"},{"district":"Barranca del Agua","districtType":"Ranchería","municipality":"Comala","municipalityId":"003","city":"","cityId":"","state":"Colima","stateId":"06","stateCode":"COL","zip":"28463"},{"district":"San Antonio","districtType":"Exhacienda","municipality":"Comala","municipalityId":"003","city":"","cityId":"","state":"Colima","stateId":"06","stateCode":"COL","zip":"28463"},{"district":"La Becerrera","districtType":"Ranchería","municipality":"Comala","municipalityId":"003","city":"","cityId":"","state":"Colima","stateId":"06","stateCode":"COL","zip":"28464"},{"district":"La María","districtType":"Ranchería","municipality":"Comala","municipalityId":"003","city":"","cityId":"","state":"Colima","stateId":"06","stateCode":"COL","zip":"28464"},{"district":"Los Colomos","districtType":"Ranchería","municipality":"Comala","municipalityId":"003","city":"","cityId":"","state":"Colima","stateId":"06","stateCode":"COL","zip":"28465"},{"district":"Agosto","districtType":"Ranchería","municipality":"Comala","municipalityId":"003","city":"","cityId":"","state":"Colima","stateId":"06","stateCode":"COL","zip":"28466"},{"district":"Colomitos","districtType":"Ranchería","municipality":"Comala","municipalityId":"003","city":"","cityId":"","state":"Colima","stateId":"06","stateCode":"COL","zip":"28466"},{"district":"El Remudadero","districtType":"Ranchería","municipality":"Comala","municipalityId":"003","city":"","cityId":"","state":"Colima","stateId":"06","stateCode":"COL","zip":"28466"},{"district":"Campo Cuatro","districtType":"Ranchería","municipality":"Comala","municipalityId":"003","city":"","cityId":"","state":"Colima","stateId":"06","stateCode":"COL","zip":"28469"},{"district":"El Toreo","districtType":"Colonia","municipality":"Cuauhtémoc","municipalityId":"005","city":"","cityId":"","state":"Colima","stateId":"06","stateCode":"COL","zip":"28500"},{"district":"Cuauhtémoc","districtType":"Pueblo","municipality":"Cuauhtémoc","municipalityId":"005","city":"","cityId":"","state":"Colima","stateId":"06","stateCode":"COL","zip":"28500"},{"district":"El Rastro","districtType":"Colonia","municipality":"Cuauhtémoc","municipalityId":"005","city":"","cityId":"","state":"Colima","stateId":"06","stateCode":"COL","zip":"28500"},{"district":"La Presa","districtType":"Colonia","municipality":"Cuauhtémoc","municipalityId":"005","city":"","cityId":"","state":"Colima","stateId":"06","stateCode":"COL","zip":"28504"},{"district":"La Cayetana","districtType":"Colonia","municipality":"Cuauhtémoc","municipalityId":"005","city":"","cityId":"","state":"Colima","stateId":"06","stateCode":"COL","zip":"28504"},{"district":"Griselda Alvarez Ponce de León","districtType":"Colonia","municipality":"Cuauhtémoc","municipalityId":"005","city":"","cityId":"","state":"Colima","stateId":"06","stateCode":"COL","zip":"28504"},{"district":"Los Monos","districtType":"Colonia","municipality":"Cuauhtémoc","municipalityId":"005","city":"","cityId":"","state":"Colima","stateId":"06","stateCode":"COL","zip":"28504"},{"district":"San Rafael","districtType":"Fraccionamiento","municipality":"Cuauhtémoc","municipalityId":"005","city":"","cityId":"","state":"Colima","stateId":"06","stateCode":"COL","zip":"28504"},{"district":"Campestre San Fermín","districtType":"Colonia","municipality":"Cuauhtémoc","municipalityId":"005","city":"","cityId":"","state":"Colima","stateId":"06","stateCode":"COL","zip":"28504"},{"district":"La Escondida","districtType":"Colonia","municipality":"Cuauhtémoc","municipalityId":"005","city":"","cityId":"","state":"Colima","stateId":"06","stateCode":"COL","zip":"28504"},{"district":"Emiliano Zapata","districtType":"Colonia","municipality":"Cuauhtémoc","municipalityId":"005","city":"","cityId":"","state":"Colima","stateId":"06","stateCode":"COL","zip":"28506"},{"district":"San Jerónimo","districtType":"Colonia","municipality":"Cuauhtémoc","municipalityId":"005","city":"","cityId":"","state":"Colima","stateId":"06","stateCode":"COL","zip":"28506"},{"district":"Valle Real","districtType":"Colonia","municipality":"Cuauhtémoc","municipalityId":"005","city":"","cityId":"","state":"Colima","stateId":"06","stateCode":"COL","zip":"28507"},{"district":"Las Higueras","districtType":"Colonia","municipality":"Cuauhtémoc","municipalityId":"005","city":"","cityId":"","state":"Colima","stateId":"06","stateCode":"COL","zip":"28507"},{"district":"Estación Alzada","districtType":"Paraje","municipality":"Cuauhtémoc","municipalityId":"005","city":"","cityId":"","state":"Colima","stateId":"06","stateCode":"COL","zip":"28509"},{"district":"Quesería","districtType":"Hacienda","municipality":"Cuauhtémoc","municipalityId":"005","city":"","cityId":"","state":"Colima","stateId":"06","stateCode":"COL","zip":"28510"},{"district":"Ermita","districtType":"Colonia","municipality":"Cuauhtémoc","municipalityId":"005","city":"","cityId":"","state":"Colima","stateId":"06","stateCode":"COL","zip":"28513"},{"district":"La Cruz","districtType":"Colonia","municipality":"Cuauhtémoc","municipalityId":"005","city":"","cityId":"","state":"Colima","stateId":"06","stateCode":"COL","zip":"28514"},{"district":"Concepción Barbosa","districtType":"Colonia","municipality":"Cuauhtémoc","municipalityId":"005","city":"","cityId":"","state":"Colima","stateId":"06","stateCode":"COL","zip":"28515"},{"district":"Arsenio Farell Cubillas","districtType":"Colonia","municipality":"Cuauhtémoc","municipalityId":"005","city":"","cityId":"","state":"Colima","stateId":"06","stateCode":"COL","zip":"28516"},{"district":"Solidaridad","districtType":"Colonia","municipality":"Cuauhtémoc","municipalityId":"005","city":"","cityId":"","state":"Colima","stateId":"06","stateCode":"COL","zip":"28517"},{"district":"Alcaraces","districtType":"Ranchería","municipality":"Cuauhtémoc","municipalityId":"005","city":"","cityId":"","state":"Colima","stateId":"06","stateCode":"COL","zip":"28520"},{"district":"Palmillas","districtType":"Ranchería","municipality":"Cuauhtémoc","municipalityId":"005","city":"","cityId":"","state":"Colima","stateId":"06","stateCode":"COL","zip":"28521"},{"district":"El Barro","districtType":"Ranchería","municipality":"Cuauhtémoc","municipalityId":"005","city":"","cityId":"","state":"Colima","stateId":"06","stateCode":"COL","zip":"28522"},{"district":"Cerro Colorado","districtType":"Ranchería","municipality":"Cuauhtémoc","municipalityId":"005","city":"","cityId":"","state":"Colima","stateId":"06","stateCode":"COL","zip":"28523"},{"district":"Chiapa","districtType":"Ranchería","municipality":"Cuauhtémoc","municipalityId":"005","city":"","cityId":"","state":"Colima","stateId":"06","stateCode":"COL","zip":"28530"},{"district":"Chiapa","districtType":"Hacienda","municipality":"Cuauhtémoc","municipalityId":"005","city":"","cityId":"","state":"Colima","stateId":"06","stateCode":"COL","zip":"28530"},{"district":"Ocotillo","districtType":"Ranchería","municipality":"Cuauhtémoc","municipalityId":"005","city":"","cityId":"","state":"Colima","stateId":"06","stateCode":"COL","zip":"28530"},{"district":"Montitlán","districtType":"Ranchería","municipality":"Cuauhtémoc","municipalityId":"005","city":"","cityId":"","state":"Colima","stateId":"06","stateCode":"COL","zip":"28531"},{"district":"Naranjal","districtType":"Ranchería","municipality":"Cuauhtémoc","municipalityId":"005","city":"","cityId":"","state":"Colima","stateId":"06","stateCode":"COL","zip":"28532"},{"district":"El Campanario","districtType":"Colonia","municipality":"Cuauhtémoc","municipalityId":"005","city":"","cityId":"","state":"Colima","stateId":"06","stateCode":"COL","zip":"28550"},{"district":"El Trapiche","districtType":"Ranchería","municipality":"Cuauhtémoc","municipalityId":"005","city":"","cityId":"","state":"Colima","stateId":"06","stateCode":"COL","zip":"28550"},{"district":"San Joaquín","districtType":"Ranchería","municipality":"Cuauhtémoc","municipalityId":"005","city":"","cityId":"","state":"Colima","stateId":"06","stateCode":"COL","zip":"28550"},{"district":"El Cóbano","districtType":"Hacienda","municipality":"Cuauhtémoc","municipalityId":"005","city":"","cityId":"","state":"Colima","stateId":"06","stateCode":"COL","zip":"28553"},{"district":"El Parián","districtType":"Ranchería","municipality":"Cuauhtémoc","municipalityId":"005","city":"","cityId":"","state":"Colima","stateId":"06","stateCode":"COL","zip":"28554"},{"district":"La Palma","districtType":"Ranchería","municipality":"Cuauhtémoc","municipalityId":"005","city":"","cityId":"","state":"Colima","stateId":"06","stateCode":"COL","zip":"28555"},{"district":"ISENCO","districtType":"Equipamiento","municipality":"Cuauhtémoc","municipalityId":"005","city":"","cityId":"","state":"Colima","stateId":"06","stateCode":"COL","zip":"28557"},{"district":"Buenavista","districtType":"Ejido","municipality":"Cuauhtémoc","municipalityId":"005","city":"","cityId":"","state":"Colima","stateId":"06","stateCode":"COL","zip":"28590"},{"district":"Bajío de la Leona","districtType":"Pueblo","municipality":"Cuauhtémoc","municipalityId":"005","city":"","cityId":"","state":"Colima","stateId":"06","stateCode":"COL","zip":"28597"},{"district":"Colima (Lic. Miguel de la Madrid Hurtado)","districtType":"Aeropuerto","municipality":"Cuauhtémoc","municipalityId":"005","city":"","cityId":"","state":"Colima","stateId":"06","stateCode":"COL","zip":"28599"},{"district":"Puerta de Ánzar","districtType":"Ranchería","municipality":"Colima","municipalityId":"002","city":"","cityId":"","state":"Colima","stateId":"06","stateCode":"COL","zip":"28600"},{"district":"Los Tepames","districtType":"Pueblo","municipality":"Colima","municipalityId":"002","city":"","cityId":"","state":"Colima","stateId":"06","stateCode":"COL","zip":"28600"},{"district":"Estapilla","districtType":"Ejido","municipality":"Colima","municipalityId":"002","city":"","cityId":"","state":"Colima","stateId":"06","stateCode":"COL","zip":"28600"},{"district":"El Amarradero","districtType":"Ranchería","municipality":"Colima","municipalityId":"002","city":"","cityId":"","state":"Colima","stateId":"06","stateCode":"COL","zip":"28600"},{"district":"Piscila","districtType":"Ejido","municipality":"Colima","municipalityId":"002","city":"","cityId":"","state":"Colima","stateId":"06","stateCode":"COL","zip":"28600"},{"district":"Ticuizitán","districtType":"Ranchería","municipality":"Colima","municipalityId":"002","city":"","cityId":"","state":"Colima","stateId":"06","stateCode":"COL","zip":"28600"},{"district":"Tinajas","districtType":"Ranchería","municipality":"Colima","municipalityId":"002","city":"","cityId":"","state":"Colima","stateId":"06","stateCode":"COL","zip":"28600"},{"district":"La Tabaquera","districtType":"Ranchería","municipality":"Colima","municipalityId":"002","city":"","cityId":"","state":"Colima","stateId":"06","stateCode":"COL","zip":"28602"},{"district":"Las Anonas","districtType":"Ranchería","municipality":"Colima","municipalityId":"002","city":"","cityId":"","state":"Colima","stateId":"06","stateCode":"COL","zip":"28602"},{"district":"Francisco I Madero","districtType":"Ranchería","municipality":"Colima","municipalityId":"002","city":"","cityId":"","state":"Colima","stateId":"06","stateCode":"COL","zip":"28610"},{"district":"El Chanal","districtType":"Ranchería","municipality":"Colima","municipalityId":"002","city":"","cityId":"","state":"Colima","stateId":"06","stateCode":"COL","zip":"28610"},{"district":"La Capacha","districtType":"Ranchería","municipality":"Colima","municipalityId":"002","city":"","cityId":"","state":"Colima","stateId":"06","stateCode":"COL","zip":"28613"},{"district":"La Puerta Pesada","districtType":"Ranchería","municipality":"Colima","municipalityId":"002","city":"","cityId":"","state":"Colima","stateId":"06","stateCode":"COL","zip":"28615"},{"district":"Cardona","districtType":"Ejido","municipality":"Colima","municipalityId":"002","city":"","cityId":"","state":"Colima","stateId":"06","stateCode":"COL","zip":"28619"},{"district":"Ejidal","districtType":"Colonia","municipality":"Colima","municipalityId":"002","city":"","cityId":"","state":"Colima","stateId":"06","stateCode":"COL","zip":"28620"},{"district":"Lo de Villa","districtType":"Colonia","municipality":"Colima","municipalityId":"002","city":"","cityId":"","state":"Colima","stateId":"06","stateCode":"COL","zip":"28620"},{"district":"J. Jesús Ríos","districtType":"Colonia","municipality":"Colima","municipalityId":"002","city":"","cityId":"","state":"Colima","stateId":"06","stateCode":"COL","zip":"28620"},{"district":"Loma de Juárez (El Mezquite)","districtType":"Ranchería","municipality":"Colima","municipalityId":"002","city":"","cityId":"","state":"Colima","stateId":"06","stateCode":"COL","zip":"28627"},{"district":"Los Mezcales","districtType":"Ranchería","municipality":"Colima","municipalityId":"002","city":"","cityId":"","state":"Colima","stateId":"06","stateCode":"COL","zip":"28628"},{"district":"Las Golondrinas","districtType":"Ranchería","municipality":"Colima","municipalityId":"002","city":"","cityId":"","state":"Colima","stateId":"06","stateCode":"COL","zip":"28629"},{"district":"Loma de Juárez","districtType":"Ranchería","municipality":"Colima","municipalityId":"002","city":"","cityId":"","state":"Colima","stateId":"06","stateCode":"COL","zip":"28629"},{"district":"El Bordo","districtType":"Ranchería","municipality":"Colima","municipalityId":"002","city":"","cityId":"","state":"Colima","stateId":"06","stateCode":"COL","zip":"28630"},{"district":"La Media Luna","districtType":"Pueblo","municipality":"Colima","municipalityId":"002","city":"","cityId":"","state":"Colima","stateId":"06","stateCode":"COL","zip":"28633"},{"district":"Trapichillos","districtType":"Ranchería","municipality":"Colima","municipalityId":"002","city":"","cityId":"","state":"Colima","stateId":"06","stateCode":"COL","zip":"28634"},{"district":"El Astillero de Abajo","districtType":"Ranchería","municipality":"Colima","municipalityId":"002","city":"","cityId":"","state":"Colima","stateId":"06","stateCode":"COL","zip":"28634"},{"district":"El Astillero de Arriba","districtType":"Ranchería","municipality":"Colima","municipalityId":"002","city":"","cityId":"","state":"Colima","stateId":"06","stateCode":"COL","zip":"28634"},{"district":"Ignacio Allende","districtType":"Pueblo","municipality":"Colima","municipalityId":"002","city":"","cityId":"","state":"Colima","stateId":"06","stateCode":"COL","zip":"28635"},{"district":"Corralitos","districtType":"Ranchería","municipality":"Colima","municipalityId":"002","city":"","cityId":"","state":"Colima","stateId":"06","stateCode":"COL","zip":"28638"},{"district":"Los Asmoles","districtType":"Ranchería","municipality":"Colima","municipalityId":"002","city":"","cityId":"","state":"Colima","stateId":"06","stateCode":"COL","zip":"28640"},{"district":"La Salada","districtType":"Ranchería","municipality":"Colima","municipalityId":"002","city":"","cityId":"","state":"Colima","stateId":"06","stateCode":"COL","zip":"28640"},{"district":"El Alpuyeque","districtType":"Ranchería","municipality":"Colima","municipalityId":"002","city":"","cityId":"","state":"Colima","stateId":"06","stateCode":"COL","zip":"28641"},{"district":"Acatitán","districtType":"Ranchería","municipality":"Colima","municipalityId":"002","city":"","cityId":"","state":"Colima","stateId":"06","stateCode":"COL","zip":"28645"},{"district":"Las Guásimas (Las Borregas)","districtType":"Ranchería","municipality":"Colima","municipalityId":"002","city":"","cityId":"","state":"Colima","stateId":"06","stateCode":"COL","zip":"28646"},{"district":"Los Ortices","districtType":"Ranchería","municipality":"Colima","municipalityId":"002","city":"","cityId":"","state":"Colima","stateId":"06","stateCode":"COL","zip":"28647"},{"district":"Paso del Zarco","districtType":"Ranchería","municipality":"Colima","municipalityId":"002","city":"","cityId":"","state":"Colima","stateId":"06","stateCode":"COL","zip":"28650"},{"district":"La Higuerita","districtType":"Ranchería","municipality":"Colima","municipalityId":"002","city":"","cityId":"","state":"Colima","stateId":"06","stateCode":"COL","zip":"28655"},{"district":"Las Tunas","districtType":"Ranchería","municipality":"Colima","municipalityId":"002","city":"","cityId":"","state":"Colima","stateId":"06","stateCode":"COL","zip":"28668"},{"district":"Mojotal","districtType":"Colonia","municipality":"Ixtlahuacán","municipalityId":"006","city":"","cityId":"","state":"Colima","stateId":"06","stateCode":"COL","zip":"28700"},{"district":"Agua de la Virgen","districtType":"Ranchería","municipality":"Ixtlahuacán","municipalityId":"006","city":"","cityId":"","state":"Colima","stateId":"06","stateCode":"COL","zip":"28700"},{"district":"Los Gobernadores","districtType":"Colonia","municipality":"Ixtlahuacán","municipalityId":"006","city":"","cityId":"","state":"Colima","stateId":"06","stateCode":"COL","zip":"28700"},{"district":"Ojo de Agua","districtType":"Colonia","municipality":"Ixtlahuacán","municipalityId":"006","city":"","cityId":"","state":"Colima","stateId":"06","stateCode":"COL","zip":"28700"},{"district":"6 de Enero","districtType":"Colonia","municipality":"Ixtlahuacán","municipalityId":"006","city":"","cityId":"","state":"Colima","stateId":"06","stateCode":"COL","zip":"28700"},{"district":"Ixtlahuácan","districtType":"Pueblo","municipality":"Ixtlahuacán","municipalityId":"006","city":"","cityId":"","state":"Colima","stateId":"06","stateCode":"COL","zip":"28700"},{"district":"Zinacamitlán (Los Chicos)","districtType":"Ranchería","municipality":"Ixtlahuacán","municipalityId":"006","city":"","cityId":"","state":"Colima","stateId":"06","stateCode":"COL","zip":"28700"},{"district":"11 Pueblos","districtType":"Colonia","municipality":"Ixtlahuacán","municipalityId":"006","city":"","cityId":"","state":"Colima","stateId":"06","stateCode":"COL","zip":"28700"},{"district":"Las Conchas","districtType":"Ranchería","municipality":"Ixtlahuacán","municipalityId":"006","city":"","cityId":"","state":"Colima","stateId":"06","stateCode":"COL","zip":"28701"},{"district":"Jiliotupa","districtType":"Ejido","municipality":"Ixtlahuacán","municipalityId":"006","city":"","cityId":"","state":"Colima","stateId":"06","stateCode":"COL","zip":"28702"},{"district":"Las Trancas","districtType":"Ejido","municipality":"Ixtlahuacán","municipalityId":"006","city":"","cityId":"","state":"Colima","stateId":"06","stateCode":"COL","zip":"28703"},{"district":"El Camichín (Veintiséis de Julio)","districtType":"Ranchería","municipality":"Ixtlahuacán","municipalityId":"006","city":"","cityId":"","state":"Colima","stateId":"06","stateCode":"COL","zip":"28704"},{"district":"Tamala","districtType":"Ranchería","municipality":"Ixtlahuacán","municipalityId":"006","city":"","cityId":"","state":"Colima","stateId":"06","stateCode":"COL","zip":"28705"},{"district":"Las Anonas","districtType":"Colonia","municipality":"Ixtlahuacán","municipalityId":"006","city":"","cityId":"","state":"Colima","stateId":"06","stateCode":"COL","zip":"28712"},{"district":"La Presa (Barranca del Rebozo)","districtType":"Ejido","municipality":"Ixtlahuacán","municipalityId":"006","city":"","cityId":"","state":"Colima","stateId":"06","stateCode":"COL","zip":"28712"},{"district":"Lázaro Cárdenas","districtType":"Colonia","municipality":"Ixtlahuacán","municipalityId":"006","city":"","cityId":"","state":"Colima","stateId":"06","stateCode":"COL","zip":"28712"},{"district":"Chamila","districtType":"Ranchería","municipality":"Ixtlahuacán","municipalityId":"006","city":"","cityId":"","state":"Colima","stateId":"06","stateCode":"COL","zip":"28717"},{"district":"Aquiles Serdán (Tamala)","districtType":"Ejido","municipality":"Ixtlahuacán","municipalityId":"006","city":"","cityId":"","state":"Colima","stateId":"06","stateCode":"COL","zip":"28720"},{"district":"San Gabriel","districtType":"Ranchería","municipality":"Ixtlahuacán","municipalityId":"006","city":"","cityId":"","state":"Colima","stateId":"06","stateCode":"COL","zip":"28722"},{"district":"Rancho Solo","districtType":"Ranchería","municipality":"Ixtlahuacán","municipalityId":"006","city":"","cityId":"","state":"Colima","stateId":"06","stateCode":"COL","zip":"28724"},{"district":"La Tepamera","districtType":"Ranchería","municipality":"Ixtlahuacán","municipalityId":"006","city":"","cityId":"","state":"Colima","stateId":"06","stateCode":"COL","zip":"28731"},{"district":"Santa Rosa","districtType":"Ranchería","municipality":"Ixtlahuacán","municipalityId":"006","city":"","cityId":"","state":"Colima","stateId":"06","stateCode":"COL","zip":"28732"},{"district":"La Tunita","districtType":"Ranchería","municipality":"Ixtlahuacán","municipalityId":"006","city":"","cityId":"","state":"Colima","stateId":"06","stateCode":"COL","zip":"28733"},{"district":"El Aserradero","districtType":"Ranchería","municipality":"Ixtlahuacán","municipalityId":"006","city":"","cityId":"","state":"Colima","stateId":"06","stateCode":"COL","zip":"28734"},{"district":"El Capire","districtType":"Ranchería","municipality":"Ixtlahuacán","municipalityId":"006","city":"","cityId":"","state":"Colima","stateId":"06","stateCode":"COL","zip":"28735"},{"district":"Higueras de Santa Rosa","districtType":"Ranchería","municipality":"Ixtlahuacán","municipalityId":"006","city":"","cityId":"","state":"Colima","stateId":"06","stateCode":"COL","zip":"28735"},{"district":"El Galaje","districtType":"Ranchería","municipality":"Ixtlahuacán","municipalityId":"006","city":"","cityId":"","state":"Colima","stateId":"06","stateCode":"COL","zip":"28739"},{"district":"Minatitlán","districtType":"Ciudad","municipality":"Minatitlán","municipalityId":"008","city":"","cityId":"","state":"Colima","stateId":"06","stateCode":"COL","zip":"28750"},{"district":"Carlos de La Madrid Vejar","districtType":"Colonia","municipality":"Minatitlán","municipalityId":"008","city":"","cityId":"","state":"Colima","stateId":"06","stateCode":"COL","zip":"28750"},{"district":"Infonavit","districtType":"Colonia","municipality":"Minatitlán","municipalityId":"008","city":"","cityId":"","state":"Colima","stateId":"06","stateCode":"COL","zip":"28750"},{"district":"Progreso","districtType":"Colonia","municipality":"Minatitlán","municipalityId":"008","city":"","cityId":"","state":"Colima","stateId":"06","stateCode":"COL","zip":"28750"},{"district":"Agua Salada","districtType":"Ejido","municipality":"Minatitlán","municipalityId":"008","city":"","cityId":"","state":"Colima","stateId":"06","stateCode":"COL","zip":"28760"},{"district":"La Loma","districtType":"Ranchería","municipality":"Minatitlán","municipalityId":"008","city":"","cityId":"","state":"Colima","stateId":"06","stateCode":"COL","zip":"28761"},{"district":"El Sauz","districtType":"Ranchería","municipality":"Minatitlán","municipalityId":"008","city":"","cityId":"","state":"Colima","stateId":"06","stateCode":"COL","zip":"28765"},{"district":"San Antonio","districtType":"Congregación","municipality":"Minatitlán","municipalityId":"008","city":"","cityId":"","state":"Colima","stateId":"06","stateCode":"COL","zip":"28767"},{"district":"Paticajo","districtType":"Colonia","municipality":"Minatitlán","municipalityId":"008","city":"","cityId":"","state":"Colima","stateId":"06","stateCode":"COL","zip":"28767"},{"district":"El Terrero","districtType":"Ranchería","municipality":"Minatitlán","municipalityId":"008","city":"","cityId":"","state":"Colima","stateId":"06","stateCode":"COL","zip":"28772"},{"district":"Ranchitos","districtType":"Ranchería","municipality":"Minatitlán","municipalityId":"008","city":"","cityId":"","state":"Colima","stateId":"06","stateCode":"COL","zip":"28774"},{"district":"El Arrayanal","districtType":"Ranchería","municipality":"Minatitlán","municipalityId":"008","city":"","cityId":"","state":"Colima","stateId":"06","stateCode":"COL","zip":"28780"},{"district":"La Playa (La Playita)","districtType":"Ranchería","municipality":"Minatitlán","municipalityId":"008","city":"","cityId":"","state":"Colima","stateId":"06","stateCode":"COL","zip":"28783"},{"district":"Potrero Grande","districtType":"Ranchería","municipality":"Minatitlán","municipalityId":"008","city":"","cityId":"","state":"Colima","stateId":"06","stateCode":"COL","zip":"28784"},{"district":"Plan de Méndez","districtType":"Ranchería","municipality":"Minatitlán","municipalityId":"008","city":"","cityId":"","state":"Colima","stateId":"06","stateCode":"COL","zip":"28785"},{"district":"Palo Verde","districtType":"Ranchería","municipality":"Minatitlán","municipalityId":"008","city":"","cityId":"","state":"Colima","stateId":"06","stateCode":"COL","zip":"28788"},{"district":"Peña Colorada (Fierro)","districtType":"Pueblo","municipality":"Minatitlán","municipalityId":"008","city":"","cityId":"","state":"Colima","stateId":"06","stateCode":"COL","zip":"28792"},{"district":"Las Guásimas","districtType":"Ranchería","municipality":"Minatitlán","municipalityId":"008","city":"","cityId":"","state":"Colima","stateId":"06","stateCode":"COL","zip":"28792"},{"district":"El Nogal","districtType":"Ranchería","municipality":"Minatitlán","municipalityId":"008","city":"","cityId":"","state":"Colima","stateId":"06","stateCode":"COL","zip":"28795"},{"district":"Agua Fría","districtType":"Ranchería","municipality":"Minatitlán","municipalityId":"008","city":"","cityId":"","state":"Colima","stateId":"06","stateCode":"COL","zip":"28796"},{"district":"El Paraíso","districtType":"Colonia","municipality":"Manzanillo","municipalityId":"007","city":"","cityId":"","state":"Colima","stateId":"06","stateCode":"COL","zip":"28800"},{"district":"La Lupita","districtType":"Colonia","municipality":"Manzanillo","municipalityId":"007","city":"","cityId":"","state":"Colima","stateId":"06","stateCode":"COL","zip":"28800"},{"district":"5 de Mayo","districtType":"Colonia","municipality":"Manzanillo","municipalityId":"007","city":"","cityId":"","state":"Colima","stateId":"06","stateCode":"COL","zip":"28800"},{"district":"Ejido las Juntas","districtType":"Colonia","municipality":"Manzanillo","municipalityId":"007","city":"","cityId":"","state":"Colima","stateId":"06","stateCode":"COL","zip":"28800"},{"district":"El Garcero","districtType":"Colonia","municipality":"Manzanillo","municipalityId":"007","city":"","cityId":"","state":"Colima","stateId":"06","stateCode":"COL","zip":"28800"},{"district":"Arturo Noriega Pizano","districtType":"Colonia","municipality":"Manzanillo","municipalityId":"007","city":"","cityId":"","state":"Colima","stateId":"06","stateCode":"COL","zip":"28800"},{"district":"La Cima","districtType":"Colonia","municipality":"Manzanillo","municipalityId":"007","city":"","cityId":"","state":"Colima","stateId":"06","stateCode":"COL","zip":"28800"},{"district":"Lázaro Cárdenas","districtType":"Colonia","municipality":"Manzanillo","municipalityId":"007","city":"","cityId":"","state":"Colima","stateId":"06","stateCode":"COL","zip":"28800"},{"district":"María Luisa Campero","districtType":"Colonia","municipality":"Manzanillo","municipalityId":"007","city":"","cityId":"","state":"Colima","stateId":"06","stateCode":"COL","zip":"28800"},{"district":"La Playita","districtType":"Colonia","municipality":"Manzanillo","municipalityId":"007","city":"","cityId":"","state":"Colima","stateId":"06","stateCode":"COL","zip":"28800"},{"district":"El Colomo","districtType":"Colonia","municipality":"Manzanillo","municipalityId":"007","city":"","cityId":"","state":"Colima","stateId":"06","stateCode":"COL","zip":"28800"},{"district":"San Francisco","districtType":"Colonia","municipality":"Manzanillo","municipalityId":"007","city":"","cityId":"","state":"Colima","stateId":"06","stateCode":"COL","zip":"28800"},{"district":"20 de Noviembre","districtType":"Colonia","municipality":"Manzanillo","municipalityId":"007","city":"","cityId":"","state":"Colima","stateId":"06","stateCode":"COL","zip":"28800"},{"district":"El Libramiento","districtType":"Colonia","municipality":"Manzanillo","municipalityId":"007","city":"","cityId":"","state":"Colima","stateId":"06","stateCode":"COL","zip":"28800"},{"district":"Miguel de La Madrid","districtType":"Colonia","municipality":"Manzanillo","municipalityId":"007","city":"","cityId":"","state":"Colima","stateId":"06","stateCode":"COL","zip":"28800"},{"district":"Marina Nacional","districtType":"Colonia","municipality":"Manzanillo","municipalityId":"007","city":"","cityId":"","state":"Colima","stateId":"06","stateCode":"COL","zip":"28800"},{"district":"Residencial el Colomo","districtType":"Fraccionamiento","municipality":"Manzanillo","municipalityId":"007","city":"","cityId":"","state":"Colima","stateId":"06","stateCode":"COL","zip":"28800"},{"district":"Las Juntas","districtType":"Ejido","municipality":"Manzanillo","municipalityId":"007","city":"","cityId":"","state":"Colima","stateId":"06","stateCode":"COL","zip":"28800"},{"district":"López Mateos","districtType":"Colonia","municipality":"Manzanillo","municipalityId":"007","city":"","cityId":"","state":"Colima","stateId":"06","stateCode":"COL","zip":"28800"},{"district":"La Calma","districtType":"Colonia","municipality":"Manzanillo","municipalityId":"007","city":"","cityId":"","state":"Colima","stateId":"06","stateCode":"COL","zip":"28800"},{"district":"Lic. Luis Echeverría Álvarez","districtType":"Ejido","municipality":"Manzanillo","municipalityId":"007","city":"","cityId":"","state":"Colima","stateId":"06","stateCode":"COL","zip":"28807"},{"district":"Villa Florida","districtType":"Colonia","municipality":"Manzanillo","municipalityId":"007","city":"","cityId":"","state":"Colima","stateId":"06","stateCode":"COL","zip":"28808"},{"district":"Aquarium","districtType":"Fraccionamiento","municipality":"Manzanillo","municipalityId":"007","city":"","cityId":"","state":"Colima","stateId":"06","stateCode":"COL","zip":"28808"},{"district":"Campos","districtType":"Colonia","municipality":"Manzanillo","municipalityId":"007","city":"","cityId":"","state":"Colima","stateId":"06","stateCode":"COL","zip":"28809"},{"district":"Los Cedros","districtType":"Ranchería","municipality":"Manzanillo","municipalityId":"007","city":"","cityId":"","state":"Colima","stateId":"06","stateCode":"COL","zip":"28810"},{"district":"Lomas de Avila Camacho","districtType":"Ejido","municipality":"Manzanillo","municipalityId":"007","city":"","cityId":"","state":"Colima","stateId":"06","stateCode":"COL","zip":"28811"},{"district":"El Huizcolote","districtType":"Ejido","municipality":"Manzanillo","municipalityId":"007","city":"","cityId":"","state":"Colima","stateId":"06","stateCode":"COL","zip":"28812"},{"district":"Ciruelito de la Marina","districtType":"Ranchería","municipality":"Manzanillo","municipalityId":"007","city":"","cityId":"","state":"Colima","stateId":"06","stateCode":"COL","zip":"28813"},{"district":"Camichín","districtType":"Ranchería","municipality":"Manzanillo","municipalityId":"007","city":"","cityId":"","state":"Colima","stateId":"06","stateCode":"COL","zip":"28814"},{"district":"Canoas","districtType":"Ranchería","municipality":"Manzanillo","municipalityId":"007","city":"","cityId":"","state":"Colima","stateId":"06","stateCode":"COL","zip":"28815"},{"district":"El Puertecillo O Tepeguajes","districtType":"Ranchería","municipality":"Manzanillo","municipalityId":"007","city":"","cityId":"","state":"Colima","stateId":"06","stateCode":"COL","zip":"28815"},{"district":"La Rosa","districtType":"Ejido","municipality":"Manzanillo","municipalityId":"007","city":"","cityId":"","state":"Colima","stateId":"06","stateCode":"COL","zip":"28817"},{"district":"San José de Lúmber (Piedra Redonda)","districtType":"Ranchería","municipality":"Manzanillo","municipalityId":"007","city":"","cityId":"","state":"Colima","stateId":"06","stateCode":"COL","zip":"28819"},{"district":"Veladero de los Otates","districtType":"Ranchería","municipality":"Manzanillo","municipalityId":"007","city":"","cityId":"","state":"Colima","stateId":"06","stateCode":"COL","zip":"28820"},{"district":"El Chico","districtType":"Colonia","municipality":"Manzanillo","municipalityId":"007","city":"","cityId":"","state":"Colima","stateId":"06","stateCode":"COL","zip":"28820"},{"district":"La Lima","districtType":"Ranchería","municipality":"Manzanillo","municipalityId":"007","city":"","cityId":"","state":"Colima","stateId":"06","stateCode":"COL","zip":"28825"},{"district":"Don Tomás","districtType":"Ranchería","municipality":"Manzanillo","municipalityId":"007","city":"","cityId":"","state":"Colima","stateId":"06","stateCode":"COL","zip":"28826"},{"district":"El Chavarín","districtType":"Ranchería","municipality":"Manzanillo","municipalityId":"007","city":"","cityId":"","state":"Colima","stateId":"06","stateCode":"COL","zip":"28830"},{"district":"El Charco","districtType":"Ejido","municipality":"Manzanillo","municipalityId":"007","city":"","cityId":"","state":"Colima","stateId":"06","stateCode":"COL","zip":"28833"},{"district":"Río Marabasco","districtType":"Ejido","municipality":"Manzanillo","municipalityId":"007","city":"","cityId":"","state":"Colima","stateId":"06","stateCode":"COL","zip":"28834"},{"district":"Emiliano Zapata","districtType":"Ranchería","municipality":"Manzanillo","municipalityId":"007","city":"","cityId":"","state":"Colima","stateId":"06","stateCode":"COL","zip":"28836"},{"district":"La Ciénega","districtType":"Ranchería","municipality":"Manzanillo","municipalityId":"007","city":"","cityId":"","state":"Colima","stateId":"06","stateCode":"COL","zip":"28837"},{"district":"El Centinela de Arriba","districtType":"Ranchería","municipality":"Manzanillo","municipalityId":"007","city":"","cityId":"","state":"Colima","stateId":"06","stateCode":"COL","zip":"28838"},{"district":"La Culebra (Colimilla)","districtType":"Pueblo","municipality":"Manzanillo","municipalityId":"007","city":"","cityId":"","state":"Colima","stateId":"06","stateCode":"COL","zip":"28838"},{"district":"Isla Navidad","districtType":"Fraccionamiento","municipality":"Manzanillo","municipalityId":"007","city":"","cityId":"","state":"Colima","stateId":"06","stateCode":"COL","zip":"28838"},{"district":"Chandiablo","districtType":"Ranchería","municipality":"Manzanillo","municipalityId":"007","city":"","cityId":"","state":"Colima","stateId":"06","stateCode":"COL","zip":"28840"},{"district":"Valle Paraíso","districtType":"Fraccionamiento","municipality":"Manzanillo","municipalityId":"007","city":"","cityId":"","state":"Colima","stateId":"06","stateCode":"COL","zip":"28844"},{"district":"El Petatero","districtType":"Ranchería","municipality":"Manzanillo","municipalityId":"007","city":"","cityId":"","state":"Colima","stateId":"06","stateCode":"COL","zip":"28849"},{"district":"Camotlán de Miraflores","districtType":"Ranchería","municipality":"Manzanillo","municipalityId":"007","city":"","cityId":"","state":"Colima","stateId":"06","stateCode":"COL","zip":"28850"},{"district":"Veladero de Camotlán","districtType":"Ranchería","municipality":"Manzanillo","municipalityId":"007","city":"","cityId":"","state":"Colima","stateId":"06","stateCode":"COL","zip":"28855"},{"district":"El Bosque","districtType":"Ranchería","municipality":"Manzanillo","municipalityId":"007","city":"","cityId":"","state":"Colima","stateId":"06","stateCode":"COL","zip":"28858"},{"district":"Santiago","districtType":"Colonia","municipality":"Manzanillo","municipalityId":"007","city":"Manzanillo","cityId":"02","state":"Colima","stateId":"06","stateCode":"COL","zip":"28860"},{"district":"Olas Altas","districtType":"Colonia","municipality":"Manzanillo","municipalityId":"007","city":"Manzanillo","cityId":"02","state":"Colima","stateId":"06","stateCode":"COL","zip":"28860"},{"district":"La Querencia","districtType":"Colonia","municipality":"Manzanillo","municipalityId":"007","city":"Manzanillo","cityId":"02","state":"Colima","stateId":"06","stateCode":"COL","zip":"28860"},{"district":"El Cerrito","districtType":"Colonia","municipality":"Manzanillo","municipalityId":"007","city":"Manzanillo","cityId":"02","state":"Colima","stateId":"06","stateCode":"COL","zip":"28863"},{"district":"Francisco Villa","districtType":"Colonia","municipality":"Manzanillo","municipalityId":"007","city":"Manzanillo","cityId":"02","state":"Colima","stateId":"06","stateCode":"COL","zip":"28863"},{"district":"Colinas de Santiago","districtType":"Colonia","municipality":"Manzanillo","municipalityId":"007","city":"Manzanillo","cityId":"02","state":"Colima","stateId":"06","stateCode":"COL","zip":"28863"},{"district":"La Cruz","districtType":"Colonia","municipality":"Manzanillo","municipalityId":"007","city":"Manzanillo","cityId":"02","state":"Colima","stateId":"06","stateCode":"COL","zip":"28863"},{"district":"Obradores","districtType":"Colonia","municipality":"Manzanillo","municipalityId":"007","city":"Manzanillo","cityId":"02","state":"Colima","stateId":"06","stateCode":"COL","zip":"28863"},{"district":"Porfirio Gaytán","districtType":"Colonia","municipality":"Manzanillo","municipalityId":"007","city":"Manzanillo","cityId":"02","state":"Colima","stateId":"06","stateCode":"COL","zip":"28863"},{"district":"San Isidro Labrador","districtType":"Colonia","municipality":"Manzanillo","municipalityId":"007","city":"Manzanillo","cityId":"02","state":"Colima","stateId":"06","stateCode":"COL","zip":"28863"},{"district":"El Jabalí","districtType":"Colonia","municipality":"Manzanillo","municipalityId":"007","city":"Manzanillo","cityId":"02","state":"Colima","stateId":"06","stateCode":"COL","zip":"28863"},{"district":"Las Flores","districtType":"Colonia","municipality":"Manzanillo","municipalityId":"007","city":"Manzanillo","cityId":"02","state":"Colima","stateId":"06","stateCode":"COL","zip":"28863"},{"district":"Perla de Occidente","districtType":"Colonia","municipality":"Manzanillo","municipalityId":"007","city":"Manzanillo","cityId":"02","state":"Colima","stateId":"06","stateCode":"COL","zip":"28863"},{"district":"San Martín","districtType":"Colonia","municipality":"Manzanillo","municipalityId":"007","city":"Manzanillo","cityId":"02","state":"Colima","stateId":"06","stateCode":"COL","zip":"28863"},{"district":"Loma Bonita","districtType":"Colonia","municipality":"Manzanillo","municipalityId":"007","city":"Manzanillo","cityId":"02","state":"Colima","stateId":"06","stateCode":"COL","zip":"28863"},{"district":"Jabalinera","districtType":"Colonia","municipality":"Manzanillo","municipalityId":"007","city":"Manzanillo","cityId":"02","state":"Colima","stateId":"06","stateCode":"COL","zip":"28863"},{"district":"Abelardo L. Rodríguez","districtType":"Colonia","municipality":"Manzanillo","municipalityId":"007","city":"Manzanillo","cityId":"02","state":"Colima","stateId":"06","stateCode":"COL","zip":"28863"},{"district":"Barrio Nuevo","districtType":"Colonia","municipality":"Manzanillo","municipalityId":"007","city":"Manzanillo","cityId":"02","state":"Colima","stateId":"06","stateCode":"COL","zip":"28863"},{"district":"Pedro Núñez","districtType":"Colonia","municipality":"Manzanillo","municipalityId":"007","city":"Manzanillo","cityId":"02","state":"Colima","stateId":"06","stateCode":"COL","zip":"28863"},{"district":"Vista del Mar","districtType":"Fraccionamiento","municipality":"Manzanillo","municipalityId":"007","city":"Manzanillo","cityId":"02","state":"Colima","stateId":"06","stateCode":"COL","zip":"28863"},{"district":"Santa Carolina","districtType":"Fraccionamiento","municipality":"Manzanillo","municipalityId":"007","city":"Manzanillo","cityId":"02","state":"Colima","stateId":"06","stateCode":"COL","zip":"28864"},{"district":"Viveros Pelayo","districtType":"Colonia","municipality":"Manzanillo","municipalityId":"007","city":"Manzanillo","cityId":"02","state":"Colima","stateId":"06","stateCode":"COL","zip":"28864"},{"district":"Azul Marino","districtType":"Residencial","municipality":"Manzanillo","municipalityId":"007","city":"Manzanillo","cityId":"02","state":"Colima","stateId":"06","stateCode":"COL","zip":"28864"},{"district":"Del Mar","districtType":"Fraccionamiento","municipality":"Manzanillo","municipalityId":"007","city":"Manzanillo","cityId":"02","state":"Colima","stateId":"06","stateCode":"COL","zip":"28864"},{"district":"Villas del Pacífico","districtType":"Fraccionamiento","municipality":"Manzanillo","municipalityId":"007","city":"Manzanillo","cityId":"02","state":"Colima","stateId":"06","stateCode":"COL","zip":"28864"},{"district":"Valle del Coral","districtType":"Fraccionamiento","municipality":"Manzanillo","municipalityId":"007","city":"Manzanillo","cityId":"02","state":"Colima","stateId":"06","stateCode":"COL","zip":"28864"},{"district":"Almendros Residencial II","districtType":"Fraccionamiento","municipality":"Manzanillo","municipalityId":"007","city":"Manzanillo","cityId":"02","state":"Colima","stateId":"06","stateCode":"COL","zip":"28864"},{"district":"Montebello","districtType":"Colonia","municipality":"Manzanillo","municipalityId":"007","city":"Manzanillo","cityId":"02","state":"Colima","stateId":"06","stateCode":"COL","zip":"28864"},{"district":"Valle Dorado","districtType":"Fraccionamiento","municipality":"Manzanillo","municipalityId":"007","city":"Manzanillo","cityId":"02","state":"Colima","stateId":"06","stateCode":"COL","zip":"28864"},{"district":"Las Huertas","districtType":"Fraccionamiento","municipality":"Manzanillo","municipalityId":"007","city":"Manzanillo","cityId":"02","state":"Colima","stateId":"06","stateCode":"COL","zip":"28864"},{"district":"La Joya I","districtType":"Fraccionamiento","municipality":"Manzanillo","municipalityId":"007","city":"Manzanillo","cityId":"02","state":"Colima","stateId":"06","stateCode":"COL","zip":"28864"},{"district":"Deportiva","districtType":"Colonia","municipality":"Manzanillo","municipalityId":"007","city":"Manzanillo","cityId":"02","state":"Colima","stateId":"06","stateCode":"COL","zip":"28864"},{"district":"Jardines de Santiago","districtType":"Fraccionamiento","municipality":"Manzanillo","municipalityId":"007","city":"Manzanillo","cityId":"02","state":"Colima","stateId":"06","stateCode":"COL","zip":"28864"},{"district":"Obrera","districtType":"Colonia","municipality":"Manzanillo","municipalityId":"007","city":"Manzanillo","cityId":"02","state":"Colima","stateId":"06","stateCode":"COL","zip":"28864"},{"district":"Cantamar","districtType":"Fraccionamiento","municipality":"Manzanillo","municipalityId":"007","city":"Manzanillo","cityId":"02","state":"Colima","stateId":"06","stateCode":"COL","zip":"28864"},{"district":"Lomas Verdes","districtType":"Colonia","municipality":"Manzanillo","municipalityId":"007","city":"Manzanillo","cityId":"02","state":"Colima","stateId":"06","stateCode":"COL","zip":"28864"},{"district":"Hermosa Provincia","districtType":"Colonia","municipality":"Manzanillo","municipalityId":"007","city":"Manzanillo","cityId":"02","state":"Colima","stateId":"06","stateCode":"COL","zip":"28864"},{"district":"Loma del Mar","districtType":"Fraccionamiento","municipality":"Manzanillo","municipalityId":"007","city":"Manzanillo","cityId":"02","state":"Colima","stateId":"06","stateCode":"COL","zip":"28864"},{"district":"Valle Alto","districtType":"Fraccionamiento","municipality":"Manzanillo","municipalityId":"007","city":"Manzanillo","cityId":"02","state":"Colima","stateId":"06","stateCode":"COL","zip":"28864"},{"district":"Country Club","districtType":"Fraccionamiento","municipality":"Manzanillo","municipalityId":"007","city":"Manzanillo","cityId":"02","state":"Colima","stateId":"06","stateCode":"COL","zip":"28864"},{"district":"Paseo del Mar","districtType":"Fraccionamiento","municipality":"Manzanillo","municipalityId":"007","city":"Manzanillo","cityId":"02","state":"Colima","stateId":"06","stateCode":"COL","zip":"28864"},{"district":"Las Camelinas","districtType":"Fraccionamiento","municipality":"Manzanillo","municipalityId":"007","city":"Manzanillo","cityId":"02","state":"Colima","stateId":"06","stateCode":"COL","zip":"28864"},{"district":"INFONAVIT","districtType":"Fraccionamiento","municipality":"Manzanillo","municipalityId":"007","city":"Manzanillo","cityId":"02","state":"Colima","stateId":"06","stateCode":"COL","zip":"28864"},{"district":"Lomas de Santiago","districtType":"Fraccionamiento","municipality":"Manzanillo","municipalityId":"007","city":"Manzanillo","cityId":"02","state":"Colima","stateId":"06","stateCode":"COL","zip":"28864"},{"district":"Orquídeas Residencial","districtType":"Fraccionamiento","municipality":"Manzanillo","municipalityId":"007","city":"Manzanillo","cityId":"02","state":"Colima","stateId":"06","stateCode":"COL","zip":"28865"},{"district":"Terraplena","districtType":"Fraccionamiento","municipality":"Manzanillo","municipalityId":"007","city":"Manzanillo","cityId":"02","state":"Colima","stateId":"06","stateCode":"COL","zip":"28865"},{"district":"Los Altos","districtType":"Fraccionamiento","municipality":"Manzanillo","municipalityId":"007","city":"Manzanillo","cityId":"02","state":"Colima","stateId":"06","stateCode":"COL","zip":"28865"},{"district":"Salagua","districtType":"Colonia","municipality":"Manzanillo","municipalityId":"007","city":"Manzanillo","cityId":"02","state":"Colima","stateId":"06","stateCode":"COL","zip":"28867"},{"district":"La Punta","districtType":"Fraccionamiento","municipality":"Manzanillo","municipalityId":"007","city":"Manzanillo","cityId":"02","state":"Colima","stateId":"06","stateCode":"COL","zip":"28867"},{"district":"Villas del Palmar","districtType":"Colonia","municipality":"Manzanillo","municipalityId":"007","city":"Manzanillo","cityId":"02","state":"Colima","stateId":"06","stateCode":"COL","zip":"28867"},{"district":"La Audiencia","districtType":"Fraccionamiento","municipality":"Manzanillo","municipalityId":"007","city":"Manzanillo","cityId":"02","state":"Colima","stateId":"06","stateCode":"COL","zip":"28867"},{"district":"Península de Santiago","districtType":"Fraccionamiento","municipality":"Manzanillo","municipalityId":"007","city":"Manzanillo","cityId":"02","state":"Colima","stateId":"06","stateCode":"COL","zip":"28867"},{"district":"Bugambilias","districtType":"Fraccionamiento","municipality":"Manzanillo","municipalityId":"007","city":"Manzanillo","cityId":"02","state":"Colima","stateId":"06","stateCode":"COL","zip":"28867"},{"district":"Las Hadas","districtType":"Fraccionamiento","municipality":"Manzanillo","municipalityId":"007","city":"Manzanillo","cityId":"02","state":"Colima","stateId":"06","stateCode":"COL","zip":"28867"},{"district":"Villas del Faro","districtType":"Colonia","municipality":"Manzanillo","municipalityId":"007","city":"Manzanillo","cityId":"02","state":"Colima","stateId":"06","stateCode":"COL","zip":"28867"},{"district":"Puesta del Sol","districtType":"Colonia","municipality":"Manzanillo","municipalityId":"007","city":"Manzanillo","cityId":"02","state":"Colima","stateId":"06","stateCode":"COL","zip":"28868"},{"district":"El Naranjo","districtType":"Ejido","municipality":"Manzanillo","municipalityId":"007","city":"Manzanillo","cityId":"02","state":"Colima","stateId":"06","stateCode":"COL","zip":"28868"},{"district":"La Central","districtType":"Colonia","municipality":"Manzanillo","municipalityId":"007","city":"Manzanillo","cityId":"02","state":"Colima","stateId":"06","stateCode":"COL","zip":"28868"},{"district":"La Joya","districtType":"Fraccionamiento","municipality":"Manzanillo","municipalityId":"007","city":"Manzanillo","cityId":"02","state":"Colima","stateId":"06","stateCode":"COL","zip":"28868"},{"district":"Nuevo Miramar","districtType":"Colonia","municipality":"Manzanillo","municipalityId":"007","city":"Manzanillo","cityId":"02","state":"Colima","stateId":"06","stateCode":"COL","zip":"28868"},{"district":"La Martinique","districtType":"Colonia","municipality":"Manzanillo","municipalityId":"007","city":"Manzanillo","cityId":"02","state":"Colima","stateId":"06","stateCode":"COL","zip":"28868"},{"district":"Club Santiago","districtType":"Colonia","municipality":"Manzanillo","municipalityId":"007","city":"Manzanillo","cityId":"02","state":"Colima","stateId":"06","stateCode":"COL","zip":"28868"},{"district":"Ejidal Miramar","districtType":"Colonia","municipality":"Manzanillo","municipalityId":"007","city":"Manzanillo","cityId":"02","state":"Colima","stateId":"06","stateCode":"COL","zip":"28868"},{"district":"Club Maeva","districtType":"Fraccionamiento","municipality":"Manzanillo","municipalityId":"007","city":"Manzanillo","cityId":"02","state":"Colima","stateId":"06","stateCode":"COL","zip":"28868"},{"district":"Aguazul","districtType":"Fraccionamiento","municipality":"Manzanillo","municipalityId":"007","city":"Manzanillo","cityId":"02","state":"Colima","stateId":"06","stateCode":"COL","zip":"28869"},{"district":"Las Palmas","districtType":"Colonia","municipality":"Manzanillo","municipalityId":"007","city":"Manzanillo","cityId":"02","state":"Colima","stateId":"06","stateCode":"COL","zip":"28869"},{"district":"Elías Zamora Verduzco","districtType":"Colonia","municipality":"Manzanillo","municipalityId":"007","city":"Manzanillo","cityId":"02","state":"Colima","stateId":"06","stateCode":"COL","zip":"28869"},{"district":"Villa Flamingos","districtType":"Fraccionamiento","municipality":"Manzanillo","municipalityId":"007","city":"Manzanillo","cityId":"02","state":"Colima","stateId":"06","stateCode":"COL","zip":"28869"},{"district":"Puerta del Sol","districtType":"Colonia","municipality":"Manzanillo","municipalityId":"007","city":"Manzanillo","cityId":"02","state":"Colima","stateId":"06","stateCode":"COL","zip":"28869"},{"district":"Santa Sofía","districtType":"Fraccionamiento","municipality":"Manzanillo","municipalityId":"007","city":"Manzanillo","cityId":"02","state":"Colima","stateId":"06","stateCode":"COL","zip":"28869"},{"district":"Guadalupe Victoria","districtType":"Colonia","municipality":"Manzanillo","municipalityId":"007","city":"Manzanillo","cityId":"02","state":"Colima","stateId":"06","stateCode":"COL","zip":"28869"},{"district":"El Campanario","districtType":"Fraccionamiento","municipality":"Manzanillo","municipalityId":"007","city":"Manzanillo","cityId":"02","state":"Colima","stateId":"06","stateCode":"COL","zip":"28869"},{"district":"Rosa Morada","districtType":"Fraccionamiento","municipality":"Manzanillo","municipalityId":"007","city":"Manzanillo","cityId":"02","state":"Colima","stateId":"06","stateCode":"COL","zip":"28869"},{"district":"Arboledas","districtType":"Fraccionamiento","municipality":"Manzanillo","municipalityId":"007","city":"Manzanillo","cityId":"02","state":"Colima","stateId":"06","stateCode":"COL","zip":"28869"},{"district":"Valle Salagua","districtType":"Fraccionamiento","municipality":"Manzanillo","municipalityId":"007","city":"Manzanillo","cityId":"02","state":"Colima","stateId":"06","stateCode":"COL","zip":"28869"},{"district":"Barrio Nuevo Salagua","districtType":"Colonia","municipality":"Manzanillo","municipalityId":"007","city":"Manzanillo","cityId":"02","state":"Colima","stateId":"06","stateCode":"COL","zip":"28869"},{"district":"La Joya II","districtType":"Fraccionamiento","municipality":"Manzanillo","municipalityId":"007","city":"Manzanillo","cityId":"02","state":"Colima","stateId":"06","stateCode":"COL","zip":"28869"},{"district":"Los Mangos","districtType":"Fraccionamiento","municipality":"Manzanillo","municipalityId":"007","city":"Manzanillo","cityId":"02","state":"Colima","stateId":"06","stateCode":"COL","zip":"28869"},{"district":"Nuevo Salagua","districtType":"Fraccionamiento","municipality":"Manzanillo","municipalityId":"007","city":"Manzanillo","cityId":"02","state":"Colima","stateId":"06","stateCode":"COL","zip":"28869"},{"district":"Almendros Residencial","districtType":"Fraccionamiento","municipality":"Manzanillo","municipalityId":"007","city":"Manzanillo","cityId":"02","state":"Colima","stateId":"06","stateCode":"COL","zip":"28869"},{"district":"López de Legaspi","districtType":"Colonia","municipality":"Manzanillo","municipalityId":"007","city":"Manzanillo","cityId":"02","state":"Colima","stateId":"06","stateCode":"COL","zip":"28869"},{"district":"Obispo Sergio Méndez Arceo","districtType":"Colonia","municipality":"Manzanillo","municipalityId":"007","city":"Manzanillo","cityId":"02","state":"Colima","stateId":"06","stateCode":"COL","zip":"28869"},{"district":"Paraiso Salagua","districtType":"Fraccionamiento","municipality":"Manzanillo","municipalityId":"007","city":"Manzanillo","cityId":"02","state":"Colima","stateId":"06","stateCode":"COL","zip":"28869"},{"district":"Marimar","districtType":"Fraccionamiento","municipality":"Manzanillo","municipalityId":"007","city":"Manzanillo","cityId":"02","state":"Colima","stateId":"06","stateCode":"COL","zip":"28869"},{"district":"Jalipa","districtType":"Ejido","municipality":"Manzanillo","municipalityId":"007","city":"","cityId":"","state":"Colima","stateId":"06","stateCode":"COL","zip":"28870"},{"district":"Punta de Agua de Camotlán","districtType":"Pueblo","municipality":"Manzanillo","municipalityId":"007","city":"","cityId":"","state":"Colima","stateId":"06","stateCode":"COL","zip":"28872"},{"district":"Peña Colorada","districtType":"Colonia","municipality":"Manzanillo","municipalityId":"007","city":"","cityId":"","state":"Colima","stateId":"06","stateCode":"COL","zip":"28875"},{"district":"Francisco Villa","districtType":"Pueblo","municipality":"Manzanillo","municipalityId":"007","city":"","cityId":"","state":"Colima","stateId":"06","stateCode":"COL","zip":"28876"},{"district":"IMSS Norte","districtType":"Unidad habitacional","municipality":"Manzanillo","municipalityId":"007","city":"","cityId":"","state":"Colima","stateId":"06","stateCode":"COL","zip":"28877"},{"district":"Fovissste","districtType":"Fraccionamiento","municipality":"Manzanillo","municipalityId":"007","city":"","cityId":"","state":"Colima","stateId":"06","stateCode":"COL","zip":"28878"},{"district":"Vista Roca","districtType":"Condominio","municipality":"Manzanillo","municipalityId":"007","city":"","cityId":"","state":"Colima","stateId":"06","stateCode":"COL","zip":"28879"},{"district":"Del Pacifico","districtType":"Colonia","municipality":"Manzanillo","municipalityId":"007","city":"","cityId":"","state":"Colima","stateId":"06","stateCode":"COL","zip":"28879"},{"district":"Santa Rita","districtType":"Ranchería","municipality":"Manzanillo","municipalityId":"007","city":"","cityId":"","state":"Colima","stateId":"06","stateCode":"COL","zip":"28880"},{"district":"Nuevo Cuyutlán","districtType":"Ejido","municipality":"Manzanillo","municipalityId":"007","city":"","cityId":"","state":"Colima","stateId":"06","stateCode":"COL","zip":"28880"},{"district":"San Buenaventura","districtType":"Ranchería","municipality":"Manzanillo","municipalityId":"007","city":"","cityId":"","state":"Colima","stateId":"06","stateCode":"COL","zip":"28880"},{"district":"Venustiano Carranza (Cualata)","districtType":"Ranchería","municipality":"Manzanillo","municipalityId":"007","city":"","cityId":"","state":"Colima","stateId":"06","stateCode":"COL","zip":"28880"},{"district":"Coalata","districtType":"Ranchería","municipality":"Manzanillo","municipalityId":"007","city":"","cityId":"","state":"Colima","stateId":"06","stateCode":"COL","zip":"28880"},{"district":"Las Lajas","districtType":"Ranchería","municipality":"Manzanillo","municipalityId":"007","city":"","cityId":"","state":"Colima","stateId":"06","stateCode":"COL","zip":"28884"},{"district":"El Salto","districtType":"Ranchería","municipality":"Manzanillo","municipalityId":"007","city":"","cityId":"","state":"Colima","stateId":"06","stateCode":"COL","zip":"28885"},{"district":"Agua Blanca","districtType":"Ranchería","municipality":"Manzanillo","municipalityId":"007","city":"","cityId":"","state":"Colima","stateId":"06","stateCode":"COL","zip":"28886"},{"district":"Agua Blanca y Cerro del Zacate","districtType":"Ranchería","municipality":"Manzanillo","municipalityId":"007","city":"","cityId":"","state":"Colima","stateId":"06","stateCode":"COL","zip":"28886"},{"district":"Las Juntas Nuevas","districtType":"Ranchería","municipality":"Manzanillo","municipalityId":"007","city":"","cityId":"","state":"Colima","stateId":"06","stateCode":"COL","zip":"28887"},{"district":"Hermanos Leaños","districtType":"Colonia","municipality":"Tecomán","municipalityId":"009","city":"","cityId":"","state":"Colima","stateId":"06","stateCode":"COL","zip":"28900"},{"district":"Cerro de Ortega","districtType":"Pueblo","municipality":"Tecomán","municipalityId":"009","city":"","cityId":"","state":"Colima","stateId":"06","stateCode":"COL","zip":"28900"},{"district":"Cerro de Aguilar","districtType":"Ranchería","municipality":"Tecomán","municipalityId":"009","city":"","cityId":"","state":"Colima","stateId":"06","stateCode":"COL","zip":"28906"},{"district":"Estación Madrid","districtType":"Paraje","municipality":"Tecomán","municipalityId":"009","city":"","cityId":"","state":"Colima","stateId":"06","stateCode":"COL","zip":"28910"},{"district":"Articulo 27 Constitucional","districtType":"Colonia","municipality":"Tecomán","municipalityId":"009","city":"","cityId":"","state":"Colima","stateId":"06","stateCode":"COL","zip":"28910"},{"district":"Conacar PRI","districtType":"Colonia","municipality":"Tecomán","municipalityId":"009","city":"","cityId":"","state":"Colima","stateId":"06","stateCode":"COL","zip":"28910"},{"district":"La Pedregoza","districtType":"Colonia","municipality":"Tecomán","municipalityId":"009","city":"","cityId":"","state":"Colima","stateId":"06","stateCode":"COL","zip":"28910"},{"district":"El Rosario","districtType":"Ranchería","municipality":"Tecomán","municipalityId":"009","city":"","cityId":"","state":"Colima","stateId":"06","stateCode":"COL","zip":"28915"},{"district":"Tecolapa","districtType":"Ranchería","municipality":"Tecomán","municipalityId":"009","city":"","cityId":"","state":"Colima","stateId":"06","stateCode":"COL","zip":"28920"},{"district":"Cofradía de Hidalgo (Laguna de Alcuzahue)","districtType":"Pueblo","municipality":"Tecomán","municipalityId":"009","city":"","cityId":"","state":"Colima","stateId":"06","stateCode":"COL","zip":"28929"},{"district":"Puerta de Caleras","districtType":"Ranchería","municipality":"Tecomán","municipalityId":"009","city":"","cityId":"","state":"Colima","stateId":"06","stateCode":"COL","zip":"28930"},{"district":"Caleras","districtType":"Ranchería","municipality":"Tecomán","municipalityId":"009","city":"","cityId":"","state":"Colima","stateId":"06","stateCode":"COL","zip":"28930"},{"district":"Tecomán Estación","districtType":"Colonia","municipality":"Tecomán","municipalityId":"009","city":"","cityId":"","state":"Colima","stateId":"06","stateCode":"COL","zip":"28930"},{"district":"Luis Rodríguez Alcalá [La Báscula]","districtType":"Ranchería","municipality":"Tecomán","municipalityId":"009","city":"","cityId":"","state":"Colima","stateId":"06","stateCode":"COL","zip":"28934"},{"district":"Antonio Salazar Salazar","districtType":"Colonia","municipality":"Tecomán","municipalityId":"009","city":"","cityId":"","state":"Colima","stateId":"06","stateCode":"COL","zip":"28934"},{"district":"María Esther Zuno de Echeverría","districtType":"Colonia","municipality":"Tecomán","municipalityId":"009","city":"","cityId":"","state":"Colima","stateId":"06","stateCode":"COL","zip":"28934"},{"district":"Ballardo","districtType":"Colonia","municipality":"Tecomán","municipalityId":"009","city":"","cityId":"","state":"Colima","stateId":"06","stateCode":"COL","zip":"28934"},{"district":"Cofradía de Morelos","districtType":"Pueblo","municipality":"Tecomán","municipalityId":"009","city":"","cityId":"","state":"Colima","stateId":"06","stateCode":"COL","zip":"28935"},{"district":"Ladislao Moreno","districtType":"Colonia","municipality":"Tecomán","municipalityId":"009","city":"","cityId":"","state":"Colima","stateId":"06","stateCode":"COL","zip":"28936"},{"district":"El Real","districtType":"Ranchería","municipality":"Tecomán","municipalityId":"009","city":"","cityId":"","state":"Colima","stateId":"06","stateCode":"COL","zip":"28937"},{"district":"Tecuanillo","districtType":"Ranchería","municipality":"Tecomán","municipalityId":"009","city":"","cityId":"","state":"Colima","stateId":"06","stateCode":"COL","zip":"28938"},{"district":"Callejones","districtType":"Ranchería","municipality":"Tecomán","municipalityId":"009","city":"","cityId":"","state":"Colima","stateId":"06","stateCode":"COL","zip":"28940"},{"district":"El Saucito","districtType":"Ranchería","municipality":"Tecomán","municipalityId":"009","city":"","cityId":"","state":"Colima","stateId":"06","stateCode":"COL","zip":"28944"},{"district":"La Primavera","districtType":"Ranchería","municipality":"Tecomán","municipalityId":"009","city":"","cityId":"","state":"Colima","stateId":"06","stateCode":"COL","zip":"28944"},{"district":"Chanchopa","districtType":"Ranchería","municipality":"Tecomán","municipalityId":"009","city":"","cityId":"","state":"Colima","stateId":"06","stateCode":"COL","zip":"28945"},{"district":"San Miguel del Ojo de Agua","districtType":"Ranchería","municipality":"Tecomán","municipalityId":"009","city":"","cityId":"","state":"Colima","stateId":"06","stateCode":"COL","zip":"28947"},{"district":"Juluapan","districtType":"Ranchería","municipality":"Villa de Álvarez","municipalityId":"010","city":"","cityId":"","state":"Colima","stateId":"06","stateCode":"COL","zip":"28950"},{"district":"Los Picachos","districtType":"Ranchería","municipality":"Villa de Álvarez","municipalityId":"010","city":"","cityId":"","state":"Colima","stateId":"06","stateCode":"COL","zip":"28952"},{"district":"El Carmen","districtType":"Ranchería","municipality":"Villa de Álvarez","municipalityId":"010","city":"","cityId":"","state":"Colima","stateId":"06","stateCode":"COL","zip":"28955"},{"district":"Agua Dulce","districtType":"Ranchería","municipality":"Villa de Álvarez","municipalityId":"010","city":"","cityId":"","state":"Colima","stateId":"06","stateCode":"COL","zip":"28955"},{"district":"El Mixcuate","districtType":"Ranchería","municipality":"Villa de Álvarez","municipalityId":"010","city":"","cityId":"","state":"Colima","stateId":"06","stateCode":"COL","zip":"28958"},{"district":"Pueblo Nuevo","districtType":"Ranchería","municipality":"Villa de Álvarez","municipalityId":"010","city":"","cityId":"","state":"Colima","stateId":"06","stateCode":"COL","zip":"28959"},{"district":"El Carrizal","districtType":"Ranchería","municipality":"Villa de Álvarez","municipalityId":"010","city":"","cityId":"","state":"Colima","stateId":"06","stateCode":"COL","zip":"28960"},{"district":"Pastores","districtType":"Ranchería","municipality":"Villa de Álvarez","municipalityId":"010","city":"","cityId":"","state":"Colima","stateId":"06","stateCode":"COL","zip":"28963"},{"district":"Las Joyitas","districtType":"Ranchería","municipality":"Villa de Álvarez","municipalityId":"010","city":"","cityId":"","state":"Colima","stateId":"06","stateCode":"COL","zip":"28964"},{"district":"El Chivato (Providencia)","districtType":"Ejido","municipality":"Villa de Álvarez","municipalityId":"010","city":"","cityId":"","state":"Colima","stateId":"06","stateCode":"COL","zip":"28965"},{"district":"La Montrica","districtType":"Ranchería","municipality":"Villa de Álvarez","municipalityId":"010","city":"","cityId":"","state":"Colima","stateId":"06","stateCode":"COL","zip":"28966"},{"district":"El Naranjal","districtType":"Ranchería","municipality":"Villa de Álvarez","municipalityId":"010","city":"","cityId":"","state":"Colima","stateId":"06","stateCode":"COL","zip":"28968"},{"district":"Villa de Alvarez Centro","districtType":"Colonia","municipality":"Villa de Álvarez","municipalityId":"010","city":"Ciudad de Villa de Álvarez","cityId":"04","state":"Colima","stateId":"06","stateCode":"COL","zip":"28970"},{"district":"Villas del Sol","districtType":"Colonia","municipality":"Villa de Álvarez","municipalityId":"010","city":"Ciudad de Villa de Álvarez","cityId":"04","state":"Colima","stateId":"06","stateCode":"COL","zip":"28970"},{"district":"Manuel M Diéguez","districtType":"Colonia","municipality":"Villa de Álvarez","municipalityId":"010","city":"Ciudad de Villa de Álvarez","cityId":"04","state":"Colima","stateId":"06","stateCode":"COL","zip":"28973"},{"district":"Villas del Río","districtType":"Colonia","municipality":"Villa de Álvarez","municipalityId":"010","city":"Ciudad de Villa de Álvarez","cityId":"04","state":"Colima","stateId":"06","stateCode":"COL","zip":"28973"},{"district":"Santa Cristina","districtType":"Colonia","municipality":"Villa de Álvarez","municipalityId":"010","city":"Ciudad de Villa de Álvarez","cityId":"04","state":"Colima","stateId":"06","stateCode":"COL","zip":"28973"},{"district":"Villas Adriana","districtType":"Colonia","municipality":"Villa de Álvarez","municipalityId":"010","city":"Ciudad de Villa de Álvarez","cityId":"04","state":"Colima","stateId":"06","stateCode":"COL","zip":"28973"},{"district":"Floresta","districtType":"Colonia","municipality":"Villa de Álvarez","municipalityId":"010","city":"Ciudad de Villa de Álvarez","cityId":"04","state":"Colima","stateId":"06","stateCode":"COL","zip":"28973"},{"district":"Rancho Santo","districtType":"Colonia","municipality":"Villa de Álvarez","municipalityId":"010","city":"Ciudad de Villa de Álvarez","cityId":"04","state":"Colima","stateId":"06","stateCode":"COL","zip":"28973"},{"district":"Real los Arcos","districtType":"Colonia","municipality":"Villa de Álvarez","municipalityId":"010","city":"Ciudad de Villa de Álvarez","cityId":"04","state":"Colima","stateId":"06","stateCode":"COL","zip":"28973"},{"district":"Villas de Mayo","districtType":"Colonia","municipality":"Villa de Álvarez","municipalityId":"010","city":"Ciudad de Villa de Álvarez","cityId":"04","state":"Colima","stateId":"06","stateCode":"COL","zip":"28973"},{"district":"Privada Villa San Agustín","districtType":"Fraccionamiento","municipality":"Villa de Álvarez","municipalityId":"010","city":"Ciudad de Villa de Álvarez","cityId":"04","state":"Colima","stateId":"06","stateCode":"COL","zip":"28973"},{"district":"Santa Teresa","districtType":"Colonia","municipality":"Villa de Álvarez","municipalityId":"010","city":"Ciudad de Villa de Álvarez","cityId":"04","state":"Colima","stateId":"06","stateCode":"COL","zip":"28973"},{"district":"San Isidro","districtType":"Colonia","municipality":"Villa de Álvarez","municipalityId":"010","city":"Ciudad de Villa de Álvarez","cityId":"04","state":"Colima","stateId":"06","stateCode":"COL","zip":"28974"},{"district":"Villas Coliman","districtType":"Colonia","municipality":"Villa de Álvarez","municipalityId":"010","city":"Ciudad de Villa de Álvarez","cityId":"04","state":"Colima","stateId":"06","stateCode":"COL","zip":"28974"},{"district":"Privada Villas del Palmar","districtType":"Fraccionamiento","municipality":"Villa de Álvarez","municipalityId":"010","city":"Ciudad de Villa de Álvarez","cityId":"04","state":"Colima","stateId":"06","stateCode":"COL","zip":"28975"},{"district":"López Mateos","districtType":"Colonia","municipality":"Villa de Álvarez","municipalityId":"010","city":"Ciudad de Villa de Álvarez","cityId":"04","state":"Colima","stateId":"06","stateCode":"COL","zip":"28975"},{"district":"Santa Martha","districtType":"Colonia","municipality":"Villa de Álvarez","municipalityId":"010","city":"Ciudad de Villa de Álvarez","cityId":"04","state":"Colima","stateId":"06","stateCode":"COL","zip":"28975"},{"district":"Morelos","districtType":"Colonia","municipality":"Villa de Álvarez","municipalityId":"010","city":"Ciudad de Villa de Álvarez","cityId":"04","state":"Colima","stateId":"06","stateCode":"COL","zip":"28975"},{"district":"La Frontera","districtType":"Colonia","municipality":"Villa de Álvarez","municipalityId":"010","city":"Ciudad de Villa de Álvarez","cityId":"04","state":"Colima","stateId":"06","stateCode":"COL","zip":"28975"},{"district":"La Cajita del Agua","districtType":"Colonia","municipality":"Villa de Álvarez","municipalityId":"010","city":"Ciudad de Villa de Álvarez","cityId":"04","state":"Colima","stateId":"06","stateCode":"COL","zip":"28975"},{"district":"Villa Carlo","districtType":"Fraccionamiento","municipality":"Villa de Álvarez","municipalityId":"010","city":"Ciudad de Villa de Álvarez","cityId":"04","state":"Colima","stateId":"06","stateCode":"COL","zip":"28975"},{"district":"Francisco Hernández","districtType":"Colonia","municipality":"Villa de Álvarez","municipalityId":"010","city":"Ciudad de Villa de Álvarez","cityId":"04","state":"Colima","stateId":"06","stateCode":"COL","zip":"28976"},{"district":"Villas del Centro","districtType":"Colonia","municipality":"Villa de Álvarez","municipalityId":"010","city":"Ciudad de Villa de Álvarez","cityId":"04","state":"Colima","stateId":"06","stateCode":"COL","zip":"28976"},{"district":"Liberación","districtType":"Colonia","municipality":"Villa de Álvarez","municipalityId":"010","city":"Ciudad de Villa de Álvarez","cityId":"04","state":"Colima","stateId":"06","stateCode":"COL","zip":"28976"},{"district":"Rosario Ibarra de Piedra","districtType":"Colonia","municipality":"Villa de Álvarez","municipalityId":"010","city":"Ciudad de Villa de Álvarez","cityId":"04","state":"Colima","stateId":"06","stateCode":"COL","zip":"28976"},{"district":"Residencial Bosque Real","districtType":"Fraccionamiento","municipality":"Villa de Álvarez","municipalityId":"010","city":"Ciudad de Villa de Álvarez","cityId":"04","state":"Colima","stateId":"06","stateCode":"COL","zip":"28977"},{"district":"Las Parotas","districtType":"Condominio","municipality":"Villa de Álvarez","municipalityId":"010","city":"Ciudad de Villa de Álvarez","cityId":"04","state":"Colima","stateId":"06","stateCode":"COL","zip":"28977"},{"district":"Colinas del Carmen","districtType":"Colonia","municipality":"Villa de Álvarez","municipalityId":"010","city":"Ciudad de Villa de Álvarez","cityId":"04","state":"Colima","stateId":"06","stateCode":"COL","zip":"28978"},{"district":"Jardines de Bugambilias","districtType":"Colonia","municipality":"Villa de Álvarez","municipalityId":"010","city":"Ciudad de Villa de Álvarez","cityId":"04","state":"Colima","stateId":"06","stateCode":"COL","zip":"28978"},{"district":"Arboledas del Carmen","districtType":"Colonia","municipality":"Villa de Álvarez","municipalityId":"010","city":"Ciudad de Villa de Álvarez","cityId":"04","state":"Colima","stateId":"06","stateCode":"COL","zip":"28978"},{"district":"Golondrinas","districtType":"Colonia","municipality":"Villa de Álvarez","municipalityId":"010","city":"Ciudad de Villa de Álvarez","cityId":"04","state":"Colima","stateId":"06","stateCode":"COL","zip":"28978"},{"district":"Privada Nicasio Carvajal Flores","districtType":"Fraccionamiento","municipality":"Villa de Álvarez","municipalityId":"010","city":"Ciudad de Villa de Álvarez","cityId":"04","state":"Colima","stateId":"06","stateCode":"COL","zip":"28978"},{"district":"Azaleas","districtType":"Colonia","municipality":"Villa de Álvarez","municipalityId":"010","city":"Ciudad de Villa de Álvarez","cityId":"04","state":"Colima","stateId":"06","stateCode":"COL","zip":"28978"},{"district":"Hacienda del Carmen","districtType":"Fraccionamiento","municipality":"Villa de Álvarez","municipalityId":"010","city":"Ciudad de Villa de Álvarez","cityId":"04","state":"Colima","stateId":"06","stateCode":"COL","zip":"28978"},{"district":"Primaveras","districtType":"Colonia","municipality":"Villa de Álvarez","municipalityId":"010","city":"Ciudad de Villa de Álvarez","cityId":"04","state":"Colima","stateId":"06","stateCode":"COL","zip":"28978"},{"district":"Rinconada de La Hacienda","districtType":"Colonia","municipality":"Villa de Álvarez","municipalityId":"010","city":"Ciudad de Villa de Álvarez","cityId":"04","state":"Colima","stateId":"06","stateCode":"COL","zip":"28978"},{"district":"Senderos del Carmen","districtType":"Colonia","municipality":"Villa de Álvarez","municipalityId":"010","city":"Ciudad de Villa de Álvarez","cityId":"04","state":"Colima","stateId":"06","stateCode":"COL","zip":"28978"},{"district":"FOVISSSTE","districtType":"Colonia","municipality":"Villa de Álvarez","municipalityId":"010","city":"Ciudad de Villa de Álvarez","cityId":"04","state":"Colima","stateId":"06","stateCode":"COL","zip":"28978"},{"district":"Real Santa Fe","districtType":"Fraccionamiento","municipality":"Villa de Álvarez","municipalityId":"010","city":"Ciudad de Villa de Álvarez","cityId":"04","state":"Colima","stateId":"06","stateCode":"COL","zip":"28978"},{"district":"Real Hacienda","districtType":"Fraccionamiento","municipality":"Villa de Álvarez","municipalityId":"010","city":"Ciudad de Villa de Álvarez","cityId":"04","state":"Colima","stateId":"06","stateCode":"COL","zip":"28978"},{"district":"Las Águilas","districtType":"Colonia","municipality":"Villa de Álvarez","municipalityId":"010","city":"Ciudad de Villa de Álvarez","cityId":"04","state":"Colima","stateId":"06","stateCode":"COL","zip":"28979"},{"district":"Solidaridad","districtType":"Colonia","municipality":"Villa de Álvarez","municipalityId":"010","city":"Ciudad de Villa de Álvarez","cityId":"04","state":"Colima","stateId":"06","stateCode":"COL","zip":"28979"},{"district":"Bugambilias","districtType":"Colonia","municipality":"Villa de Álvarez","municipalityId":"010","city":"Ciudad de Villa de Álvarez","cityId":"04","state":"Colima","stateId":"06","stateCode":"COL","zip":"28979"},{"district":"Loma Hermosa","districtType":"Colonia","municipality":"Villa de Álvarez","municipalityId":"010","city":"Ciudad de Villa de Álvarez","cityId":"04","state":"Colima","stateId":"06","stateCode":"COL","zip":"28979"},{"district":"Villas de Bugambilias","districtType":"Colonia","municipality":"Villa de Álvarez","municipalityId":"010","city":"Ciudad de Villa de Álvarez","cityId":"04","state":"Colima","stateId":"06","stateCode":"COL","zip":"28979"},{"district":"Carlos de La Madrid","districtType":"Colonia","municipality":"Villa de Álvarez","municipalityId":"010","city":"Ciudad de Villa de Álvarez","cityId":"04","state":"Colima","stateId":"06","stateCode":"COL","zip":"28979"},{"district":"Las Lagunas","districtType":"Colonia","municipality":"Villa de Álvarez","municipalityId":"010","city":"Ciudad de Villa de Álvarez","cityId":"04","state":"Colima","stateId":"06","stateCode":"COL","zip":"28979"},{"district":"Villas del Cañaveral","districtType":"Colonia","municipality":"Villa de Álvarez","municipalityId":"010","city":"Ciudad de Villa de Álvarez","cityId":"04","state":"Colima","stateId":"06","stateCode":"COL","zip":"28979"},{"district":"Lomas de La Higuera","districtType":"Colonia","municipality":"Villa de Álvarez","municipalityId":"010","city":"Ciudad de Villa de Álvarez","cityId":"04","state":"Colima","stateId":"06","stateCode":"COL","zip":"28979"},{"district":"Los Almendros","districtType":"Colonia","municipality":"Villa de Álvarez","municipalityId":"010","city":"Ciudad de Villa de Álvarez","cityId":"04","state":"Colima","stateId":"06","stateCode":"COL","zip":"28979"},{"district":"Real Bugambilias","districtType":"Colonia","municipality":"Villa de Álvarez","municipalityId":"010","city":"Ciudad de Villa de Álvarez","cityId":"04","state":"Colima","stateId":"06","stateCode":"COL","zip":"28979"},{"district":"Lomas de La Villa","districtType":"Colonia","municipality":"Villa de Álvarez","municipalityId":"010","city":"Ciudad de Villa de Álvarez","cityId":"04","state":"Colima","stateId":"06","stateCode":"COL","zip":"28979"},{"district":"Colinas del Sol","districtType":"Colonia","municipality":"Villa de Álvarez","municipalityId":"010","city":"Ciudad de Villa de Álvarez","cityId":"04","state":"Colima","stateId":"06","stateCode":"COL","zip":"28979"},{"district":"Lindavista 2a Sección","districtType":"Colonia","municipality":"Villa de Álvarez","municipalityId":"010","city":"Ciudad de Villa de Álvarez","cityId":"04","state":"Colima","stateId":"06","stateCode":"COL","zip":"28979"},{"district":"El Angel","districtType":"Colonia","municipality":"Villa de Álvarez","municipalityId":"010","city":"Ciudad de Villa de Álvarez","cityId":"04","state":"Colima","stateId":"06","stateCode":"COL","zip":"28979"},{"district":"Cruz de Comala","districtType":"Colonia","municipality":"Villa de Álvarez","municipalityId":"010","city":"Ciudad de Villa de Álvarez","cityId":"04","state":"Colima","stateId":"06","stateCode":"COL","zip":"28979"},{"district":"Vista Bugambilias","districtType":"Colonia","municipality":"Villa de Álvarez","municipalityId":"010","city":"Ciudad de Villa de Álvarez","cityId":"04","state":"Colima","stateId":"06","stateCode":"COL","zip":"28979"},{"district":"Salomón Preciado","districtType":"Colonia","municipality":"Villa de Álvarez","municipalityId":"010","city":"Ciudad de Villa de Álvarez","cityId":"04","state":"Colima","stateId":"06","stateCode":"COL","zip":"28979"},{"district":"Villa Izcalli Caxitlán","districtType":"Colonia","municipality":"Villa de Álvarez","municipalityId":"010","city":"Ciudad de Villa de Álvarez","cityId":"04","state":"Colima","stateId":"06","stateCode":"COL","zip":"28979"},{"district":"Lindavista","districtType":"Colonia","municipality":"Villa de Álvarez","municipalityId":"010","city":"Ciudad de Villa de Álvarez","cityId":"04","state":"Colima","stateId":"06","stateCode":"COL","zip":"28979"},{"district":"Las Colinas","districtType":"Colonia","municipality":"Villa de Álvarez","municipalityId":"010","city":"Ciudad de Villa de Álvarez","cityId":"04","state":"Colima","stateId":"06","stateCode":"COL","zip":"28979"},{"district":"Lomas de La Herradura","districtType":"Colonia","municipality":"Villa de Álvarez","municipalityId":"010","city":"Ciudad de Villa de Álvarez","cityId":"04","state":"Colima","stateId":"06","stateCode":"COL","zip":"28979"},{"district":"Residencial Colinas del Rey","districtType":"Fraccionamiento","municipality":"Villa de Álvarez","municipalityId":"010","city":"Ciudad de Villa de Álvarez","cityId":"04","state":"Colima","stateId":"06","stateCode":"COL","zip":"28979"},{"district":"Alfredo V Bonfil","districtType":"Colonia","municipality":"Villa de Álvarez","municipalityId":"010","city":"Ciudad de Villa de Álvarez","cityId":"04","state":"Colima","stateId":"06","stateCode":"COL","zip":"28979"},{"district":"Lomas de las Flores","districtType":"Colonia","municipality":"Villa de Álvarez","municipalityId":"010","city":"Ciudad de Villa de Álvarez","cityId":"04","state":"Colima","stateId":"06","stateCode":"COL","zip":"28979"},{"district":"Lomas Altas","districtType":"Colonia","municipality":"Villa de Álvarez","municipalityId":"010","city":"Ciudad de Villa de Álvarez","cityId":"04","state":"Colima","stateId":"06","stateCode":"COL","zip":"28979"},{"district":"La Gloria","districtType":"Colonia","municipality":"Villa de Álvarez","municipalityId":"010","city":"Ciudad de Villa de Álvarez","cityId":"04","state":"Colima","stateId":"06","stateCode":"COL","zip":"28980"},{"district":"Santa Fe","districtType":"Colonia","municipality":"Villa de Álvarez","municipalityId":"010","city":"Ciudad de Villa de Álvarez","cityId":"04","state":"Colima","stateId":"06","stateCode":"COL","zip":"28982"},{"district":"Hacienda El Nogal","districtType":"Fraccionamiento","municipality":"Villa de Álvarez","municipalityId":"010","city":"Ciudad de Villa de Álvarez","cityId":"04","state":"Colima","stateId":"06","stateCode":"COL","zip":"28982"},{"district":"La Joya","districtType":"Colonia","municipality":"Villa de Álvarez","municipalityId":"010","city":"Ciudad de Villa de Álvarez","cityId":"04","state":"Colima","stateId":"06","stateCode":"COL","zip":"28982"},{"district":"Las Rosas","districtType":"Fraccionamiento","municipality":"Villa de Álvarez","municipalityId":"010","city":"Ciudad de Villa de Álvarez","cityId":"04","state":"Colima","stateId":"06","stateCode":"COL","zip":"28982"},{"district":"Villas de Alameda","districtType":"Fraccionamiento","municipality":"Villa de Álvarez","municipalityId":"010","city":"Ciudad de Villa de Álvarez","cityId":"04","state":"Colima","stateId":"06","stateCode":"COL","zip":"28982"},{"district":"El Cortijo","districtType":"Colonia","municipality":"Villa de Álvarez","municipalityId":"010","city":"Ciudad de Villa de Álvarez","cityId":"04","state":"Colima","stateId":"06","stateCode":"COL","zip":"28982"},{"district":"Hacienda del Cortijo","districtType":"Fraccionamiento","municipality":"Villa de Álvarez","municipalityId":"010","city":"Ciudad de Villa de Álvarez","cityId":"04","state":"Colima","stateId":"06","stateCode":"COL","zip":"28982"},{"district":"Villas San José Segunda Sección","districtType":"Fraccionamiento","municipality":"Villa de Álvarez","municipalityId":"010","city":"Ciudad de Villa de Álvarez","cityId":"04","state":"Colima","stateId":"06","stateCode":"COL","zip":"28982"},{"district":"Jacarandas","districtType":"Fraccionamiento","municipality":"Villa de Álvarez","municipalityId":"010","city":"Ciudad de Villa de Álvarez","cityId":"04","state":"Colima","stateId":"06","stateCode":"COL","zip":"28982"},{"district":"Los Olivos","districtType":"Colonia","municipality":"Villa de Álvarez","municipalityId":"010","city":"Ciudad de Villa de Álvarez","cityId":"04","state":"Colima","stateId":"06","stateCode":"COL","zip":"28982"},{"district":"Residencial Tulipanes","districtType":"Fraccionamiento","municipality":"Villa de Álvarez","municipalityId":"010","city":"Ciudad de Villa de Álvarez","cityId":"04","state":"Colima","stateId":"06","stateCode":"COL","zip":"28983"},{"district":"Jardines del Llano","districtType":"Colonia","municipality":"Villa de Álvarez","municipalityId":"010","city":"Ciudad de Villa de Álvarez","cityId":"04","state":"Colima","stateId":"06","stateCode":"COL","zip":"28983"},{"district":"Jardines del Centenario","districtType":"Colonia","municipality":"Villa de Álvarez","municipalityId":"010","city":"Ciudad de Villa de Álvarez","cityId":"04","state":"Colima","stateId":"06","stateCode":"COL","zip":"28983"},{"district":"Tabachines","districtType":"Colonia","municipality":"Villa de Álvarez","municipalityId":"010","city":"Ciudad de Villa de Álvarez","cityId":"04","state":"Colima","stateId":"06","stateCode":"COL","zip":"28983"},{"district":"Alfonso Rolón Michel","districtType":"Colonia","municipality":"Villa de Álvarez","municipalityId":"010","city":"Ciudad de Villa de Álvarez","cityId":"04","state":"Colima","stateId":"06","stateCode":"COL","zip":"28983"},{"district":"El Haya","districtType":"Fraccionamiento","municipality":"Villa de Álvarez","municipalityId":"010","city":"Ciudad de Villa de Álvarez","cityId":"04","state":"Colima","stateId":"06","stateCode":"COL","zip":"28983"},{"district":"Senderos de Rancho Blanco","districtType":"Colonia","municipality":"Villa de Álvarez","municipalityId":"010","city":"Ciudad de Villa de Álvarez","cityId":"04","state":"Colima","stateId":"06","stateCode":"COL","zip":"28983"},{"district":"Villa Flores","districtType":"Colonia","municipality":"Villa de Álvarez","municipalityId":"010","city":"Ciudad de Villa de Álvarez","cityId":"04","state":"Colima","stateId":"06","stateCode":"COL","zip":"28983"},{"district":"Puerta de Rolón","districtType":"Fraccionamiento","municipality":"Villa de Álvarez","municipalityId":"010","city":"Ciudad de Villa de Álvarez","cityId":"04","state":"Colima","stateId":"06","stateCode":"COL","zip":"28983"},{"district":"Rinconada del Centenario","districtType":"Colonia","municipality":"Villa de Álvarez","municipalityId":"010","city":"Ciudad de Villa de Álvarez","cityId":"04","state":"Colima","stateId":"06","stateCode":"COL","zip":"28983"},{"district":"Villas Rancho Blanco","districtType":"Colonia","municipality":"Villa de Álvarez","municipalityId":"010","city":"Ciudad de Villa de Álvarez","cityId":"04","state":"Colima","stateId":"06","stateCode":"COL","zip":"28983"},{"district":"Villa Flores II","districtType":"Colonia","municipality":"Villa de Álvarez","municipalityId":"010","city":"Ciudad de Villa de Álvarez","cityId":"04","state":"Colima","stateId":"06","stateCode":"COL","zip":"28983"},{"district":"Juan José Ríos II","districtType":"Colonia","municipality":"Villa de Álvarez","municipalityId":"010","city":"Ciudad de Villa de Álvarez","cityId":"04","state":"Colima","stateId":"06","stateCode":"COL","zip":"28984"},{"district":"Lomas del Centenario","districtType":"Colonia","municipality":"Villa de Álvarez","municipalityId":"010","city":"Ciudad de Villa de Álvarez","cityId":"04","state":"Colima","stateId":"06","stateCode":"COL","zip":"28984"},{"district":"Real Centenario","districtType":"Fraccionamiento","municipality":"Villa de Álvarez","municipalityId":"010","city":"Ciudad de Villa de Álvarez","cityId":"04","state":"Colima","stateId":"06","stateCode":"COL","zip":"28984"},{"district":"Loma Bonita","districtType":"Colonia","municipality":"Villa de Álvarez","municipalityId":"010","city":"Ciudad de Villa de Álvarez","cityId":"04","state":"Colima","stateId":"06","stateCode":"COL","zip":"28984"},{"district":"Jardines de La Villa","districtType":"Colonia","municipality":"Villa de Álvarez","municipalityId":"010","city":"Ciudad de Villa de Álvarez","cityId":"04","state":"Colima","stateId":"06","stateCode":"COL","zip":"28984"},{"district":"La Reserva","districtType":"Fraccionamiento","municipality":"Villa de Álvarez","municipalityId":"010","city":"Ciudad de Villa de Álvarez","cityId":"04","state":"Colima","stateId":"06","stateCode":"COL","zip":"28984"},{"district":"Los Triángulos","districtType":"Colonia","municipality":"Villa de Álvarez","municipalityId":"010","city":"Ciudad de Villa de Álvarez","cityId":"04","state":"Colima","stateId":"06","stateCode":"COL","zip":"28984"},{"district":"Centenario II","districtType":"Colonia","municipality":"Villa de Álvarez","municipalityId":"010","city":"Ciudad de Villa de Álvarez","cityId":"04","state":"Colima","stateId":"06","stateCode":"COL","zip":"28984"},{"district":"Azteca","districtType":"Colonia","municipality":"Villa de Álvarez","municipalityId":"010","city":"Ciudad de Villa de Álvarez","cityId":"04","state":"Colima","stateId":"06","stateCode":"COL","zip":"28984"},{"district":"Villas de San José","districtType":"Colonia","municipality":"Villa de Álvarez","municipalityId":"010","city":"Ciudad de Villa de Álvarez","cityId":"04","state":"Colima","stateId":"06","stateCode":"COL","zip":"28984"},{"district":"Buenavista","districtType":"Fraccionamiento","municipality":"Villa de Álvarez","municipalityId":"010","city":"Ciudad de Villa de Álvarez","cityId":"04","state":"Colima","stateId":"06","stateCode":"COL","zip":"28984"},{"district":"El Centenario","districtType":"Colonia","municipality":"Villa de Álvarez","municipalityId":"010","city":"Ciudad de Villa de Álvarez","cityId":"04","state":"Colima","stateId":"06","stateCode":"COL","zip":"28984"},{"district":"Higueras del Espinal","districtType":"Fraccionamiento","municipality":"Villa de Álvarez","municipalityId":"010","city":"Ciudad de Villa de Álvarez","cityId":"04","state":"Colima","stateId":"06","stateCode":"COL","zip":"28984"},{"district":"Patria Residencial","districtType":"Fraccionamiento","municipality":"Villa de Álvarez","municipalityId":"010","city":"Ciudad de Villa de Álvarez","cityId":"04","state":"Colima","stateId":"06","stateCode":"COL","zip":"28984"},{"district":"Juan José Ríos","districtType":"Colonia","municipality":"Villa de Álvarez","municipalityId":"010","city":"Ciudad de Villa de Álvarez","cityId":"04","state":"Colima","stateId":"06","stateCode":"COL","zip":"28984"},{"district":"Juan José Ríos III","districtType":"Colonia","municipality":"Villa de Álvarez","municipalityId":"010","city":"Ciudad de Villa de Álvarez","cityId":"04","state":"Colima","stateId":"06","stateCode":"COL","zip":"28984"},{"district":"Palo Alto","districtType":"Fraccionamiento","municipality":"Villa de Álvarez","municipalityId":"010","city":"Ciudad de Villa de Álvarez","cityId":"04","state":"Colima","stateId":"06","stateCode":"COL","zip":"28984"},{"district":"Manuel Alvarez","districtType":"Colonia","municipality":"Villa de Álvarez","municipalityId":"010","city":"Ciudad de Villa de Álvarez","cityId":"04","state":"Colima","stateId":"06","stateCode":"COL","zip":"28984"},{"district":"Ramón Serrano","districtType":"Colonia","municipality":"Villa de Álvarez","municipalityId":"010","city":"Ciudad de Villa de Álvarez","cityId":"04","state":"Colima","stateId":"06","stateCode":"COL","zip":"28984"},{"district":"Puerta del Centenario","districtType":"Fraccionamiento","municipality":"Villa de Álvarez","municipalityId":"010","city":"Ciudad de Villa de Álvarez","cityId":"04","state":"Colima","stateId":"06","stateCode":"COL","zip":"28984"},{"district":"Verde Valle","districtType":"Fraccionamiento","municipality":"Villa de Álvarez","municipalityId":"010","city":"Ciudad de Villa de Álvarez","cityId":"04","state":"Colima","stateId":"06","stateCode":"COL","zip":"28984"},{"district":"Del Valle","districtType":"Colonia","municipality":"Villa de Álvarez","municipalityId":"010","city":"Ciudad de Villa de Álvarez","cityId":"04","state":"Colima","stateId":"06","stateCode":"COL","zip":"28985"},{"district":"San Miguel","districtType":"Colonia","municipality":"Villa de Álvarez","municipalityId":"010","city":"Ciudad de Villa de Álvarez","cityId":"04","state":"Colima","stateId":"06","stateCode":"COL","zip":"28985"},{"district":"Villa de Oro","districtType":"Colonia","municipality":"Villa de Álvarez","municipalityId":"010","city":"Ciudad de Villa de Álvarez","cityId":"04","state":"Colima","stateId":"06","stateCode":"COL","zip":"28985"},{"district":"Villas Diamante","districtType":"Colonia","municipality":"Villa de Álvarez","municipalityId":"010","city":"Ciudad de Villa de Álvarez","cityId":"04","state":"Colima","stateId":"06","stateCode":"COL","zip":"28986"},{"district":"Emiliano Zapata","districtType":"Colonia","municipality":"Villa de Álvarez","municipalityId":"010","city":"Ciudad de Villa de Álvarez","cityId":"04","state":"Colima","stateId":"06","stateCode":"COL","zip":"28986"},{"district":"Villas Providencia","districtType":"Fraccionamiento","municipality":"Villa de Álvarez","municipalityId":"010","city":"Ciudad de Villa de Álvarez","cityId":"04","state":"Colima","stateId":"06","stateCode":"COL","zip":"28987"},{"district":"La Haciendita","districtType":"Colonia","municipality":"Villa de Álvarez","municipalityId":"010","city":"Ciudad de Villa de Álvarez","cityId":"04","state":"Colima","stateId":"06","stateCode":"COL","zip":"28987"},{"district":"San Carlos","districtType":"Colonia","municipality":"Villa de Álvarez","municipalityId":"010","city":"Ciudad de Villa de Álvarez","cityId":"04","state":"Colima","stateId":"06","stateCode":"COL","zip":"28987"},{"district":"Alta Villa","districtType":"Colonia","municipality":"Villa de Álvarez","municipalityId":"010","city":"Ciudad de Villa de Álvarez","cityId":"04","state":"Colima","stateId":"06","stateCode":"COL","zip":"28987"},{"district":"El Llano","districtType":"Colonia","municipality":"Villa de Álvarez","municipalityId":"010","city":"Ciudad de Villa de Álvarez","cityId":"04","state":"Colima","stateId":"06","stateCode":"COL","zip":"28988"},{"district":"Campestre","districtType":"Colonia","municipality":"Villa de Álvarez","municipalityId":"010","city":"Ciudad de Villa de Álvarez","cityId":"04","state":"Colima","stateId":"06","stateCode":"COL","zip":"28988"},{"district":"Las Tunas","districtType":"Colonia","municipality":"Villa de Álvarez","municipalityId":"010","city":"Ciudad de Villa de Álvarez","cityId":"04","state":"Colima","stateId":"06","stateCode":"COL","zip":"28989"},{"district":"Prados de La Villa","districtType":"Colonia","municipality":"Villa de Álvarez","municipalityId":"010","city":"Ciudad de Villa de Álvarez","cityId":"04","state":"Colima","stateId":"06","stateCode":"COL","zip":"28989"},{"district":"Burócratas del Estado","districtType":"Colonia","municipality":"Villa de Álvarez","municipalityId":"010","city":"Ciudad de Villa de Álvarez","cityId":"04","state":"Colima","stateId":"06","stateCode":"COL","zip":"28989"},{"district":"Puerta de Hierro","districtType":"Fraccionamiento","municipality":"Villa de Álvarez","municipalityId":"010","city":"Ciudad de Villa de Álvarez","cityId":"04","state":"Colima","stateId":"06","stateCode":"COL","zip":"28989"},{"district":"Campestre Bugambilias","districtType":"Colonia","municipality":"Villa de Álvarez","municipalityId":"010","city":"Ciudad de Villa de Álvarez","cityId":"04","state":"Colima","stateId":"06","stateCode":"COL","zip":"28989"},{"district":"Leandro Valle","districtType":"Colonia","municipality":"Villa de Álvarez","municipalityId":"010","city":"Ciudad de Villa de Álvarez","cityId":"04","state":"Colima","stateId":"06","stateCode":"COL","zip":"28989"},{"district":"Real de Minas","districtType":"Colonia","municipality":"Villa de Álvarez","municipalityId":"010","city":"Ciudad de Villa de Álvarez","cityId":"04","state":"Colima","stateId":"06","stateCode":"COL","zip":"28989"},{"district":"Villa de Alba","districtType":"Colonia","municipality":"Villa de Álvarez","municipalityId":"010","city":"Ciudad de Villa de Álvarez","cityId":"04","state":"Colima","stateId":"06","stateCode":"COL","zip":"28989"},{"district":"La Comarca","districtType":"Fraccionamiento","municipality":"Villa de Álvarez","municipalityId":"010","city":"Ciudad de Villa de Álvarez","cityId":"04","state":"Colima","stateId":"06","stateCode":"COL","zip":"28989"}]