[
  {"name" : "Aguascalientes", "code" : "AGS", "zip" : ["20"]},
  {"name" : "Baja California", "code" : "BCN", "zip" : ["21, 22"]},
  {"name" : "Baja California Sur", "code" : "BCS", "zip" : ["23"]},
  {"name" : "Campeche", "code" : "CAM", "zip" : ["24"]},
  {"name" : "Chiapas", "code" : "CHP", "zip" : ["29", "30"]},
  {"name" : "Chihuahua", "code" : "CHI", "zip" : ["31", "32", "33"]},
  {"name" : "Coahuila", "code" : "COA", "zip" : ["25", "26", "27"]},
  {"name" : "Colima", "code" : "COL", "zip" : ["28"]},
  {"name" : "Distrito Federal", "code" : "DIF", "zip" : ["01","02","03","04","05","06","07","08","09","10","11","12","13","14","15","16"]},
  {"name" : "Durango", "code" : "DUR", "zip" : ["34", "35"]},
  {"name" : "Guanajuato", "code" : "GTO", "zip" : ["36", "37", "38"]},
  {"name" : "Guerrero", "code" : "GRO", "zip" : ["39", "40", "41"]},
  {"name" : "Hidalgo", "code" : "HGO", "zip" : ["42", "43"]},
  {"name" : "Jalisco", "code" : "JAL", "zip" : ["44", "45", "46", "47", "48", "49"]},
  {"name" : "México", "code" : "MEX", "zip" : ["50", "51", "52", "53", "54", "55", "56", "57"]},
  {"name" : "Michoacán", "code" : "MIC", "zip" : ["58", "59", "60", "61"]},
  {"name" : "Morelos", "code" : "MOR", "zip" : ["62"]},
  {"name" : "Nayarit", "code" : "NAY", "zip" : ["63"]},
  {"name" : "Nuevo León", "code" : "NLE", "zip" : ["64", "65", "66", "67"]},
  {"name" : "Oaxaca", "code" : "OAX", "zip" : ["68", "69", "70", "71"]},
  {"name" : "Puebla", "code" : "PUE", "zip" : ["72", "73", "74", "75"]},
  {"name" : "Querétaro", "code" : "QRO", "zip" : ["76"]},
  {"name" : "Quintana Roo", "code" : "ROO", "zip" : ["77"]},
  {"name" : "San Luis Potosí", "code" : "SLP", "zip" : ["78", "79"]},
  {"name" : "Sinaloa", "code" : "SIN", "zip" : ["80", "81", "82"]},
  {"name" : "Sonora", "code" : "SON", "zip" : ["83", "84", "85"]},
  {"name" : "Tabasco", "code" : "TAB", "zip" : ["86"]},
  {"name" : "Tamaulipas", "code" : "TAM", "zip" : ["87", "88", "89"]},
  {"name" : "Tlaxcala", "code" : "TLX", "zip" : ["90"]},
  {"name" : "Veracruz", "code" : "VER", "zip" : ["91", "92", "93", "94", "95", "96"]},
  {"name" : "Yucatán", "code" : "YUC", "zip" : ["97"]},
  {"name" : "Zacatecas", "code" : "ZAC", "zip" : ["98", "99"]}
]
